{"type":"FeatureCollection","features":[{"type":"Feature","properties":{"projectId":"VCS1429","name":"Recovery of degraded areas with agroforestry systems in Colombia","sourceRegistry":"Verra VCS","externalId":"VCS1429","projectType":"afforestation","country":"Colombia","vintageYears":[],"sourceUrl":"https://zenodo.org/records/11459391","license":"CC BY 4.0 (Karnik et al. dataset); CarbonPlan Terms of Use also apply to the PMTiles derivative","retrievedAt":"2026-10-05","illustrative":false},"geometry":{"type":"MultiPolygon","coordinates":[[[[-75.55692672729492,6.003868193762031],[-75.55686235427856,6.003014594162508],[-75.55632591247559,6.002032952969799],[-75.5563473701477,6.001478111513478],[-75.55632591247559,6.000880589313411],[-75.55617570877075,6.000645848269869],[-75.55621862411499,6.000133685642169],[-75.55613279342651,5.9996642028107345],[-75.55621862411499,5.999301420345873],[-75.55636882781982,5.998895957305379],[-75.55654048919678,5.998533174329339],[-75.55658340454102,5.998213071502974],[-75.55671215057373,5.997978329310882],[-75.55673360824585,5.997743587017723],[-75.55546760559082,5.997636885941986],[-75.55508136749268,5.997231421663784],[-75.55450201034546,5.996868637580391],[-75.55411577224731,5.99656987403641],[-75.5535364151001,5.996399151937808],[-75.55310726165771,5.996463172731055],[-75.55289268493652,5.996207089513021],[-75.55203437805176,5.996164408964987],[-75.55179834365845,5.996185749239416],[-75.55164813995361,5.9962284297857735],[-75.5516266822815,5.996612554552712],[-75.55171251296997,5.996889977827266],[-75.55171251296997,5.99778626744218],[-75.55175542831421,5.997914308695499],[-75.55190563201904,5.998063690119693],[-75.5518627166748,5.9988105966268535],[-75.55201292037964,5.998917297472914],[-75.55218458175659,5.998981317970532],[-75.55224895477295,5.999088018783198],[-75.5524206161499,5.99925874004002],[-75.552978515625,5.999642862672417],[-75.55315017700195,5.999856264017922],[-75.55315017700195,6.000091005401487],[-75.55319309234619,6.000389767016173],[-75.55327892303467,6.000389767016173],[-75.5534291267395,6.000496467553177],[-75.55347204208374,6.000944609580472],[-75.55379390716553,6.0013500710971925],[-75.55381536483765,6.001755532312259],[-75.553879737854,6.00201161292425],[-75.55402994155884,6.002054293014538],[-75.55426597595215,6.002694493967894],[-75.5539870262146,6.003035934168793],[-75.55362224578857,6.003590774038884],[-75.55349349975586,6.004529732531751],[-75.55355787277222,6.0048498316480305],[-75.55349349975586,6.004935191380596],[-75.55349349975586,6.005148590653505],[-75.55355787277222,6.005383329757137],[-75.55383682250977,6.005895487450218],[-75.55405139923096,6.006194245882085],[-75.55407285690308,6.00640764466165],[-75.55400848388672,6.007175879575627],[-75.55413722991943,6.007239899102871],[-75.55422306060791,6.007047840498572],[-75.5548882484436,6.006919801391405],[-75.5554461479187,6.006386304787455],[-75.55585384368896,6.006300945282334],[-75.55621862411499,6.006130226231917],[-75.55654048919678,6.00591682734364],[-75.55673360824585,6.0057247682726995],[-75.55673360824585,6.004679112142753],[-75.55666923522949,6.004294993060256],[-75.55692672729492,6.003868193762031]]],[[[-75.5390739440918,6.006578363625096],[-75.53905248641968,6.005596728854442],[-75.5388593673706,6.005340649927632],[-75.5385160446167,6.004956531311663],[-75.53797960281372,6.004252313145486],[-75.53776502609253,6.004060253487623],[-75.53778648376465,6.0037614938852215],[-75.53752899169922,6.003526754082699],[-75.53752899169922,6.003356034162792],[-75.53737878799438,6.003270674182787],[-75.53725004196167,6.002843874082117],[-75.53712129592896,6.002715833986713],[-75.5364990234375,6.002353053553037],[-75.53579092025757,6.001862232581885],[-75.53521156311035,6.0013500710971925],[-75.5345892906189,6.000880589313411],[-75.53407430648804,6.000304406571544],[-75.53375244140625,6.000368426906277],[-75.53360223770142,6.000475127447444],[-75.53355932235718,6.001051310008847],[-75.53364515304565,6.001179350495335],[-75.5335807800293,6.001670172081518],[-75.53334474563599,6.001904912683884],[-75.53334474563599,6.002075633058453],[-75.53308725357056,6.002267693415902],[-75.53272247314453,6.002417073647109],[-75.53216457366943,6.002907894118522],[-75.531907081604,6.0032279941877675],[-75.53152084350586,6.003484074107746],[-75.53119897842407,6.0041029334174425],[-75.53087711334229,6.004551072478691],[-75.53079128265381,6.0058314677649065],[-75.53051233291626,6.006578363625096],[-75.53046941757202,6.007880093961219],[-75.53025484085083,6.0079014337768655],[-75.52986860275269,6.007709375405909],[-75.52967548370361,6.0074532974726225],[-75.52800178527832,6.006642383222584],[-75.52772283554077,6.0067917622541245],[-75.52725076675415,6.006941141244681],[-75.5269718170166,6.00719721941887],[-75.52624225616455,6.007346598298199],[-75.52602767944336,6.007837414327398],[-75.52619934082031,6.008114831887326],[-75.52626371383667,6.008712346151569],[-75.52630662918091,6.008861724615173],[-75.52680015563965,6.009288519999529],[-75.52690744400024,6.0096512958131],[-75.5270791053772,6.00997139191837],[-75.52710056304932,6.0101847892173055],[-75.52710056304932,6.010334167276753],[-75.52677869796753,6.0105262247215165],[-75.52671432495117,6.010910339407701],[-75.52675724029541,6.011465171253491],[-75.52639245986938,6.011806605954291],[-75.52639245986938,6.011977323224343],[-75.52609205245972,6.012105361141721],[-75.52594184875488,6.0122974179612925],[-75.52536249160767,6.012681531397007],[-75.52519083023071,6.012980286103939],[-75.52525520324707,6.013215021830007],[-75.5254054069519,6.013449757454737],[-75.52579164505005,6.013471097051976],[-75.52647829055786,6.013876549240209],[-75.5274224281311,6.014025926285981],[-75.52765846252441,6.014025926285981],[-75.52776575088501,6.013961907557103],[-75.52815198898315,6.013876549240209],[-75.5284309387207,6.0136844929782],[-75.5288815498352,6.013599134617749],[-75.52913904190063,6.0136418137996515],[-75.52928924560547,6.013535115838636],[-75.5296540260315,6.013492436648363],[-75.53051233291626,6.0135137762439115],[-75.53087711334229,6.012937606870139],[-75.5311131477356,6.012660191768816],[-75.53158521652222,6.012574833247626],[-75.531907081604,6.012468135077313],[-75.53205728530884,6.012510814347948],[-75.53218603134155,6.012382776525996],[-75.53227186203003,6.012233399028958],[-75.53263664245605,6.012169380089119],[-75.53285121917725,6.011721247299178],[-75.53295850753784,6.011401152223243],[-75.53295850753784,6.011059717267983],[-75.5329155921936,6.010718282098509],[-75.53319454193115,6.010739621802884],[-75.5333662033081,6.010824980611986],[-75.53435325622559,6.0111023966491075],[-75.53465366363525,6.011315793504522],[-75.53546905517578,6.011507850602811],[-75.53598403930664,6.011315793504522],[-75.53613424301147,6.011315793504522],[-75.53617715835571,6.011422491900817],[-75.53641319274902,6.011401152223243],[-75.53647756576538,6.011273114140124],[-75.53671360015869,6.011166415714527],[-75.53692817687988,6.011187755401323],[-75.53707838058472,6.011145076026892],[-75.53742170333862,6.011123736338433],[-75.53782939910889,6.010953018800549],[-75.53821563720703,6.010654262980381],[-75.53870916366577,6.0103768467147916],[-75.53894519805908,6.0101847892173055],[-75.53890228271484,6.009886032975388],[-75.53890228271484,6.009437898304981],[-75.53888082504272,6.009075122349174],[-75.53860187530518,6.008691006367727],[-75.5386233329773,6.008456268690068],[-75.53853750228882,6.0080294726531775],[-75.53855895996094,6.007752055049764],[-75.53864479064941,6.007474637304995],[-75.53892374038696,6.006941141244681],[-75.5390739440918,6.006578363625096]]],[[[-75.51729440689087,6.019126060799351],[-75.51656484603882,6.018485879177177],[-75.51583528518677,6.0179097150724346],[-75.51585674285889,6.017653641940939],[-75.51469802856445,6.01754694476719],[-75.51450490951538,6.017738999664843],[-75.51431179046631,6.01816578808328],[-75.51429033279419,6.018549897373333],[-75.51433324813843,6.018934006391888],[-75.51491260528564,6.019467490689479],[-75.51521301269531,6.0199156170946395],[-75.51547050476074,6.020171689160236],[-75.51615715026855,6.019702223614473],[-75.51725149154663,6.019510169410651],[-75.51729440689087,6.019126060799351]]]]}}]}
