{"type":"FeatureCollection","features":[{"type":"Feature","properties":{"projectId":"VCS1397","name":"Reforestation of pasture lands on the Peruvian Northern Andes – “Forestry PRODICOM” Grouped Project","sourceRegistry":"Verra VCS","externalId":"VCS1397","projectType":"afforestation","country":"Peru","vintageYears":[],"sourceUrl":"https://zenodo.org/records/11459391","license":"CC BY 4.0 (Karnik et al. dataset); CarbonPlan Terms of Use also apply to the PMTiles derivative","retrievedAt":"2026-10-05","illustrative":false},"geometry":{"type":"MultiPolygon","coordinates":[[[[-77.84124612808228,-7.812066877256285],[-77.84090280532837,-7.812321979520675],[-77.83961534500122,-7.812321979520675],[-77.83877849578857,-7.812151911361724],[-77.8386926651001,-7.811747999206659],[-77.8382420539856,-7.811407862352027],[-77.83811330795288,-7.811088983799223],[-77.83841371536255,-7.810706329214497],[-77.8386926651001,-7.810621294814737],[-77.83875703811646,-7.810344932895944],[-77.83933639526367,-7.809983536264696],[-77.83995866775513,-7.809388294072832],[-77.84055948257446,-7.809218224719373],[-77.84083843231201,-7.809409552737151],[-77.84096717834473,-7.81136534522571],[-77.8411602973938,-7.811641706469331],[-77.84124612808228,-7.812066877256285]]],[[[-77.83472299575806,-7.812151911361724],[-77.83457279205322,-7.812407013574173],[-77.83403635025024,-7.813087285378828],[-77.83212661743164,-7.813066026901694],[-77.83191204071045,-7.812428272084844],[-77.8317403793335,-7.811705482114974],[-77.83176183700562,-7.8113015695281405],[-77.83221244812012,-7.811344086660938],[-77.83292055130005,-7.8113015695281405],[-77.83392906188965,-7.8113015695281405],[-77.83444404602051,-7.811407862352027],[-77.83472299575806,-7.812151911361724]]],[[[-77.83448696136475,-7.815064319019896],[-77.83442258834839,-7.815510744675365],[-77.83405780792236,-7.815680811466152],[-77.83317804336548,-7.815829619851243],[-77.83249139785767,-7.815999686512129],[-77.83180475234985,-7.8158933948571985],[-77.83165454864502,-7.815128094142764],[-77.83186912536621,-7.814554117686214],[-77.83204078674316,-7.814447825663223],[-77.83231973648071,-7.814341533613145],[-77.83272743225098,-7.814150207854837],[-77.83315658569336,-7.813873848271385],[-77.83343553543091,-7.813618746955058],[-77.83380031585693,-7.813767556075206],[-77.83403635025024,-7.814150207854837],[-77.83429384231567,-7.814447825663223],[-77.83448696136475,-7.815064319019896]]],[[[-77.8274917602539,-7.807368716030467],[-77.82699823379517,-7.807942702361757],[-77.82693386077881,-7.8085379466132565],[-77.82684803009033,-7.808984379245345],[-77.82665491104126,-7.809367035407448],[-77.82644033432007,-7.809855984437846],[-77.82609701156616,-7.810132346680135],[-77.82566785812378,-7.810153605306581],[-77.82476663589478,-7.809175707370201],[-77.82485246658325,-7.808878085804778],[-77.82504558563232,-7.8083891356298665],[-77.82536745071411,-7.808176548418828],[-77.82543182373047,-7.807857667399475],[-77.82586097717285,-7.8072411634053225],[-77.82622575759888,-7.807092351960122],[-77.82626867294312,-7.806837246502184],[-77.82650470733643,-7.80664591730654],[-77.82678365707397,-7.806475846836889],[-77.82729864120483,-7.806475846836889],[-77.82742738723755,-7.806837246502184],[-77.8274917602539,-7.807368716030467]]],[[[-77.82592535018921,-7.819252198064575],[-77.82532453536987,-7.819634844815766],[-77.82465934753418,-7.819868684324291],[-77.82292127609253,-7.819953716840345],[-77.82227754592896,-7.819762393654841],[-77.82225608825684,-7.819549812234726],[-77.8199815750122,-7.819422263330637],[-77.81989574432373,-7.818635710893943],[-77.82006740570068,-7.817976706359474],[-77.82038927078247,-7.817572799840065],[-77.82103300094604,-7.817147634660472],[-77.82156944274902,-7.817083859846164],[-77.82202005386353,-7.816892535344806],[-77.82283544540405,-7.816828760491532],[-77.82365083694458,-7.817062601572573],[-77.82450914382935,-7.817020085022136],[-77.82536745071411,-7.817168892929743],[-77.82560348510742,-7.8174239920764705],[-77.82588243484497,-7.8182318050124024],[-77.82592535018921,-7.819252198064575]]],[[[-77.81307220458984,-7.818954583682128],[-77.81296491622925,-7.819273456226625],[-77.81187057495117,-7.819379747020633],[-77.81131267547607,-7.819634844815766],[-77.81075477600098,-7.819060874557351],[-77.81006813049316,-7.818444387104037],[-77.81002521514893,-7.818189288581081],[-77.80972480773926,-7.817849156974518],[-77.80974626541138,-7.817487766838809],[-77.80987501144409,-7.817275184259842],[-77.80989646911621,-7.817083859846164],[-77.81002521514893,-7.816786243917264],[-77.81036853790283,-7.816616177576876],[-77.81058311462402,-7.816382336245709],[-77.81081914901733,-7.816361077936392],[-77.81139850616455,-7.816169753103679],[-77.81176328659058,-7.816701210755738],[-77.81176328659058,-7.816892535344806],[-77.8127932548523,-7.817785382267431],[-77.81290054321289,-7.817912931671884],[-77.81307220458984,-7.8183168378620564],[-77.81307220458984,-7.818954583682128]]],[[[-77.80526161193848,-7.810429967351965],[-77.8050684928894,-7.810961432309924],[-77.80436038970947,-7.811259052391009],[-77.80337333679199,-7.8113866037894155],[-77.80290126800537,-7.81136534522571],[-77.80268669128418,-7.810961432309924],[-77.80264377593994,-7.810259898422615],[-77.80197858810425,-7.80983472579625],[-77.80195713043213,-7.809196966045334],[-77.80217170715332,-7.808835568420989],[-77.80245065689087,-7.80872927494255],[-77.80245065689087,-7.808325359477919],[-77.80283689498901,-7.808006478572125],[-77.80330896377563,-7.808048996040299],[-77.80378103256226,-7.808686757543612],[-77.8047251701355,-7.809622139320794],[-77.80526161193848,-7.810429967351965]]],[[[-77.80092716217041,-7.805391645965869],[-77.80060529708862,-7.805753046568697],[-77.79989719390869,-7.8064333292086445],[-77.79931783676147,-7.80749626861666],[-77.79884576797485,-7.808155289691783],[-77.79852390289307,-7.808240324593498],[-77.798330783844,-7.808091513504138],[-77.79805183410645,-7.806815987706997],[-77.798330783844,-7.805710528866939],[-77.79897451400757,-7.805008986163443],[-77.79996156692505,-7.804158629792781],[-77.80041217803955,-7.804243665507684],[-77.8007984161377,-7.804860173923444],[-77.80092716217041,-7.805391645965869]]],[[[-77.79938220977783,-7.823886451767578],[-77.79916763305664,-7.824736767956665],[-77.79865264892578,-7.825183183261743],[-77.79818058013916,-7.824991862475244],[-77.79770851135254,-7.823971483464533],[-77.79719352722168,-7.82329122940348],[-77.79762268066406,-7.822929843982195],[-77.79818058013916,-7.822738522161785],[-77.79895305633545,-7.8229936179028385],[-77.79910326004028,-7.8231424236797125],[-77.79938220977783,-7.823886451767578]]],[[[-77.79642105102539,-7.823546324806429],[-77.79487609863281,-7.82384393591262],[-77.79472589492798,-7.824332867983088],[-77.79433965682983,-7.825289472549628],[-77.79313802719116,-7.826586199679866],[-77.79236555099487,-7.826522426308742],[-77.79137849807739,-7.82605475462249],[-77.79049873352051,-7.825884692061052],[-77.79043436050415,-7.825820918582622],[-77.7897047996521,-7.825820918582622],[-77.78938293457031,-7.826246074921215],[-77.78854608535767,-7.8267987775130905],[-77.78777360916138,-7.826564941890567],[-77.78828859329224,-7.824779283720602],[-77.78841733932495,-7.824247836359845],[-77.78863191604614,-7.8238226779835],[-77.78897523880005,-7.823418777124473],[-77.78921127319336,-7.822929843982195],[-77.78991937637329,-7.822951101956832],[-77.79009103775024,-7.822674748202161],[-77.78998374938965,-7.821760653709006],[-77.79030561447144,-7.821016621828662],[-77.79073476791382,-7.820655234436501],[-77.79135704040527,-7.82061271825215],[-77.79180765151978,-7.820889073373067],[-77.79212951660156,-7.821335492797047],[-77.79253721237183,-7.821569331352251],[-77.7931809425354,-7.821569331352251],[-77.79354572296143,-7.821335492797047],[-77.79403924942017,-7.821611847439115],[-77.7953052520752,-7.822568458247758],[-77.79642105102539,-7.823546324806429]]],[[[-77.79556274414062,-7.796143936046178],[-77.7951979637146,-7.797313198016639],[-77.79369592666626,-7.797206901608874],[-77.79124975204468,-7.796654159853247],[-77.79037895955196,-7.796434818326419],[-77.79013395309448,-7.796377788701648],[-77.79015255021747,-7.796377788701648],[-77.78871774673462,-7.796016379997212],[-77.78891086578369,-7.79539985854575],[-77.78951168060303,-7.794655779722461],[-77.78946876525879,-7.7939967373743],[-77.78964042663574,-7.7938054023046845],[-77.79045581817627,-7.793656586078953],[-77.79084205627441,-7.793316434507219],[-77.79197931289673,-7.792827466138647],[-77.79225826263428,-7.792508573416669],[-77.79438257217407,-7.791296778858111],[-77.79457569122314,-7.7914455959226245],[-77.79470443725586,-7.7925510924603],[-77.79536962509155,-7.7925298329390245],[-77.79545545578003,-7.793316434507219],[-77.7953052520752,-7.79416681291832],[-77.79549837112427,-7.794910892610886],[-77.79556274414062,-7.796143936046178]]],[[[-77.79433965682983,-7.77003665523948],[-77.79369592666626,-7.770546910825516],[-77.79341697692871,-7.77124851124384],[-77.79326677322388,-7.771928849923697],[-77.79258012771606,-7.772077673862938],[-77.79240846633911,-7.771950110489669],[-77.79118537902832,-7.770610692730173],[-77.7910566329956,-7.77003665523948],[-77.79133558273315,-7.769653963143028],[-77.79131412506104,-7.769377574189804],[-77.79103517532349,-7.768718492105734],[-77.79103517532349,-7.767549150378926],[-77.79146432876587,-7.767187716822917],[-77.79208660125732,-7.766932587066734],[-77.79288053512573,-7.767230238433882],[-77.79311656951904,-7.768378320302816],[-77.79410362243652,-7.768505884761197],[-77.79433965682983,-7.77003665523948]]],[[[-77.79075622558594,-7.810174863931962],[-77.7907133102417,-7.811046466640462],[-77.790048122406,-7.811896808993453],[-77.78966188430786,-7.812024360197071],[-77.78899669647217,-7.812045618727211],[-77.78833150863647,-7.811854291916916],[-77.78740882873535,-7.8112803109601145],[-77.78736591339111,-7.810685070616188],[-77.78721570968628,-7.8103661915115765],[-77.78704404830933,-7.810238639801554],[-77.78631448745728,-7.810238639801554],[-77.78629302978516,-7.81087639796209],[-77.78614282608032,-7.8113866037894155],[-77.78496265411377,-7.811407862352027],[-77.78491973876953,-7.811298532554147],[-77.78491973876953,-7.811322828095072],[-77.78481245040894,-7.811025208059448],[-77.78427600860596,-7.810493743182633],[-77.7842116355896,-7.809196966045334],[-77.78434038162231,-7.808835568420989],[-77.78539180755615,-7.808835568420989],[-77.78539180755615,-7.808261583316238],[-77.7856707572937,-7.807772632419869],[-77.78616428375244,-7.807538786136746],[-77.78629302978516,-7.807007316824766],[-77.78663635253906,-7.806667176110395],[-77.78728008270264,-7.806688434913156],[-77.78751611709595,-7.806901022881263],[-77.7876877784729,-7.807134869521306],[-77.78794527053833,-7.807368716030467],[-77.78873920440674,-7.807602562408761],[-77.78908252716064,-7.808006478572125],[-77.79017686843872,-7.808963120559383],[-77.79075622558594,-7.810174863931962]]],[[[-77.78833150863647,-7.858301612238222],[-77.78785943984985,-7.859300650934145],[-77.78755903244019,-7.859513212048583],[-77.78680801391602,-7.859576980361695],[-77.78659343719482,-7.85927939481671],[-77.78627157211304,-7.8585779423308395],[-77.78625011444092,-7.858046538143313],[-77.78648614883423,-7.857791463891687],[-77.7871298789978,-7.857791463891687],[-77.78762340545654,-7.857663926707119],[-77.788245677948,-7.857387596006106],[-77.78833150863647,-7.858301612238222]]],[[[-77.78545618057251,-7.8146178928870285],[-77.78517723083496,-7.815234385992554],[-77.78416872024536,-7.815765844835553],[-77.78378248214722,-7.8166374358732185],[-77.78346061706543,-7.817679091067291],[-77.783203125,-7.817636574579652],[-77.78161525726318,-7.817338959044903],[-77.78170108795166,-7.817041343297888],[-77.78159379959106,-7.816063461492078],[-77.78193712234497,-7.815170610885929],[-77.78225898742676,-7.814915510361985],[-77.78290271759033,-7.815043060643447],[-77.783203125,-7.81480921843098],[-77.7836537361145,-7.814702926472947],[-77.78361082077026,-7.813746297632704],[-77.78442621231079,-7.813640005404039],[-77.78509140014648,-7.813852589834312],[-77.78545618057251,-7.8146178928870285]]],[[[-77.78406143188477,-7.818465645307256],[-77.78397560119629,-7.8193159725474715],[-77.783203125,-7.8199324587129695],[-77.78277397155762,-7.8205276858704025],[-77.78266668319702,-7.822122040143427],[-77.782301902771,-7.822377136261551],[-77.78223752975464,-7.823652614511602],[-77.78249502182007,-7.82443915748776],[-77.78238773345947,-7.826118528065152],[-77.78221607208252,-7.826458652927883],[-77.78176546096802,-7.828074242235644],[-77.78148651123047,-7.8288182615211355],[-77.78148651123047,-7.8287776782742435],[-77.7812933921814,-7.829264672454812],[-77.7807354927063,-7.829519764202189],[-77.77949094772339,-7.830306296106798],[-77.77884721755981,-7.830561387216449],[-77.7782678604126,-7.830476356863926],[-77.77820348739624,-7.830242523304989],[-77.77818202972412,-7.829647310017322],[-77.77921199798584,-7.828945807550994],[-77.77994155883789,-7.827904180498152],[-77.78052091598511,-7.826097270252021],[-77.78032779693604,-7.825055636080492],[-77.78039216995239,-7.823503808916769],[-77.78000593185425,-7.8229936179028385],[-77.77992010116577,-7.821718137637305],[-77.7807354927063,-7.820378879160657],[-77.78144359588623,-7.819486037787556],[-77.78228044509888,-7.818146772145411],[-77.78273105621338,-7.817912931671884],[-77.783203125,-7.817764124029566],[-77.78346061706543,-7.817679091067291],[-77.78380393981934,-7.8178916734405135],[-77.78406143188477,-7.818465645307256]]],[[[-77.78215169906616,-7.811514155148856],[-77.78191566467285,-7.812045618727211],[-77.78148651123047,-7.81230072100459],[-77.78148651123047,-7.812290909359811],[-77.78135776519775,-7.812364496549591],[-77.77889013290405,-7.812364496549591],[-77.77876138687134,-7.811896808993453],[-77.77895450592041,-7.8113866037894155],[-77.77923345565796,-7.811025208059448],[-77.77964115142822,-7.8108551393724355],[-77.78122901916504,-7.810791363596962],[-77.78140068054199,-7.810961432309924],[-77.78172254562378,-7.810961432309924],[-77.7820873260498,-7.811110242376998],[-77.78215169906616,-7.811514155148856]]],[[[-77.77964115142822,-7.862935431004487],[-77.77953386306763,-7.863275525756379],[-77.77925491333008,-7.863615620229467],[-77.77893304824829,-7.863913202664719],[-77.77858972549438,-7.864019482054118],[-77.77719497680664,-7.863934458544776],[-77.7768087387085,-7.863615620229467],[-77.7767014503479,-7.8632330139276405],[-77.7767014503479,-7.862935431004487],[-77.77687311172485,-7.862722871642987],[-77.77691602706909,-7.862574080025141],[-77.777259349823,-7.862467800265435],[-77.7777099609375,-7.862361520478501],[-77.7782678604126,-7.862340264517854],[-77.77843952178955,-7.862148960822978],[-77.77891159057617,-7.862148960822978],[-77.77921199798584,-7.86240403239654],[-77.77964115142822,-7.862595335973808],[-77.77964115142822,-7.862935431004487]]],[[[-77.77605772018433,-7.817551541591371],[-77.77590751647949,-7.818423128899752],[-77.77590751647949,-7.819656102958319],[-77.77575731277466,-7.820485169673049],[-77.77543544769287,-7.820378879160657],[-77.77519941329956,-7.820102523701763],[-77.77408361434937,-7.819996233091885],[-77.7737832069397,-7.819719877379484],[-77.77348279953003,-7.819337230706282],[-77.77341842651367,-7.818869550962432],[-77.77337551116943,-7.8178704152080485],[-77.77343988418579,-7.81719015119792],[-77.7735686302185,-7.816233528057666],[-77.7737832069397,-7.815850878187646],[-77.77483463287354,-7.81580836151376],[-77.77584314346313,-7.815850878187646],[-77.7760362625122,-7.816531144380704],[-77.77605772018433,-7.817551541591371]]],[[[-77.7517032623291,-7.854624278881559],[-77.75095224380493,-7.855219456431357],[-77.75052309036255,-7.855325738046929],[-77.75005102157593,-7.855538301196447],[-77.7497935295105,-7.85638855270652],[-77.74951457977295,-7.85689870277686],[-77.74880647659302,-7.856962471491585],[-77.74869918823242,-7.856856190294934],[-77.74852752685547,-7.856537346541785],[-77.74848461151123,-7.856069708594262],[-77.74818420410156,-7.855729607938002],[-77.7478837966919,-7.855665839033961],[-77.74786233901978,-7.855240712756654],[-77.74693965911865,-7.854730560649443],[-77.7467679977417,-7.854390458896518],[-77.74672508239746,-7.853880305744923],[-77.74672508239746,-7.853178844138412],[-77.74693965911865,-7.852881254008096],[-77.74719715118408,-7.852711202409338],[-77.74784088134766,-7.852604920124776],[-77.74880647659302,-7.8526474330418665],[-77.74884939193726,-7.852477381347413],[-77.74962186813354,-7.852477381347413],[-77.75015830993652,-7.852052251806697],[-77.75056600570679,-7.851924712859656],[-77.75084495544434,-7.852094764780347],[-77.75133848190308,-7.852966279781384],[-77.75142431259155,-7.853710254555139],[-77.7517032623291,-7.854092869634229],[-77.7517032623291,-7.854624278881559]]],[[[-77.74895668029785,-7.865868739070891],[-77.74872064590454,-7.866187575654223],[-77.74790525436401,-7.866591434974524],[-77.74668216705322,-7.867760499210831],[-77.74655342102051,-7.868802026390341],[-77.74633884429932,-7.869014582636112],[-77.74590969085693,-7.869163371943287],[-77.745201587677,-7.869205883164099],[-77.74492263793945,-7.869057093872172],[-77.74490118026733,-7.868823282019818],[-77.74468660354614,-7.8686957482266],[-77.74436473846436,-7.868738259495373],[-77.74423599243164,-7.869078349488575],[-77.74397850036621,-7.869205883164099],[-77.74367809295654,-7.869227138772871],[-77.74322748184204,-7.869142116331247],[-77.74305582046509,-7.869057093872172],[-77.74305582046509,-7.8686957482266],[-77.74247646331787,-7.868674492590557],[-77.7416181564331,-7.8696947618901305],[-77.74118900299072,-7.870098617794156],[-77.74073839187622,-7.870417451124638],[-77.74022340774536,-7.870183640039599],[-77.740159034729,-7.869886062104257],[-77.73964405059814,-7.868844537648201],[-77.7396011352539,-7.8682706352991545],[-77.73962259292603,-7.867994311662571],[-77.73985862731934,-7.86784552193582],[-77.7402663230896,-7.8678030105755],[-77.74054527282715,-7.86761170940018],[-77.74065256118774,-7.867335385324438],[-77.7412748336792,-7.867016549623642],[-77.74118900299072,-7.866442644744382],[-77.74157524108887,-7.866102552589311],[-77.74157524108887,-7.865613669627734],[-77.74181127548218,-7.865061018629433],[-77.74249792098999,-7.865124786089893],[-77.74279832839966,-7.865422367442434],[-77.74352788925171,-7.865571158038634],[-77.74406433105469,-7.866102552589311],[-77.74515867233276,-7.866187575654223],[-77.74590969085693,-7.866102552589311],[-77.74590969085693,-7.86595376218375],[-77.74629592895508,-7.865209809355278],[-77.7467679977417,-7.864572134440181],[-77.74739027023315,-7.8644020876305945],[-77.74809837341309,-7.864763437017643],[-77.74895668029785,-7.86548613484733],[-77.74895668029785,-7.865868739070891]]],[[[-77.73940801620483,-7.871310183145198],[-77.73934364318848,-7.871926592227581],[-77.73878574371338,-7.872543000393051],[-77.73848533630371,-7.873138152234461],[-77.73829221725464,-7.8732656846607085],[-77.7379059791565,-7.873159407641566],[-77.73745536804199,-7.872925598103521],[-77.73691892623901,-7.872351701405336],[-77.73670434951782,-7.871820314864991],[-77.73683309555054,-7.871692781993914],[-77.73726224899292,-7.871395205142107],[-77.73756265640259,-7.8711188835883945],[-77.7381420135498,-7.870289917821879],[-77.73827075958252,-7.8702686622676055],[-77.73885011672974,-7.870311173375072],[-77.73927927017212,-7.8707150286784895],[-77.73940801620483,-7.871310183145198]]]]}}]}
