{"type":"FeatureCollection","features":[{"type":"Feature","properties":{"projectId":"VCS1799","name":"Forest Management to mitigate climate change in the native community of Bélgica, Madre de Dios Region – Peru","sourceRegistry":"Verra VCS","externalId":"VCS1799","projectType":"avoided_deforestation","country":"Peru","vintageYears":[],"sourceUrl":"https://zenodo.org/records/11459391","license":"CC BY 4.0 (Karnik et al. dataset); CarbonPlan Terms of Use also apply to the PMTiles derivative","retrievedAt":"2026-10-05","illustrative":false},"geometry":{"type":"Polygon","coordinates":[[[-70.01893758773804,-11.056051216833808],[-70.00762939453125,-11.069128824156422],[-70.00396013259888,-11.082858630511069],[-70.00301599502563,-11.092165893501985],[-70.00284433364868,-11.09385043431773],[-70.00284184413964,-11.09385043431773],[-70.00226497650146,-11.099430406399065],[-69.9935531616211,-11.104294370567018],[-69.97973442077637,-11.109726754222692],[-69.96349096298218,-11.110969029300975],[-69.9609375,-11.111011140227887],[-69.9485993385315,-11.111242750217244],[-69.9324631690979,-11.105199774864559],[-69.92604732513428,-11.10840025126602],[-69.92068290710449,-11.092860767765117],[-69.91568326950073,-11.09385043431773],[-69.91566978346432,-11.09385043431773],[-69.90607023239136,-11.095745531127406],[-69.90201475573943,-11.09385043431773],[-69.90201473236084,-11.09385043431773],[-69.89840984344482,-11.092165893501985],[-69.89840246370754,-11.092162434683454],[-69.89480495452881,-11.090481342976474],[-69.89481568543633,-11.090481342976474],[-69.89409685134888,-11.090144431706321],[-69.8794412612915,-11.088017670351363],[-69.873046875,-11.090439229088958],[-69.8729361256089,-11.090481342976474],[-69.8729395866394,-11.090481342976474],[-69.87133026123047,-11.091091993663824],[-69.87133026123047,-11.091091687369776],[-69.86849784851074,-11.092165893501985],[-69.8654294013977,-11.093324016355922],[-69.86489295959473,-11.092165893501985],[-69.85954999923706,-11.080858162006592],[-69.84476566314697,-11.078752390908207],[-69.82983112335205,-11.076583430833992],[-69.81530427932739,-11.072814034796451],[-69.80672121047974,-11.064411686874237],[-69.79519844055176,-11.05442963710378],[-69.78515625,-11.044889512519518],[-69.78509187698364,-11.04480527162741],[-69.78343963623047,-11.044173464165908],[-69.78343963623047,-11.04416394287898],[-69.77749586105347,-11.041856825173582],[-69.76987838745117,-11.042551818790685],[-69.75597381591797,-11.043162569399115],[-69.7536563873291,-11.049838622492558],[-69.74700450897217,-11.053439837277395],[-69.74157571792603,-11.059462822828607],[-69.73700523376465,-11.06342192075084],[-69.7353744506836,-11.070076454179087],[-69.73035335540771,-11.066117446176648],[-69.72204923629761,-11.062748035519803],[-69.70820903778076,-11.056367107945434],[-69.70391750335693,-11.044152403893776],[-69.69898223876953,-11.040042894462145],[-69.69898223876953,-11.040045621956963],[-69.697265625,-11.03861349987723],[-69.69617128372192,-11.03770788966385],[-69.69554901123047,-11.038023800520534],[-69.69554901123047,-11.038021993051881],[-69.68715906143188,-11.042256973214648],[-69.67806100845337,-11.037160310040733],[-69.67379093170166,-11.037834254047283],[-69.6694564819336,-11.037939557658632],[-69.66546535491943,-11.033832688844825],[-69.66842651367188,-11.028504204271954],[-69.66737508773804,-11.011212290911047],[-69.66735363006592,-11.005904459659448],[-69.6673321723938,-10.995267446527649],[-69.6676754951477,-10.977257371509666],[-69.67005729675293,-10.969842378132924],[-69.67067956924438,-10.96470233037573],[-69.67263221740723,-10.963965021115797],[-69.67844724655151,-10.963206643959367],[-69.68361854553223,-10.965692428490271],[-69.68898296356201,-10.967040641868834],[-69.69205141067505,-10.966661457477457],[-69.69554901123047,-10.970187964576358],[-69.69554901123047,-10.970179427322691],[-69.69602108001709,-10.970663934859644],[-69.697265625,-10.970895655574822],[-69.70054864883423,-10.971485489302793],[-69.70554828643799,-10.971485489302793],[-69.70805883407593,-10.976583288892257],[-69.71174955368042,-10.979785167623945],[-69.71601963043213,-10.979490259192076],[-69.71943140029907,-10.975277249443906],[-69.72116947174072,-10.972180648970948],[-69.7238302230835,-10.966219075072914],[-69.72376585006714,-10.971885732947783],[-69.72432374954224,-10.977826127521581],[-69.73264932632446,-10.979090025849231],[-69.73857164382935,-10.98098586319891],[-69.73966598510742,-10.975867074425864],[-69.74511623382568,-10.973486702107124],[-69.7418761253357,-10.968936556531105],[-69.74565267562866,-10.963712228946392],[-69.74895715713501,-10.956760359633222],[-69.75217580795288,-10.94942912054502],[-69.75530862808228,-10.949618723842534],[-69.75863456726074,-10.9480597597923],[-69.7635269165039,-10.946416518532416],[-69.76944923400879,-10.94702746827052],[-69.7747278213501,-10.949576589786915],[-69.77258205413818,-10.945110345900474],[-69.77479219436646,-10.939527446365759],[-69.7793197631836,-10.940054139493839],[-69.78135824203491,-10.938052700628717],[-69.78343963623047,-10.935697369496742],[-69.78343963623047,-10.935693092191201],[-69.78515625,-10.933754828356967],[-69.78590726852417,-10.932912100999758],[-69.79094982147217,-10.93463968950499],[-69.7960352897644,-10.936093384230816],[-69.80064868927002,-10.928866976359231],[-69.80554103851318,-10.927750343698492],[-69.80764389038086,-10.926886530644566],[-69.81137752532959,-10.926085921178881],[-69.80693578720093,-10.932869964569036],[-69.80841636657715,-10.931669073777513],[-69.81382369995117,-10.930299630977231],[-69.81451034545898,-10.934134054886542],[-69.82006788253784,-10.93438687230352],[-69.82571125030518,-10.936009112267385],[-69.83043193817139,-10.936725423193167],[-69.83667612075806,-10.929204072185811],[-69.84204053878784,-10.927687137950528],[-69.84766244888306,-10.924737521407863],[-69.8548936843872,-10.928108509349286],[-69.86469984054565,-10.928719496814693],[-69.87124443054199,-10.930004673239026],[-69.87133026123047,-10.929963539596573],[-69.87133026123047,-10.929962536395351],[-69.873046875,-10.929140866747503],[-69.88214492797852,-10.9248639341466],[-69.89982604980469,-10.920924045151338],[-69.91630554199219,-10.925306378308235],[-69.92398738861084,-10.929983604817934],[-69.93490934371948,-10.923030944166086],[-69.9513030052185,-10.927265765953479],[-69.95855569839478,-10.93455541712845],[-69.95922088623047,-10.935414459588504],[-69.95922088623047,-10.935398139816229],[-69.9609375,-10.937631343356387],[-69.96265411376953,-10.939843462354915],[-69.96265411376953,-10.939852801811531],[-69.9688982963562,-10.947933356942116],[-69.97228860855103,-10.958740605711299],[-69.97698783874512,-10.973634159356621],[-69.98539924621582,-10.98625201418794],[-69.99503374099731,-10.997837215557624],[-69.99776682875645,-11.004219413864234],[-69.99778032302856,-11.004219413864234],[-69.9984884262085,-11.005904459659448],[-69.99921798706055,-11.007589495816603],[-69.99921428466007,-11.007589495816603],[-70.00142812728882,-11.012728796554313],[-70.00295162200928,-11.015740722097632],[-70.00649213790894,-11.028799063650567],[-70.0129508972168,-11.042004248199518],[-70.01893758773804,-11.056051216833808]]]}}]}
