{"type":"FeatureCollection","features":[{"type":"Feature","properties":{"projectId":"VCS1351","name":"Planting for the Future: Financially sustainable agroforestry systems and payments for ecosystem services","sourceRegistry":"Verra VCS","externalId":"VCS1351","projectType":"afforestation","country":"Peru","vintageYears":[],"sourceUrl":"https://zenodo.org/records/11459391","license":"CC BY 4.0 (Karnik et al. dataset); CarbonPlan Terms of Use also apply to the PMTiles derivative","retrievedAt":"2026-10-05","illustrative":false},"geometry":{"type":"MultiPolygon","coordinates":[[[[-73.43021392822266,-4.016779051444885],[-73.42941999435425,-4.017528224807663],[-73.42890501022339,-4.016864671292581],[-73.4295916557312,-4.016243927193173],[-73.43021392822266,-4.016779051444885]]],[[[-73.4300422668457,-4.01551615764771],[-73.42995643615723,-4.016094092339813],[-73.42937707901001,-4.016243927193173],[-73.42922687530518,-4.015751612571677],[-73.4300422668457,-4.01551615764771]]],[[[-73.39118242263794,-4.00151717023752],[-73.39006662368774,-4.001731223836217],[-73.39008808135986,-4.000682360668151],[-73.39094638824463,-4.000532522963084],[-73.39118242263794,-4.00151717023752]]],[[[-73.38875770568848,-3.9982635486517353],[-73.388671875,-3.99830635954595],[-73.38727712631226,-3.9989699281202036],[-73.38723421096802,-3.9985846303037818],[-73.38749170303345,-3.99843479221515],[-73.38747024536133,-3.9982849540991197],[-73.3885645866394,-3.997749817746879],[-73.388671875,-3.9980494941471676],[-73.38875770568848,-3.9982635486517353]]],[[[-73.38420867919922,-3.995416619170129],[-73.38350057601929,-3.995887540518453],[-73.38311433792114,-3.9948600754099317],[-73.38377952575684,-3.9944105590203094],[-73.38392972946167,-3.9946888311000777],[-73.3837366104126,-3.9948814809461624],[-73.38420867919922,-3.995416619170129]]],[[[-73.3795952796936,-4.00415002561283],[-73.37899446487427,-4.004535320811186],[-73.378586769104,-4.004578131377585],[-73.37837219238281,-4.003850351444271],[-73.37873697280884,-4.003465055923499],[-73.37944507598877,-4.003593487783903],[-73.3795952796936,-4.00415002561283]]],[[[-73.37697744369507,-4.004706563063337],[-73.37586164474487,-4.004706563063337],[-73.37547540664673,-4.00412862031871],[-73.37674140930176,-4.003957377945639],[-73.37697744369507,-4.004706563063337]]],[[[-73.37648391723633,-3.88313704484942],[-73.37620496749878,-3.8837364801373724],[-73.37618350982666,-3.8841004227830638],[-73.3761191368103,-3.8845928155244707],[-73.37607622146606,-3.8846784490153823],[-73.37609767913818,-3.8847212657575767],[-73.37590456008911,-3.8847212657575767],[-73.37590456008911,-3.8842502814739106],[-73.37588310241699,-3.8841218311690966],[-73.37590456008911,-3.8837150717415625],[-73.37588310241699,-3.8834367625466086],[-73.37594747543335,-3.8830514112021035],[-73.37590456008911,-3.8829015522983923],[-73.37594747543335,-3.8826232428352228],[-73.37599039077759,-3.882559017561448],[-73.37635517120361,-3.882537609135781],[-73.37644100189209,-3.882494792282799],[-73.37648391723633,-3.88313704484942]]],[[[-73.35487604141235,-3.9138575537569125],[-73.35472583770752,-3.9140074071431883],[-73.35476875305176,-3.9140288147676188],[-73.35476875305176,-3.914071630014803],[-73.3547043800354,-3.9140930376375707],[-73.35453271865845,-3.9140074071431883],[-73.35446834564209,-3.913814738498772],[-73.35448980331421,-3.913686292711205],[-73.35442543029785,-3.9136648850780205],[-73.35433959960938,-3.913707700343835],[-73.35406064987183,-3.9136434774443103],[-73.35401773452759,-3.9135578469039274],[-73.35388898849487,-3.9135150316304674],[-73.35384607315063,-3.9133437705147287],[-73.3538031578064,-3.913300955230312],[-73.35378170013428,-3.913172509363946],[-73.35406064987183,-3.913001248178162],[-73.35410356521606,-3.912722948676574],[-73.35433959960938,-3.912765763990521],[-73.35438251495361,-3.9128942099192585],[-73.35446834564209,-3.913001248178162],[-73.35444688796997,-3.913086878775431],[-73.35464000701904,-3.913151101717645],[-73.35483312606812,-3.9133865857969425],[-73.35483312606812,-3.913707700343835],[-73.35487604141235,-3.9138575537569125]]],[[[-73.3498764038086,-3.9197018159417922],[-73.34918975830078,-3.920472484831322],[-73.34882497787476,-3.9195091486084124],[-73.34938287734985,-3.9191024063144084],[-73.3498764038086,-3.9197018159417922]]],[[[-73.34575653076172,-3.915056380096175],[-73.34558486938477,-3.9156129774559076],[-73.34446907043457,-3.9154845319442018],[-73.34442615509033,-3.9152918636396805],[-73.34444761276245,-3.915206233267895],[-73.3443832397461,-3.915056380096175],[-73.34440469741821,-3.914970749700288],[-73.34436178207397,-3.9146282280292013],[-73.34474802017212,-3.914585412810453],[-73.3447265625,-3.9145425975895165],[-73.34522008895874,-3.9146924508531953],[-73.34526300430298,-3.9146924508531953],[-73.34524154663086,-3.91460682042009],[-73.34545612335205,-3.9146710432457468],[-73.34575653076172,-3.915056380096175]],[[-73.34543466567993,-3.915377494002712],[-73.34526300430298,-3.914713858460104],[-73.3451771736145,-3.9148637116931297],[-73.34526300430298,-3.914970749700288],[-73.34541320800781,-3.915377494002712],[-73.34543466567993,-3.915377494002712]],[[-73.3448338508606,-3.9154417167692372],[-73.34474802017212,-3.9154417167692372],[-73.34459781646729,-3.9154845319442018],[-73.3448338508606,-3.9154417167692372]]],[[[-73.34504842758179,-3.913750515607447],[-73.34489822387695,-3.9142857062179672],[-73.3441686630249,-3.91441415191359],[-73.34429740905762,-3.9136648850780205],[-73.34504842758179,-3.913750515607447]]],[[[-73.34182977676392,-3.891036711423382],[-73.3412504196167,-3.8910795278426775],[-73.34097146987915,-3.891036711423382],[-73.3409070968628,-3.8902446072740986],[-73.34157228469849,-3.8902231990435183],[-73.34176540374756,-3.8901803825807093],[-73.34178686141968,-3.890480097774656],[-73.34176540374756,-3.89069417999076],[-73.34182977676392,-3.891036711423382]]],[[[-73.3358645439148,-3.8961104419512225],[-73.33584308624268,-3.8963673388859235],[-73.33500623703003,-3.8969025405812374],[-73.334641456604,-3.8968383163957867],[-73.33453416824341,-3.896602827673803],[-73.33472728729248,-3.895874953025512],[-73.3358645439148,-3.8961104419512225]]],[[[-73.33507061004639,-3.900691758840509],[-73.3348560333252,-3.9007559827315816],[-73.3347487449646,-3.9007559827315816],[-73.334641456604,-3.9008416145787237],[-73.33444833755493,-3.9008630225391414],[-73.3344054222107,-3.9009058384583426],[-73.33434104919434,-3.9007559827315816],[-73.33434104919434,-3.9006489429103937],[-73.33427667617798,-3.9004776791681195],[-73.33410501480103,-3.9004348632270904],[-73.3340835571289,-3.9001565595572885],[-73.33416938781738,-3.9001351515788656],[-73.33421230316162,-3.900028111678594],[-73.33455562591553,-3.8999210717646946],[-73.33477020263672,-3.8998140318371526],[-73.33483457565308,-3.9001565595572885],[-73.33489894866943,-3.900263599441203],[-73.33489894866943,-3.9004348632270904],[-73.33507061004639,-3.900691758840509]]],[[[-73.33431959152222,-3.8945262424540203],[-73.33350419998169,-3.8949758128847094],[-73.33301067352295,-3.8942051205707884],[-73.33371877670288,-3.893734141587103],[-73.33431959152222,-3.8945262424540203]]],[[[-73.33423376083374,-3.914200075743267],[-73.33414793014526,-3.9144997823663914],[-73.33376169204712,-3.914521189978231],[-73.33369731903076,-3.914435559527618],[-73.3336329460144,-3.9143713366838995],[-73.33369731903076,-3.914307113835278],[-73.33369731903076,-3.914221483362766],[-73.33371877670288,-3.914221483362766],[-73.3336329460144,-3.9141358528815005],[-73.33309650421143,-3.914328521452049],[-73.3330750465393,-3.914221483362766],[-73.33296775817871,-3.914050222391481],[-73.33294630050659,-3.913814738498772],[-73.33346128463745,-3.9139003690128646],[-73.33371877670288,-3.9139003690128646],[-73.33421230316162,-3.9140074071431883],[-73.33423376083374,-3.914200075743267]]],[[[-73.33404064178467,-3.8957465044927915],[-73.33352565765381,-3.8960890338697993],[-73.33301067352295,-3.8962388904283927],[-73.33268880844116,-3.8955110154652175],[-73.33352565765381,-3.894997220994455],[-73.33404064178467,-3.8957465044927915]]],[[[-73.33240985870361,-3.9075850951217888],[-73.33232402801514,-3.907884804110566],[-73.3312726020813,-3.9077991729818393],[-73.3318305015564,-3.9071141236373563],[-73.33240985870361,-3.9075850951217888]]],[[[-73.33225965499878,-3.9085056295323284],[-73.33223819732666,-3.908933784727836],[-73.33180904388428,-3.9089123769732623],[-73.33142280578613,-3.9088695614624385],[-73.33103656768799,-3.9088481537062165],[-73.33095073699951,-3.9088695614624385],[-73.33062887191772,-3.9088053381921384],[-73.33045721054077,-3.9088053381921384],[-73.33043575286865,-3.90865548387562],[-73.33047866821289,-3.9082273285380182],[-73.33105802536011,-3.9081416974442647],[-73.33142280578613,-3.90816310521852],[-73.33140134811401,-3.9082915518525994],[-73.33144426345825,-3.9084628140007567],[-73.33225965499878,-3.9085056295323284]]]]}}]}
