{"type":"FeatureCollection","features":[{"type":"Feature","properties":{"projectId":"VCS1899","name":"Sumatra Merang Peatland Project (SMPP)","sourceRegistry":"Verra VCS","externalId":"VCS1899","projectType":"afforestation","country":"Indonesia","vintageYears":[2016,2017,2018,2019,2020],"sourceUrl":"https://zenodo.org/records/11459391","license":"CC BY 4.0 (Karnik et al. dataset); CarbonPlan Terms of Use also apply to the PMTiles derivative","retrievedAt":"2026-10-05","illustrative":false},"geometry":{"type":"Polygon","coordinates":[[[104.04919624328613,-1.9935518191322217],[104.05014038085938,-1.993809155330041],[104.0536379814148,-1.9948599443868176],[104.05546188354492,-1.9955032842943865],[104.05627727508545,-1.9958892881181356],[104.05704975128174,-1.9963181811493342],[104.05865907669067,-1.9972403007874249],[104.05949592590332,-1.9977335273581787],[104.06026840209961,-1.998248198404525],[104.06078338623047,-1.9985422960223957],[104.06078338623047,-1.9985484231070956],[104.06177043914795,-1.9991059831233144],[104.0619421005249,-1.9999208781909772],[104.06207084655762,-2.0006714390794684],[104.06226396560669,-2.0015506671119994],[104.0625,-2.0029445642459365],[104.06271457672119,-2.004274126560915],[104.0629506111145,-2.005260575322751],[104.06307935714722,-2.006247023489962],[104.06335830688477,-2.007662361125398],[104.0625,-2.008455807445557],[104.06140565872192,-2.0099354765807647],[104.06078338623047,-2.010578810569143],[104.06078338623047,-2.0105814440896226],[104.0595817565918,-2.0119298111192165],[104.05968904495239,-2.0124015888254974],[104.0599250793457,-2.0142029206300265],[104.06009674072266,-2.0151464745900114],[104.06033277511597,-2.016025694833374],[104.06050443649292,-2.0169478033588604],[104.06007528305054,-2.017376690867067],[104.05962467193604,-2.0177198007922073],[104.05781786419887,-2.019585015285814],[104.05698537826538,-2.020400344589632],[104.0566635131836,-2.020979341469072],[104.0566635131836,-2.021065118766984],[104.05696392059326,-2.022780663773375],[104.05697398094117,-2.022780663773375],[104.06078338623047,-2.043830212598128],[104.06078338623047,-2.043860274464407],[104.06181335449219,-2.049521486055923],[104.0625,-2.0497359254957956],[104.06250000670644,-2.0497359275543117],[104.06421661376953,-2.0502720239698107],[104.06421661376953,-2.0502628336467303],[104.06550407409668,-2.0506580147599323],[104.06636238098145,-2.050958229754528],[104.06722068786621,-2.05119411292506],[104.07063245773315,-2.0522663087163124],[104.07134056091309,-2.0525236355992433],[104.07286405563354,-2.0537459377274416],[104.07492399215698,-2.0555472233697287],[104.07629728317261,-2.0566837477888384],[104.07833576202393,-2.0584206986386704],[104.07970905303955,-2.0596429962504317],[104.08039569854736,-2.0602005352005506],[104.08224105834961,-2.061787375759394],[104.0827989578247,-2.062216251314581],[104.08445119857788,-2.0660117949367987],[104.08488035202026,-2.0668052125144527],[104.08526659011841,-2.067620073397677],[104.08633947372437,-2.0701289845417676],[104.08709049224854,-2.0717372588277954],[104.08743381500244,-2.07257356081125],[104.0878415107727,-2.073366975105145],[104.08893585205078,-2.075854433555591],[104.08932209014893,-2.0766692897832684],[104.09000873565674,-2.078320444534924],[104.09043788909912,-2.079135299490389],[104.09075975418091,-2.079993041094255],[104.09121036529541,-2.0807650081389966],[104.0914249420166,-2.0814297572358242],[104.09191846847534,-2.0825019326077836],[104.09314155578613,-2.0828021415812117],[104.09423589706421,-2.0831452374807924],[104.09537315368652,-2.0833811158684057],[104.09623146057129,-2.083638437705517],[104.10056591033936,-2.0847320550440855],[104.10146713256836,-2.085010820126513],[104.1040849685669,-2.085675567431508],[104.10580158233643,-2.0861044365114907],[104.10962104797363,-2.0870908349516526],[104.11035060882568,-2.0873052693132763],[104.11112308502197,-2.0874768167815176],[104.11221742630005,-2.087498260213735],[104.11820411682129,-2.0873052693132763],[104.11908388137817,-2.0873267127478243],[104.12361145019531,-2.0871980521361166],[104.12451267242432,-2.0871980521361166],[104.12543535232544,-2.087133721826305],[104.12721633911133,-2.087133721826305],[104.12811756134033,-2.0870908349516526],[104.12904024124146,-2.0870908349516526],[104.13258075714111,-2.0869836177598557],[104.13348197937012,-2.0869836177598557],[104.13528442382812,-2.0869192874412903],[104.13618564605713,-2.0869407308811105],[104.13708686828613,-2.0868764005607687],[104.13796663284302,-2.0868764005607687],[104.13891077041626,-2.086833513679082],[104.13981199264526,-2.086833513679082],[104.14069175720215,-2.0867906267962297],[104.14249420166016,-2.0867906267962297],[104.14429664611816,-2.0867048530270154],[104.14519786834717,-2.086726296469763],[104.14609909057617,-2.086661966140653],[104.14785861968994,-2.086661966140653],[104.14867401123047,-2.086641249593144],[104.14867401123047,-2.086661966140653],[104.150390625,-2.086597635808914],[104.15210723876953,-2.086533305474532],[104.15210723876953,-2.08652385191236],[104.15238618850708,-2.0865118620291696],[104.1542100906372,-2.086533305474532],[104.15506839752197,-2.0864260882447496],[104.15594816207886,-2.0864260882447496],[104.15687084197998,-2.0863832013507704],[104.15775060653687,-2.086404644797909],[104.15871620178223,-2.0863188710076344],[104.15957450866699,-2.0863617579033615],[104.16141986846924,-2.086233097212684],[104.16229963302612,-2.0862974275593302],[104.16320085525513,-2.086254540661855],[104.16410207748413,-2.086254540661855],[104.16671991348267,-2.0862116537632147],[104.16764259338379,-2.086168766863395],[104.16835069656372,-2.086190210313461],[104.16916608810425,-2.0860829930602733],[104.17021751403809,-2.0861473234130727],[104.17141914367676,-2.085782784712464],[104.17354345321655,-2.0849464897272725],[104.17457342147827,-2.0841316377757693],[104.17543172836304,-2.0843031855900875],[104.17626857757568,-2.0839600899427637],[104.17714834213257,-2.083616994220691],[104.17798519134521,-2.083359672380084],[104.17961597442627,-2.0827592545885096],[104.18051719665527,-2.082373271601668],[104.18141841888428,-2.082201723577157],[104.18214797973633,-2.0818371839630885],[104.18307065963745,-2.0815155312924247],[104.18403625488281,-2.081279652625554],[104.18493747711182,-2.0777629119546788],[104.18519496917725,-2.0777629119546788],[104.18465852737427,-2.0752969001051724],[104.18498039245605,-2.074932358896646],[104.18555974960327,-2.0752754565069864],[104.18759822845459,-2.077376927745334],[104.18770551681519,-2.077655694128211],[104.19058084487915,-2.077505589158932],[104.19064521789551,-2.075532779665892],[104.19311285018921,-2.075532779665892],[104.19315576553345,-2.077398371314999],[104.19528007507324,-2.077226822749566],[104.19991493225098,-2.072938102563228],[104.20193195343018,-2.071136836618649],[104.20321941375732,-2.0698931041758897],[104.20656681060791,-2.066848099939776],[104.20854091644287,-2.064982495867099],[104.20922756195068,-2.064403514847399],[104.21120166778564,-2.062537907905096],[104.21253204345703,-2.0613585000886445],[104.21450614929199,-2.059492889576674],[104.2151927947998,-2.0588924627402605],[104.21716690063477,-2.0570482931857583],[104.21785354614258,-2.0564693092811552],[104.21969890594482,-2.0547323563070137],[104.22006368637085,-2.0537459377274416],[104.22077178955078,-2.052094757438013],[104.22107219696045,-2.0512155568479358],[104.22175884246826,-2.049542930001195],[104.22205924987793,-2.0486851719659853],[104.22274589538574,-2.0470125424762813],[104.22366857528687,-2.0444821509571085],[104.22439813613892,-2.042830961119634],[104.22467708587646,-2.041973199495118],[104.22733783721924,-2.035218310717795],[104.22761678695679,-2.034403433331505],[104.22806739807129,-2.0333312256170473],[104.232337474823,-2.033352669778324],[104.23668526314357,-2.0333112883425226],[104.23828125,-2.0333312256170473],[104.23946142196655,-2.0333312256170473],[104.2393970489502,-2.032816565661051],[104.239182472229,-2.031015254523183],[104.23828125,-2.023831434193994],[104.23815250396729,-2.0227377751703273],[104.23763343074354,-2.020327111872777],[104.2374753140796,-2.0195797270654428],[104.23566341400146,-2.0109648108404627],[104.22727346420288,-1.9955032842943865],[104.21914100646973,-1.977468227146531],[104.21869039535522,-1.9768677700193678],[104.21836853027344,-1.9762673126749917],[104.217209815979,-1.976224422856376],[104.21648025512695,-1.9763745372167136],[104.2156434059143,-1.976310202492499],[104.2147421836853,-1.976353092308912],[104.21343326568604,-1.9763316474008548],[104.21298265457153,-1.976224422856376],[104.21103000640869,-1.976031418658863],[104.21021461486816,-1.975902749181401],[104.2093563079834,-1.9758169695242032],[104.20669555664062,-1.9754524059317617],[104.20581579208374,-1.9752808465664486],[104.20403480529785,-1.9751092871834146],[104.19776916503906,-1.9742300450673724],[104.19598817825317,-1.9740370406381942],[104.19425010681152,-1.9737582564231246],[104.1933274269104,-1.9736724766552527],[104.1897439956665,-1.973179242904024],[104.18706178665161,-1.9728575686396397],[104.18532371520996,-1.972578784226826],[104.18262004852295,-1.9722785548069623],[104.18174028396606,-1.9721069951141317],[104.18081760406494,-1.972021215261094],[104.17905807495117,-1.9717424307081615],[104.1772985458374,-1.9715923159295556],[104.1763973236084,-1.9713993111942898],[104.1737151145935,-1.9710990815616327],[104.17193412780762,-1.9708202968542565],[104.17006731033325,-1.9706058470475938],[104.16665554046631,-1.9700911673989054],[104.16481018066406,-1.969898162489656],[104.16210651397705,-1.9694692626112413],[104.15942430496216,-1.9691261426290367],[104.15852308273315,-1.9690403626224509],[104.15772914886475,-1.9688688025960062],[104.15227890014648,-1.9682468973521736],[104.15210723876953,-1.9682215532444822],[104.15210723876953,-1.9682040073268041],[104.15148496627808,-1.9680967822585558],[104.150390625,-1.9679681121675685],[104.1487169265747,-1.9677536619938394],[104.14605617523193,-1.967389096635202],[104.14436101913452,-1.9672818715145581],[104.14247274398804,-1.9668958610231755],[104.13983345031738,-1.966595630579235],[104.13912534713745,-1.9663811802290638],[104.1380524635315,-1.9663168451186408],[104.1362714767456,-1.9661023947326441],[104.13530588150024,-1.965952279446043],[104.13453340530396,-1.9657807191019856],[104.13367509841919,-1.965694938923349],[104.13270950317383,-1.9656734938779863],[104.1317868232727,-1.9655019335052657],[104.13002729415894,-1.9652874830145919],[104.12558555603027,-1.9646870214941572],[104.12470579147339,-1.9645154610200848],[104.12110090255737,-1.9641080048235864],[104.12026405334473,-1.9639364442900558],[104.11929845809937,-1.9638721090854432],[104.11848306655884,-1.9637005485276973],[104.11399841308594,-1.9631429765933888],[104.11316156387329,-1.9630143061205985],[104.11226034164429,-1.96292852579991],[104.10865545272827,-1.9624138437832954],[104.10597324371338,-1.9620921674424778],[104.10417079925537,-1.9617919361351994],[104.10333395004272,-1.9617490459440603],[104.10245418548584,-1.9615131498730705],[104.1006088256836,-1.9612986988705785],[104.09977197647095,-1.9612772537688272],[104.0988278388977,-1.9611056929448552],[104.0970253944397,-1.9608912418901383],[104.09524440765381,-1.9606124554779285],[104.09346342086792,-1.9604623396982817],[104.09262657165527,-1.9602478885611418],[104.09172534942627,-1.9601192178656532],[104.09082412719727,-1.9600548825142283],[104.08644676208496,-1.9595187544893662],[104.0854811668396,-1.959347193485172],[104.08460140228271,-1.959261412976474],[104.08367872238159,-1.9590898519459188],[104.08284187316895,-1.9590469616855302],[104.08187627792358,-1.958875400633005],[104.0811038017273,-1.9586609492926357],[104.07923698425293,-1.9585537236121695],[104.07833576202393,-1.9584036076479663],[104.0765118598938,-1.9581891562472151],[104.0739369392395,-1.9575029115804057],[104.07312154769897,-1.957352795522084],[104.07222032546997,-1.9570740085209906],[104.06694173812866,-1.9558301890283474],[104.06601905822754,-1.955658627646642],[104.06522512435913,-1.9554227307181549],[104.06344413757324,-1.9549509367617048],[104.0625,-1.9547579301049325],[104.05730724334717,-1.9534926636944476],[104.05692100524902,-1.9540502388402814],[104.05670642852783,-1.9550367174909127],[104.0561056137085,-1.9570525633651386],[104.05586957931519,-1.9579318145300846],[104.05578374862671,-1.9587252846976355],[104.05548334121704,-1.9596903154759957],[104.05475378036499,-1.9624138437832954],[104.0546464920044,-1.9632716470562883],[104.0546464920044,-1.964172340019104],[104.0545392036438,-1.9668315259325908],[104.05456066131592,-1.9677536619938394],[104.05432462692261,-1.9695979325863675],[104.05441045761108,-1.9704986221339027],[104.05430316925049,-1.9714207561659833],[104.05417442321777,-1.975066397334885],[104.05380964279175,-1.9831082245486584],[104.04919624328613,-1.9935518191322217]]]}}]}
