{"type":"FeatureCollection","features":[{"type":"Feature","properties":{"projectId":"VCS1326","name":"Laguna Seca Forest Carbon Project","sourceRegistry":"Verra VCS","externalId":"VCS1326","projectType":"avoided_deforestation","country":"Belize","vintageYears":[2011,2012,2013,2014,2015,2016,2017,2018,2019,2020],"sourceUrl":"https://zenodo.org/records/11459391","license":"CC BY 4.0 (Karnik et al. dataset); CarbonPlan Terms of Use also apply to the PMTiles derivative","retrievedAt":"2026-10-05","illustrative":false},"geometry":{"type":"Polygon","coordinates":[[[-88.98631811141968,17.538253087349688],[-88.97835731506348,17.538314468038706],[-88.97850751876831,17.547296284810912],[-88.97762775421143,17.547869141850114],[-88.97689819335938,17.548053274085234],[-88.9762544631958,17.548012355826927],[-88.97455930709839,17.5480737332109],[-88.97359371185303,17.54938311244939],[-88.97340059280396,17.550283305186596],[-88.9728856086731,17.551101658338908],[-88.97161960601807,17.551654044626872],[-88.97048234939575,17.551858631713472],[-88.96953821182251,17.55167450334592],[-88.96771430969238,17.550958446804117],[-88.96677017211914,17.551122117120343],[-88.96541833877563,17.55167450334592],[-88.96365880966187,17.551019823190032],[-88.963143825531,17.55046743496817],[-88.9628005027771,17.550017339616147],[-88.9621353149414,17.549976421801432],[-88.96183490753174,17.55030376406046],[-88.96174907684326,17.55067202339488],[-88.9614486694336,17.55056972921041],[-88.96110534667969,17.55011963411252],[-88.96063327789307,17.5498332093771],[-88.95975351333618,17.54993550397745],[-88.95923852920532,17.550508352671983],[-88.9573073387146,17.552349639778598],[-88.95642757415771,17.553393027497833],[-88.95544052124023,17.553843114462367],[-88.9537239074707,17.554600076380424],[-88.95217895507812,17.554968326980458],[-88.95065546035767,17.55568436767041],[-88.9496898651123,17.55558207631661],[-88.94908905029297,17.555050160345445],[-88.9478874206543,17.554661451532425],[-88.94702911376953,17.554031961478536],[-88.94702911376953,17.5540272406255],[-88.9467716217041,17.553843114462367],[-88.9453125,17.552349639778598],[-88.94492626190186,17.55194046648343],[-88.94359588623047,17.55114257589949],[-88.94224405288696,17.55079477634],[-88.94022703170776,17.55020146966804],[-88.93900394439697,17.549976421801432],[-88.93784523010254,17.54944448936901],[-88.93655776977539,17.548810260196916],[-88.93548488616943,17.548012355826927],[-88.93454074859619,17.546743885236438],[-88.933424949646,17.54586413428946],[-88.93248081207275,17.544820703210846],[-88.9309573173523,17.544493351046157],[-88.92966985702515,17.544513810573775],[-88.92595767974854,17.54394094292745],[-88.92119407653809,17.543695427667544],[-88.91911268234253,17.5437568065137],[-88.91754627227783,17.543327154154085],[-88.91587257385254,17.54302025898791],[-88.91138792037964,17.5433066944925],[-88.90964984893799,17.543572669912876],[-88.90636682510376,17.543920483335157],[-88.90297651290894,17.54424783653461],[-88.90233278274536,17.544043240854236],[-88.9007019996643,17.54283612163877],[-88.90031576156616,17.541485775362332],[-88.89971494674683,17.541097037448168],[-88.8988995552063,17.54126071667153],[-88.89793395996094,17.541363016111077],[-88.89617443084717,17.541403935870733],[-88.89473676681519,17.54183359278936],[-88.8922905921936,17.54267244383803],[-88.8893723487854,17.54379772573293],[-88.8878059387207,17.54467748671155],[-88.88660430908203,17.544759324725007],[-88.88274192810059,17.545414027502204],[-88.8774847984314,17.546396077233027],[-88.868408203125,17.547869141850114],[-88.8652753829956,17.548523833391457],[-88.86308670043945,17.549096686549575],[-88.8631782404635,17.558609875932902],[-88.86317253112793,17.558609875932902],[-88.86319398880005,17.560246503294906],[-88.86370897293091,17.61171087858726],[-88.94359588623047,17.61097007416994],[-88.94359588623047,17.61097460774043],[-88.9453125,17.6109541557296],[-88.96752119064331,17.610749635493747],[-88.9679503440857,17.610136073395807],[-88.96859407424927,17.60970657868633],[-88.96917343139648,17.609236178546297],[-88.96934509277344,17.609358891744492],[-88.96960258483887,17.60909301304298],[-88.9698600769043,17.60876577718048],[-88.97026777267456,17.60610696380897],[-88.97022485733032,17.603673092628554],[-88.97037506103516,17.602609541981252],[-88.97058963775635,17.60031879623655],[-88.97028923034668,17.599193865814044],[-88.96994590759277,17.598641624679132],[-88.96958112716675,17.59723033410846],[-88.9691948890686,17.59616674552325],[-88.96893739700317,17.59393727990114],[-88.96855115890503,17.592812309740793],[-88.96790742874146,17.591360065177554],[-88.96816492080688,17.589723719291968],[-88.96846532821655,17.588537359260442],[-88.96850824356079,17.58616461583685],[-88.96958112716675,17.584466857893133],[-88.97024631500244,17.583669110702843],[-88.97153377532959,17.58244180045989],[-88.972327709198,17.581623589003],[-88.9728856086731,17.58070309668848],[-88.97346496582031,17.579946243941876],[-88.97415161132812,17.579168932418455],[-88.97455930709839,17.577737034024224],[-88.97518157958984,17.577021080575875],[-88.9752459526062,17.576468771693627],[-88.97531032562256,17.576264212420355],[-88.97520303726196,17.576039196952564],[-88.97507429122925,17.575527797121126],[-88.97475242614746,17.575323236783717],[-88.97464513778687,17.575180044409876],[-88.97477388381958,17.574914115414913],[-88.97503137588501,17.574607273781083],[-88.97518157958984,17.57421860696438],[-88.97520303726196,17.573911764150836],[-88.97528886795044,17.573584464576058],[-88.97563219070435,17.573379902041125],[-88.97616863250732,17.573441270825896],[-88.9763617515564,17.57321625184663],[-88.97702693939209,17.57256164958831],[-88.97773504257202,17.571252437966294],[-88.97747755050659,17.571047872794622],[-88.97728443145752,17.570986503197986],[-88.97698402404785,17.571027416264712],[-88.97676944732666,17.57078193772564],[-88.9769196510315,17.570556915438928],[-88.97717714309692,17.570454632488804],[-88.97741317749023,17.57047508908346],[-88.9777135848999,17.570577372022],[-88.97803544998169,17.570577372022],[-88.9779281616211,17.570290979648362],[-88.97814273834229,17.569881846899705],[-88.97842168807983,17.56881809742393],[-88.97842168807983,17.566915606807854],[-88.979172706604,17.563519713635728],[-88.9801812171936,17.561269387883655],[-88.98043870925903,17.560246503294906],[-88.98123264312744,17.556891401282073],[-88.98157596588135,17.5547637434062],[-88.9823055267334,17.551960925170135],[-88.98232698440552,17.551510833528766],[-88.98256301879883,17.549710455780442],[-88.98284196853638,17.54833970163456],[-88.9844298362732,17.545659540433846],[-88.98455858230591,17.54539356807622],[-88.98526668548584,17.5422837084689],[-88.98524522781372,17.540033118893774],[-88.98631811141968,17.538253087349688]]]}}]}
