{"type":"FeatureCollection","features":[{"type":"Feature","properties":{"projectId":"VCS1218","name":"Evio Kuiñaji Ese´Eja Cuana, To Mitigate Climate Change, Madre de Dios - Perú","sourceRegistry":"Verra VCS","externalId":"VCS1218","projectType":"avoided_deforestation","country":"Peru","vintageYears":[2012,2013,2014,2015,2016,2017,2018,2019,2020],"sourceUrl":"https://zenodo.org/records/11459391","license":"CC BY 4.0 (Karnik et al. dataset); CarbonPlan Terms of Use also apply to the PMTiles derivative","retrievedAt":"2026-10-05","illustrative":false},"geometry":{"type":"MultiPolygon","coordinates":[[[[-69.36323404312134,-12.779577136256364],[-69.36267614364624,-12.77987010188265],[-69.35256958007812,-12.77922139182482],[-69.35211896896362,-12.779514357863675],[-69.3523120880127,-12.780393253941583],[-69.35216188430786,-12.780811774808583],[-69.35184001922607,-12.780100288922071],[-69.35128211975098,-12.780225845400608],[-69.35046672821045,-12.780309549684958],[-69.35100317001343,-12.781586036584343],[-69.35100317001343,-12.781941777685532],[-69.350745677948,-12.782569554876972],[-69.350745677948,-12.783469366129978],[-69.35020923614502,-12.7839297334382],[-69.34954404830933,-12.784536579971217],[-69.3491792678833,-12.785352681629874],[-69.34864282608032,-12.786085078308417],[-69.34802055358887,-12.786754696269568],[-69.34724807739258,-12.787256908574875],[-69.34666872522791,-12.787570787733694],[-69.34645414352417,-12.78769634352247],[-69.345703125,-12.788093926863539],[-69.34478044509888,-12.788449658795784],[-69.34398651123047,-12.788512434967089],[-69.34398651123047,-12.788503675501325],[-69.34385776519775,-12.788512434967089],[-69.34293508529663,-12.788491509578392],[-69.34203386306763,-12.78838688260889],[-69.33746337890625,-12.78769634352247],[-69.33568239212036,-12.787298759555227],[-69.33475971221924,-12.787152281093668],[-69.33385848999023,-12.78717320659338],[-69.3331503868103,-12.787319685042789],[-69.33248519897461,-12.78704765356909],[-69.33156251907349,-12.78704765356909],[-69.33091878890991,-12.786796547333168],[-69.32724952697754,-12.786796547333168],[-69.32660579681396,-12.786524515295753],[-69.3258547782898,-12.785436384214947],[-69.32493209838867,-12.785436384214947],[-69.32476043701172,-12.784703985654701],[-69.32503938674927,-12.784076213769353],[-69.32568311691284,-12.783804178800992],[-69.32566165924072,-12.783260107985157],[-69.32559728622437,-12.782443999563512],[-69.32613372802734,-12.782088259169768],[-69.32538270950317,-12.781920851752261],[-69.32448148727417,-12.781920851752261],[-69.32364463806152,-12.782004555474884],[-69.3231725692749,-12.782464925453425],[-69.32188510894775,-12.783008997982478],[-69.31995391845703,-12.782192888749364],[-69.31950330734253,-12.782653258384599],[-69.31905269622803,-12.782799739456166],[-69.31845188140869,-12.782109185089155],[-69.31804418563843,-12.781753444223796],[-69.3182373046875,-12.782067333248648],[-69.3173360824585,-12.781878999880561],[-69.31641340255737,-12.78196270361704],[-69.31551218032837,-12.782130111006808],[-69.3146538734436,-12.782423073671879],[-69.31394577026367,-12.782988072137641],[-69.31332349777222,-12.783657698312055],[-69.312744140625,-12.784369174176732],[-69.312744140625,-12.784138991028115],[-69.31250810623169,-12.783636772520978],[-69.31188583374023,-12.78395065920499],[-69.31132793426514,-12.78459935711551],[-69.31119918823242,-12.78545730985688],[-69.3102765083313,-12.78545730985688],[-69.31010484695435,-12.786189706231923],[-69.30965423583984,-12.786189706231923],[-69.30877447128296,-12.785980450341555],[-69.3073582649231,-12.786817472862367],[-69.30707931518555,-12.787508014352895],[-69.30630683898926,-12.78763356714822],[-69.30542707443237,-12.78763356714822],[-69.3047833442688,-12.787905597990559],[-69.30431127548218,-12.78834503180893],[-69.30347442626953,-12.788449658795784],[-69.30283069610596,-12.788177628539756],[-69.30192947387695,-12.788177628539756],[-69.30126428604126,-12.787905597990559],[-69.30044889450073,-12.787989299729233],[-69.30010557174683,-12.789475000972004],[-69.29933309555054,-12.789621478085735],[-69.29952621459961,-12.790353862379291],[-69.29989099502563,-12.790897917907301],[-69.29989099502563,-12.791797699475879],[-69.29933309555054,-12.79215342618788],[-69.29905414581299,-12.792802103018815],[-69.29813146591187,-12.793848352458085],[-69.29778814315796,-12.794685348885878],[-69.29710149765015,-12.79516662057452],[-69.29645776748657,-12.795501417729497],[-69.29574966430664,-12.795794364875633],[-69.29574966430664,-12.796694128983177],[-69.29555654525757,-12.797405568098483],[-69.29519176483154,-12.797949608420993],[-69.2933464050293,-12.797949608420993],[-69.29270267486572,-12.798221628142201],[-69.29270267486572,-12.796401182881894],[-69.29105043411255,-12.796233784956982],[-69.290771484375,-12.795585116948814],[-69.29105043411255,-12.794957372127044],[-69.2908787727356,-12.794434250249097],[-69.290771484375,-12.793973902099268],[-69.290771484375,-12.793597252988306],[-69.29094314575195,-12.793074128290357],[-69.29049253463745,-12.792613777659042],[-69.2902135848999,-12.7919860254447],[-69.2901062965393,-12.791169945231474],[-69.28918361663818,-12.791169945231474],[-69.28884029388428,-12.790625890289903],[-69.28873300552368,-12.789830730957902],[-69.28808927536011,-12.789558702190263],[-69.28800344467163,-12.78872168875867],[-69.28800344467163,-12.78782189622413],[-69.28746700286865,-12.787361536012739],[-69.28708076477051,-12.786796547333168],[-69.28660869598389,-12.786294334112057],[-69.28581476211548,-12.78625248296521],[-69.28502082824707,-12.785875822331334],[-69.28422689437866,-12.78541545857128],[-69.28384065628052,-12.785478235497067],[-69.28201675415039,-12.785478235497067],[-69.28163051605225,-12.784955093971817],[-69.28070783615112,-12.784955093971817],[-69.2801284790039,-12.785080648036725],[-69.2794418334961,-12.784473802811291],[-69.27901268005371,-12.783908807669661],[-69.27905559539795,-12.783050849666935],[-69.27854061126709,-12.782632332510289],[-69.27824020385742,-12.782339370087968],[-69.2791199684143,-12.782109185089155],[-69.27999973297119,-12.781816222059973],[-69.28085803985596,-12.781481406753358],[-69.28171634674072,-12.781188442995969],[-69.28257465362549,-12.780832700833741],[-69.28332567214966,-12.780330475751725],[-69.28396940231323,-12.779681766876195],[-69.2847204208374,-12.77915861334371],[-69.28553581237793,-12.778740089737653],[-69.28727388381958,-12.778133229277273],[-69.28808927536011,-12.777756556534143],[-69.28890466690063,-12.77729617797435],[-69.28972005844116,-12.77691950398328],[-69.29147958755493,-12.776333565547645],[-69.29210186004639,-12.775705772858771],[-69.29255247116089,-12.774910566547092],[-69.29296016693115,-12.774115357733052],[-69.29255247116089,-12.773466632899854],[-69.29197311401367,-12.774052577983255],[-69.29154396057129,-12.77486871351401],[-69.29098606109619,-12.775559287673602],[-69.28922653198242,-12.776124301491322],[-69.2884111404419,-12.776521903050138],[-69.28761720657349,-12.776982283020786],[-69.28678035736084,-12.777358956918277],[-69.28504228591919,-12.777965819238545],[-69.28422689437866,-12.778384344127346],[-69.28347587585449,-12.778886573078651],[-69.28283214569092,-12.779556210127197],[-69.28208112716675,-12.780058436748675],[-69.27950620651245,-12.781021034982047],[-69.27862644195557,-12.781313998933612],[-69.27774667739868,-12.781523258690967],[-69.27688837051392,-12.781606962545354],[-69.27712440490723,-12.780874552878842],[-69.27744626998901,-12.780288623616471],[-69.27678108215332,-12.780037510659383],[-69.27598714828491,-12.780225845400608],[-69.27510738372803,-12.78035140181673],[-69.27446365356445,-12.780079362836247],[-69.27298307418823,-12.77907490867797],[-69.2721676826477,-12.778635458727805],[-69.2712664604187,-12.778488975241203],[-69.27040815353394,-12.778133229277273],[-69.26963567733765,-12.777882114177586],[-69.26884174346924,-12.777463588456797],[-69.26800489425659,-12.777107841049016],[-69.26615953445435,-12.777045062042703],[-69.2644214630127,-12.776500976667904],[-69.2627477645874,-12.776040595820277],[-69.26193237304688,-12.776228933541162],[-69.26107406616211,-12.776354491943735],[-69.26034450531006,-12.776208007134642],[-69.25963640213013,-12.776019669398181],[-69.258713722229,-12.776019669398181],[-69.2578125,-12.775726699306873],[-69.25704002380371,-12.775517434747968],[-69.25609588623047,-12.774889640031432],[-69.25609588623047,-12.774886052162481],[-69.25553798675537,-12.774512962452874],[-69.25476551055908,-12.77421999061471],[-69.25395011901855,-12.774659448244577],[-69.25324201583862,-12.774617595169886],[-69.25238370895386,-12.774659448244577],[-69.25169706344604,-12.774764080900965],[-69.2508602142334,-12.774533888999741],[-69.24980878829956,-12.773131806527985],[-69.2491865158081,-12.772462152453485],[-69.24854278564453,-12.771855276915943],[-69.24764156341553,-12.77204361775594],[-69.24768447875977,-12.77279697971251],[-69.24819946289062,-12.773529412795199],[-69.24764156341553,-12.773864238640314],[-69.24579620361328,-12.773864238640314],[-69.2451524734497,-12.774136284312846],[-69.24459457397461,-12.77449203590426],[-69.24429416656494,-12.774743154373141],[-69.24386501312256,-12.774031651396541],[-69.2430067062378,-12.774031651396541],[-69.24229860305786,-12.77449203590426],[-69.24174070358276,-12.774952419573253],[-69.2409896850586,-12.776040595820277],[-69.24045324325562,-12.776396344730742],[-69.23978805541992,-12.775977816548789],[-69.23892974853516,-12.775873184394982],[-69.23807144165039,-12.776145227904763],[-69.23725605010986,-12.776459123898235],[-69.23637628555298,-12.776208007134642],[-69.23616170883179,-12.77549650828253],[-69.23526048660278,-12.775475581815385],[-69.23386573791504,-12.774659448244577],[-69.23311471939087,-12.774387403135236],[-69.2324709892273,-12.774931493061047],[-69.23165559768677,-12.774764080900965],[-69.23105478286743,-12.774157210890905],[-69.23105478286743,-12.773236439816841],[-69.23131227493286,-12.772441225735065],[-69.23159122467041,-12.77179249660476],[-69.23150539398193,-12.771039131654291],[-69.231698513031,-12.770160203040973],[-69.23199892044067,-12.76932312533009],[-69.23214912414551,-12.768423263699688],[-69.2322564125061,-12.766623530830941],[-69.23251390457153,-12.765995714025905],[-69.23311471939087,-12.765326041049235],[-69.23283576965332,-12.764551729459384],[-69.23283576965332,-12.763777415498922],[-69.23279285430908,-12.762919389152373],[-69.23234224319458,-12.762207852901284],[-69.23223495483398,-12.76132889359262],[-69.23219203948975,-12.76040807580327],[-69.2320203781128,-12.759612821379022],[-69.23174142837524,-12.75904777066387],[-69.23197746276855,-12.758189728276037],[-69.23182725906372,-12.757310755008277],[-69.23187017440796,-12.7564317786875],[-69.23204183578491,-12.755552799313904],[-69.23253536224365,-12.753815759670232],[-69.23315763473511,-12.75354369214027],[-69.2339301109314,-12.754004113942756],[-69.23446655273438,-12.754736601447945],[-69.2353892326355,-12.756306210392452],[-69.23581838607788,-12.757101475208827],[-69.2361831665039,-12.757938593368237],[-69.23663377761841,-12.758733853054622],[-69.23862934112549,-12.761768373628698],[-69.23903703689575,-12.76256362127701],[-69.23935890197754,-12.763421648830402],[-69.23980951309204,-12.764195963880042],[-69.24045324325562,-12.764823785152998],[-69.24137592315674,-12.764802857802337],[-69.24201965332031,-12.764175036477425],[-69.24240589141846,-12.763358866425179],[-69.24302816390991,-12.761663735594126],[-69.24339294433594,-12.760826629759379],[-69.2438006401062,-12.760031376650744],[-69.24433708190918,-12.759298904470825],[-69.24562454223633,-12.758001377118546],[-69.24631118774414,-12.757394466879603],[-69.24704074859619,-12.75682941121076],[-69.247727394104,-12.756243426221573],[-69.24832820892334,-12.755552799313904],[-69.24903631210327,-12.755050524015559],[-69.24955129623413,-12.755678367982739],[-69.24970149993896,-12.756557346920246],[-69.24968004226685,-12.757457250764915],[-69.24944400787354,-12.758336223523841],[-69.24916505813599,-12.75919426541489],[-69.24950838088989,-12.759989521154736],[-69.25032377243042,-12.760240654026958],[-69.25124645233154,-12.760115087621998],[-69.25212621688843,-12.75990581014193],[-69.25395011901855,-12.759633749159036],[-69.25485134124756,-12.759717460261868],[-69.25573110580444,-12.759947665651794],[-69.25650358200073,-12.76042900351753],[-69.25712585449219,-12.761098689459502],[-69.2578125,-12.761810228830413],[-69.25849914550781,-12.76229156315236],[-69.25938992912805,-12.762744050584606],[-69.26098823547363,-12.763463503758558],[-69.26178216934204,-12.763902980085987],[-69.26403522491455,-12.76547253216441],[-69.26637411117554,-12.766916511473198],[-69.26858425140381,-12.768548825979934],[-69.26931381225586,-12.7691138554693],[-69.26987171173096,-12.76980444535252],[-69.2702579498291,-12.770620594600516],[-69.27103042602539,-12.770515960228792],[-69.2708158493042,-12.769678883695875],[-69.27040815353394,-12.768883658422354],[-69.26972150802612,-12.768276774293938],[-69.26899194717407,-12.76771174293387],[-69.2667818069458,-12.766100350268317],[-69.26444292068481,-12.76465636629925],[-69.2621898651123,-12.763086809155865],[-69.26137447357178,-12.762647331410335],[-69.25970077514648,-12.761893939213067],[-69.25952911376953,-12.761798916549727],[-69.25952911376953,-12.761810228830413],[-69.25890684127808,-12.761454459395125],[-69.25817728042603,-12.76091034046749],[-69.2578125,-12.760512714357205],[-69.25693273544312,-12.759570965813765],[-69.25609588623047,-12.759131481960537],[-69.25609588623047,-12.759119231522824],[-69.25525903701782,-12.7588803479874],[-69.25435781478882,-12.758733853054622],[-69.2534351348877,-12.758754780907353],[-69.25253391265869,-12.75890127582801],[-69.25073146820068,-12.759298904470825],[-69.25015211105347,-12.75904777066387],[-69.25047397613525,-12.758210656173787],[-69.25060272216797,-12.757310755008277],[-69.25060272216797,-12.756410850642652],[-69.25047397613525,-12.755531871196382],[-69.25015211105347,-12.75469474507618],[-69.24942255020142,-12.754150611613355],[-69.24854278564453,-12.754192468075104],[-69.24781322479248,-12.754757529631235],[-69.24723386764526,-12.755448158708958],[-69.24654722213745,-12.756055073615471],[-69.2458176612854,-12.756599202983978],[-69.24513101577759,-12.757206115130174],[-69.24384355545044,-12.758503646560328],[-69.2432427406311,-12.759173337598497],[-69.24277067184448,-12.759968593404125],[-69.24242734909058,-12.76078477439492],[-69.24204111099243,-12.761621880368182],[-69.2414402961731,-12.763317011479728],[-69.24086093902588,-12.763965762356136],[-69.24030303955078,-12.763275156527328],[-69.23961639404297,-12.761600952752602],[-69.23762083053589,-12.758566430170447],[-69.23714876174927,-12.757771169957891],[-69.23676252365112,-12.756954979246217],[-69.23592567443848,-12.75534351806074],[-69.23545360565186,-12.754569175919357],[-69.234938621521,-12.753815759670232],[-69.23435926437378,-12.753125126138599],[-69.23354387283325,-12.752706559444846],[-69.23277139663696,-12.752455419096407],[-69.23324346542358,-12.751994994477187],[-69.23405885696411,-12.751890352401503],[-69.23442363739014,-12.751346212910704],[-69.23461675643921,-12.750655572642117],[-69.23489570617676,-12.750006787643457],[-69.23541069030762,-12.74931614372143],[-69.23601150512695,-12.748625497915754],[-69.23631191253662,-12.747767420199992],[-69.23622608184814,-12.74688841074493],[-69.23605442047119,-12.7459884693328],[-69.23579692840576,-12.745130382682916],[-69.23536777496338,-12.744335080265557],[-69.23571109771729,-12.744000215342865],[-69.23530340194702,-12.743476988015018],[-69.23504590988159,-12.743769995451743],[-69.23455238342285,-12.742995617918979],[-69.23388719558716,-12.74240960091548],[-69.23461675643921,-12.742263096452817],[-69.23513174057007,-12.741865441055722],[-69.23577547073364,-12.742137521131681],[-69.23614025115967,-12.741593360687588],[-69.23678398132324,-12.741321280027293],[-69.23714876174927,-12.740777117830262],[-69.23744916915894,-12.740191095695863],[-69.23777103424072,-12.739751578205698],[-69.23779249191284,-12.739081835802551],[-69.23708438873291,-12.739144624228018],[-69.23646211624146,-12.73939577777442],[-69.2361831665039,-12.739144624228018],[-69.23614025115967,-12.738663245901805],[-69.23622608184814,-12.738119077997254],[-69.23553943634033,-12.738056289317711],[-69.23470258712769,-12.738056289317711],[-69.23433780670166,-12.738035359754392],[-69.23377990722656,-12.737679556913761],[-69.23405885696411,-12.737030738683217],[-69.23405885696411,-12.736674934432372],[-69.2339301109314,-12.735879605477521],[-69.23399448394775,-12.735356361383253],[-69.23433780670166,-12.735921464958409],[-69.23487424850464,-12.736277270266854],[-69.23564672470093,-12.736423778189888],[-69.23599004745483,-12.735858675734477],[-69.23626899719238,-12.73600518389945],[-69.23676252365112,-12.736423778189888],[-69.23766374588013,-12.736423778189888],[-69.23847913742065,-12.736319129682073],[-69.2382001876831,-12.735691237727991],[-69.23860788345337,-12.735335431597008],[-69.23783540725708,-12.734937765330244],[-69.23742771148682,-12.735335431597008],[-69.23706293106079,-12.734812186379557],[-69.23446655273438,-12.733723832868108],[-69.23405885696411,-12.73324244424785],[-69.23405885696411,-12.732321524340762],[-69.2333722114563,-12.732091293841393],[-69.23272848129272,-12.731819202981725],[-69.2327070236206,-12.731002928651094],[-69.2333722114563,-12.731233160138572],[-69.2347240447998,-12.730730836623678],[-69.23536777496338,-12.731002928651094],[-69.23601150512695,-12.730730836623678],[-69.23652648925781,-12.730333163135413],[-69.23686981201172,-12.729726186609014],[-69.23631191253662,-12.729370372107851],[-69.23599004745483,-12.728888975223526],[-69.23566818237305,-12.72830292560944],[-69.23487424850464,-12.728177343373119],[-69.23543214797974,-12.727800596291104],[-69.23459529876709,-12.727779665881258],[-69.23418760299683,-12.72830292560944],[-69.23350095748901,-12.728198273750166],[-69.23356533050537,-12.727758735469664],[-69.23375844955444,-12.727193613704259],[-69.23414468765259,-12.726670351687858],[-69.23459529876709,-12.726209880220651],[-69.23463821411133,-12.726084296948187],[-69.23487424850464,-12.725561032643753],[-69.2353892326355,-12.725184281676334],[-69.23541069030762,-12.724409847375313],[-69.23542796111049,-12.724409847375313],[-69.23543214797974,-12.724326124606606],[-69.23480987548828,-12.72397030253137],[-69.23408031463623,-12.724242401810258],[-69.23320055007935,-12.724054025417487],[-69.23240661621094,-12.723949371805517],[-69.23182725906372,-12.724158678986285],[-69.23171997070312,-12.723677272212399],[-69.23129081726074,-12.723405172327517],[-69.23092603683472,-12.722860971682422],[-69.23099040985107,-12.723300518447942],[-69.23073291778564,-12.723928441077945],[-69.2313551902771,-12.724221471106858],[-69.23154830932617,-12.724933114053911],[-69.23126935958862,-12.725058697896202],[-69.23073291778564,-12.724849391457852],[-69.23017501831055,-12.724891252759335],[-69.22976732254028,-12.724409847375313],[-69.22978019717613,-12.724409847375313],[-69.22974586486816,-12.724367985994405],[-69.22893047332764,-12.724200540401725],[-69.2287802696228,-12.723426103098248],[-69.2287802696228,-12.722526078397706],[-69.2293381690979,-12.721249293695493],[-69.23116207122803,-12.721249293695493],[-69.23182725906372,-12.72097719120734],[-69.23210620880127,-12.720328330250709],[-69.23139810562134,-12.7201399509526],[-69.23073291778564,-12.719888778337648],[-69.23051834106445,-12.7193445701526],[-69.23099040985107,-12.718905016536027],[-69.23099040985107,-12.71800497580351],[-69.23036813735962,-12.717711938597347],[-69.229896068573,-12.717272382153922],[-69.2293381690979,-12.716916550189964],[-69.2293381690979,-12.716016502408024],[-69.2297887802124,-12.715556011611426],[-69.229896068573,-12.714739684965053],[-69.23043251037598,-12.714279191852981],[-69.23043251037598,-12.712479074402921],[-69.23062562942505,-12.711746464811071],[-69.23086166381836,-12.711202239174924],[-69.23096895217896,-12.710302171140896],[-69.23099040985107,-12.709632350999328],[-69.23141956329346,-12.710113784404598],[-69.23126935958862,-12.709611419091445],[-69.23148393630981,-12.70902532497054],[-69.2312479019165,-12.709569555270505],[-69.23114061355591,-12.708962529091679],[-69.23154830932617,-12.708606685484938],[-69.2324709892273,-12.70875320938336],[-69.23204183578491,-12.710406830378474],[-69.23193454742432,-12.711306898041641],[-69.23204183578491,-12.712186030819751],[-69.23126935958862,-12.712290689281133],[-69.23071146011353,-12.712646527727216],[-69.23071146011353,-12.714467575499754],[-69.23126935958862,-12.714823410895718],[-69.23126935958862,-12.715723462906809],[-69.23182725906372,-12.716079296542844],[-69.23367261886597,-12.716079296542844],[-69.23431634902954,-12.715828119910356],[-69.23431634902954,-12.714007081894252],[-69.2344880104065,-12.713400066320261],[-69.23523902893066,-12.713902424140187],[-69.23614025115967,-12.713923355694433],[-69.23764228820801,-12.712960502412699],[-69.23843622207642,-12.712541869412476],[-69.23905849456787,-12.712123235722231],[-69.23890829086304,-12.712562801078874],[-69.23845767974854,-12.713002365674754],[-69.23845767974854,-12.713923355694433],[-69.23817873001099,-12.714551301520132],[-69.23837184906006,-12.715262971578767],[-69.23901557922363,-12.715535080191728],[-69.23983097076416,-12.715639737272909],[-69.24010992050171,-12.716267678854166],[-69.23955202102661,-12.71662351172752],[-69.23946619033813,-12.71743983231734],[-69.23901557922363,-12.717523557357651],[-69.23845767974854,-12.717167725745696],[-69.23835039138794,-12.716351404281],[-69.23742771148682,-12.716351404281],[-69.23708438873291,-12.716895618882432],[-69.23708438873291,-12.717795663547903],[-69.23661231994629,-12.718256150282414],[-69.23596858978271,-12.718528255687474],[-69.23541069030762,-12.718884085392446],[-69.23560380935669,-12.719616674390963],[-69.23624753952026,-12.719888778337648],[-69.23616170883179,-12.72070508842748],[-69.23541069030762,-12.720872536326524],[-69.23571109771729,-12.721521395891926],[-69.23753499984741,-12.721500464964095],[-69.23817873001099,-12.721228362745236],[-69.23828601837158,-12.720432985355899],[-69.24010992050171,-12.720412054338311],[-69.24010992050171,-12.719512018949189],[-69.2406678199768,-12.719156190124423],[-69.24118280410767,-12.717795663547903],[-69.24176216125488,-12.71743983231734],[-69.24251317977905,-12.717607282370338],[-69.24332857131958,-12.717691007355398],[-69.24401521682739,-12.717418901052966],[-69.24399375915527,-12.71651885505183],[-69.24463748931885,-12.717042137998902],[-69.25299488281662,-12.724409847375313],[-69.25300598144531,-12.724409847375313],[-69.25418565560733,-12.725459608626549],[-69.2548942565918,-12.726084296948187],[-69.25491571426392,-12.72610522749791],[-69.25476551055908,-12.726858726138104],[-69.25532341003418,-12.727214544162479],[-69.25504446029663,-12.727863387510297],[-69.25448656082153,-12.728219204125452],[-69.25476551055908,-12.728847114581697],[-69.2554521560669,-12.729098278328976],[-69.25609588627422,-12.72888897520066],[-69.2566967010498,-12.728575020241507],[-69.25710439682007,-12.729077348026209],[-69.25774812698364,-12.729349441827537],[-69.2578125,-12.729349441827537],[-69.25843477249146,-12.729202929816921],[-69.25952911376953,-12.73016572148012],[-69.25952911376953,-12.730168356510621],[-69.27145957946777,-12.740693400465474],[-69.27122354507446,-12.74127942143825],[-69.27160978317261,-12.74155150214348],[-69.27225351333618,-12.741823582556563],[-69.27281141281128,-12.741886370302709],[-69.28212404251099,-12.750090501930245],[-69.28266048431396,-12.750237001865528],[-69.30049180984497,-12.757582818488842],[-69.31920289993286,-12.765242331802455],[-69.32006120681763,-12.76553531404494],[-69.32643413543701,-12.766518894805003],[-69.3273138999939,-12.766456113168672],[-69.3435788154602,-12.757959521286736],[-69.34327840805054,-12.75726889906224],[-69.3427848815918,-12.75651549084958],[-69.3426775932312,-12.755824864684314],[-69.345703125,-12.753690190077364],[-69.34643268585205,-12.753187911082975],[-69.34709787368774,-12.752978627874512],[-69.34709787368774,-12.754799385992612],[-69.34628248214722,-12.755783008492529],[-69.34632539749146,-12.756661987066579],[-69.34724807739258,-12.756661987066579],[-69.34765577316284,-12.756159713969495],[-69.34849262237549,-12.756076001689735],[-69.34849262237549,-12.755176092933596],[-69.34926509857178,-12.755029595856499],[-69.34930801391602,-12.754171539845103],[-69.34960842132568,-12.752560060938535],[-69.34995174407959,-12.752057779701843],[-69.35229063034058,-12.753501835571257],[-69.35259103775024,-12.754045970428706],[-69.35192584991455,-12.754673816887703],[-69.35115337371826,-12.755029595856499],[-69.35035943984985,-12.755217949225752],[-69.35005903244019,-12.75584579277762],[-69.35005903244019,-12.756389922596071],[-69.35014486312866,-12.757185187149375],[-69.35100317001343,-12.757289827036118],[-69.35098171234131,-12.758043232943436],[-69.35016632080078,-12.758315295636507],[-69.3496298789978,-12.759005915005119],[-69.34939384460449,-12.760449931230042],[-69.34920072555542,-12.761266110668004],[-69.34877157211304,-12.761726518420062],[-69.34834241867065,-12.763212374085754],[-69.34795618057251,-12.763777415498922],[-69.34752702713013,-12.763337938953327],[-69.34756994247437,-12.762438056025061],[-69.34748411178589,-12.761642807982014],[-69.34741973876953,-12.761651776956777],[-69.34741973876953,-12.761663735594126],[-69.34658288955688,-12.761768373628698],[-69.34578895568848,-12.76208228747275],[-69.345703125,-12.762207852901284],[-69.34542417526245,-12.762626403879622],[-69.34490919113159,-12.763024026667537],[-69.3437933921814,-12.763798342934436],[-69.34381484985352,-12.76559809590988],[-69.34443712234497,-12.765891077740193],[-69.345703125,-12.765870150477852],[-69.34628248214722,-12.765870150477852],[-69.34684038162231,-12.766163131992982],[-69.34684038162231,-12.767962868138682],[-69.34714078903198,-12.768590680059475],[-69.34804201126099,-12.768590680059475],[-69.34823513031006,-12.76932312533009],[-69.34851408004761,-12.769950933873105],[-69.35035943984985,-12.769950933873105],[-69.34999465942383,-12.770453179584962],[-69.34834241867065,-12.771248399921319],[-69.34866428375244,-12.77198083749154],[-69.34913635253906,-12.772755126329386],[-69.3495225906372,-12.773466632899854],[-69.3490719795227,-12.773927018436908],[-69.34842824935913,-12.772922539820286],[-69.34851408004761,-12.773382926348475],[-69.34823513031006,-12.774010724808065],[-69.34767723083496,-12.773654972539106],[-69.34740236827481,-12.773036371724945],[-69.34686183929443,-12.772671419542363],[-69.34694766998291,-12.772399372293037],[-69.34686183929443,-12.771938983973271],[-69.34630393981934,-12.771583228788188],[-69.34621810913086,-12.772399372293037],[-69.345703125,-12.772169178237974],[-69.34557437896729,-12.772127324750898],[-69.34465169906616,-12.772127324750898],[-69.34426546096802,-12.772671419542363],[-69.34437274932861,-12.773110879865015],[-69.34518814086914,-12.77321551316254],[-69.34557437896729,-12.773738679000388],[-69.34557437896729,-12.774282770322898],[-69.34518814086914,-12.773738679000388],[-69.34454441070557,-12.773487559533379],[-69.34465169906616,-12.773927018436908],[-69.34520959854126,-12.774282770322898],[-69.34546709060669,-12.774722227843597],[-69.345703125,-12.774889640031432],[-69.34600353240967,-12.77509890511024],[-69.34658288955688,-12.775433728875868],[-69.34686183929443,-12.776061522240639],[-69.3473768234253,-12.776459123898235],[-69.34741973876953,-12.776521903050138],[-69.34741973876953,-12.776540039162454],[-69.34769868850708,-12.777065988379874],[-69.34812784194946,-12.777547293656426],[-69.34851408004761,-12.778049524271765],[-69.34924364089966,-12.77915861334371],[-69.34988737106323,-12.779430653315814],[-69.34990882873535,-12.779765471340838],[-69.35046672821045,-12.779828249671127],[-69.35046672821045,-12.778928425446182],[-69.35100317001343,-12.779095834847013],[-69.35128211975098,-12.778468049021896],[-69.35100317001343,-12.777840261636712],[-69.35044527053833,-12.777484514759308],[-69.35117483139038,-12.777275251656263],[-69.35392141342163,-12.777254325336415],[-69.3537712097168,-12.776752093140317],[-69.35460805892944,-12.77664746130715],[-69.35475826263428,-12.775915037261711],[-69.35542345046997,-12.775663919957395],[-69.35548782348633,-12.774826860473993],[-69.35621738433838,-12.775308170015748],[-69.35686111450195,-12.775935963692461],[-69.35653924942017,-12.776208007134642],[-69.35626029968262,-12.776835798575675],[-69.35647487640381,-12.77752636735913],[-69.35924291610718,-12.77752636735913],[-69.35984373092651,-12.77721247269153],[-69.35984373092651,-12.776312639149808],[-69.3606162071228,-12.776166154316456],[-69.36068058013916,-12.775308170015748],[-69.360830783844,-12.774575742088288],[-69.36267614364624,-12.774575742088288],[-69.36282634735107,-12.773675899157027],[-69.36289072036743,-12.774157210890905],[-69.36323404312134,-12.779577136256364]]],[[[-69.35984373092651,-12.76917663644572],[-69.35941457748413,-12.76965795674704],[-69.35887813568115,-12.770055568478696],[-69.3581485748291,-12.770474106467972],[-69.35748338699341,-12.771018204818063],[-69.35656070709229,-12.771018204818063],[-69.35619592666626,-12.771562301996994],[-69.35527324676514,-12.771562301996994],[-69.35490846633911,-12.772106398004752],[-69.35430765151978,-12.771771569830904],[-69.35389995574951,-12.77126932673849],[-69.35216188430786,-12.768088430647538],[-69.3515396118164,-12.767376908939468],[-69.3511962890625,-12.76821399309405],[-69.35072422027588,-12.768862731407694],[-69.35044527053833,-12.768234920162413],[-69.35089588165283,-12.767774524258442],[-69.35126066207886,-12.767230418927497],[-69.35269832611084,-12.767439690347189],[-69.35387849807739,-12.766058495776548],[-69.35435056686401,-12.766665385229174],[-69.35525178909302,-12.768234920162413],[-69.35559511184692,-12.76907200147636],[-69.35486555099487,-12.769239417406567],[-69.35430765151978,-12.769532395017663],[-69.35381412506104,-12.76913478246317],[-69.3532133102417,-12.769448687163418],[-69.35344934463501,-12.770202056853762],[-69.35413599014282,-12.770725228928939],[-69.35492992401123,-12.770390398925556],[-69.35559511184692,-12.769825372289233],[-69.35619592666626,-12.769930006946794],[-69.35681819915771,-12.770202056853762],[-69.35774087905884,-12.770202056853762],[-69.35819149017334,-12.769720737588358],[-69.35817003250122,-12.7688418043913],[-69.35879230499268,-12.768381409592422],[-69.35924291610718,-12.7688418043913],[-69.35984373092651,-12.76917663644572]]],[[[-69.35832023620605,-12.764698221023082],[-69.35741901397705,-12.764551729459384],[-69.35711860656738,-12.76402854461071],[-69.35651779174805,-12.762312490710798],[-69.35671091079712,-12.761726518420062],[-69.3582558631897,-12.763965762356136],[-69.35832023620605,-12.764698221023082]]],[[[-69.35044527053833,-12.775370949453603],[-69.35016632080078,-12.775998742974352],[-69.34990882873535,-12.776270786348945],[-69.34935092926025,-12.775915037261711],[-69.3490719795227,-12.775287243533],[-69.3495225906372,-12.774826860473993],[-69.34988737106323,-12.774282770322898],[-69.34879302978516,-12.774366476576247],[-69.34851408004761,-12.774638521708098],[-69.34823513031006,-12.774010724808065],[-69.3496298789978,-12.774157210890905],[-69.34975862503052,-12.773738679000388],[-69.35023069381714,-12.774512962452874],[-69.35044527053833,-12.775370949453603]]],[[[-69.35016632080078,-12.765200477168676],[-69.34937238693237,-12.765326041049235],[-69.34937238693237,-12.76486563984912],[-69.34988737106323,-12.764572656830836],[-69.35016632080078,-12.765200477168676]]],[[[-69.3183445930481,-12.7870058025471],[-69.31832313537598,-12.787884672551556],[-69.31802272796631,-12.788742614128296],[-69.31763648986816,-12.789558702190263],[-69.31714296340942,-12.790332937143262],[-69.31654214859009,-12.791002543835901],[-69.31589841842651,-12.791651223625209],[-69.31448221206665,-12.792802103018815],[-69.3138599395752,-12.79347170315971],[-69.31332349777222,-12.794204076279172],[-69.31293725967407,-12.79502014667952],[-69.31259393692017,-12.79585713921982],[-69.3121862411499,-12.79665227956096],[-69.31167125701904,-12.797405568098483],[-69.31111335754395,-12.79813792979769],[-69.30911779403687,-12.800000211396735],[-69.30840969085693,-12.800565170511447],[-69.30684328079224,-12.801527690532524],[-69.30452585220337,-12.80301331204879],[-69.30373191833496,-12.803452719552226],[-69.30203676223755,-12.804164139600758],[-69.30122137069702,-12.80456169698877],[-69.29795980453491,-12.806256539872209],[-69.2962646484375,-12.80698887586388],[-69.29549217224121,-12.807470124071244],[-69.29401159286499,-12.808537236383586],[-69.2933464050293,-12.809144023722524],[-69.29272413253784,-12.80983450408958],[-69.29230867410195,-12.81012743458281],[-69.29231643676758,-12.81012743458281],[-69.29199457168579,-12.810357594017162],[-69.28993463516235,-12.811801316582617],[-69.28755283355713,-12.813475187461634],[-69.28753519503405,-12.813475187461634],[-69.2792272567749,-12.819270879445227],[-69.27847623825073,-12.819605644582623],[-69.26948547363281,-12.811801316582617],[-69.2578125,-12.801695084943745],[-69.25609588623047,-12.800209455660863],[-69.25609588623047,-12.800205886987877],[-69.23429489135742,-12.781293072948344],[-69.23403739929199,-12.780916404916994],[-69.234938621521,-12.781125665003756],[-69.23676252365112,-12.781293072948344],[-69.23710584640503,-12.781899925817271],[-69.23727750778198,-12.782778813594021],[-69.23768520355225,-12.783594920933638],[-69.23832893371582,-12.784222694015526],[-69.23910140991211,-12.78472491135733],[-69.23991680145264,-12.785143425045774],[-69.24150466918945,-12.786043227126882],[-69.24238443374634,-12.786336185251983],[-69.24326419830322,-12.78654544084749],[-69.24601078033447,-12.786817472862367],[-69.2469334602356,-12.786880249439562],[-69.24779176712036,-12.78677562180225],[-69.24755573272705,-12.786064152718524],[-69.24665451049805,-12.785938599142682],[-69.2448091506958,-12.785813045504383],[-69.2439079284668,-12.7857084174248],[-69.24298524856567,-12.78556193804053],[-69.24210548400879,-12.785331755979271],[-69.23968076705933,-12.784013436494973],[-69.23890829086304,-12.783532143539603],[-69.23832893371582,-12.782841591175298],[-69.23802852630615,-12.78198362954683],[-69.23869371414185,-12.781690666372015],[-69.23961639404297,-12.781690666372015],[-69.24053907394409,-12.781627888504616],[-69.24236297607422,-12.781397702857348],[-69.24328565597534,-12.781355850898947],[-69.24418687820435,-12.781251220972592],[-69.24697637557983,-12.780686218621298],[-69.24963712692261,-12.77993288018692],[-69.25053834915161,-12.779786397452654],[-69.25146102905273,-12.779765471340838],[-69.25238370895386,-12.779849175777755],[-69.25330638885498,-12.779995658475599],[-69.25598859786987,-12.780623440504257],[-69.25627231742853,-12.780672268153818],[-69.25688982009888,-12.780769922753109],[-69.2578125,-12.780937330933469],[-69.25961494445801,-12.781146591002894],[-69.26146030426025,-12.78120936898992],[-69.26328420639038,-12.781376776879014],[-69.26418542861938,-12.781502332723022],[-69.26508665084839,-12.781711592324328],[-69.26686763763428,-12.782234740569066],[-69.2694640159607,-12.783155478847718],[-69.2728328704834,-12.784620282826822],[-69.27444219589233,-12.785499161135547],[-69.27667379379272,-12.787089504584117],[-69.27746772766113,-12.787549865291595],[-69.27899122238159,-12.788554285739295],[-69.27982807159424,-12.788951867729054],[-69.28150177001953,-12.78970517925542],[-69.28308963775635,-12.790625890289903],[-69.28384065628052,-12.791128094892997],[-69.28450584411621,-12.791755849241511],[-69.28510665893555,-12.792446377221253],[-69.28566455841064,-12.793157828314918],[-69.28605079650879,-12.793973902099268],[-69.28624391555786,-12.794852747838235],[-69.28641557693481,-12.79665227956096],[-69.28669452667236,-12.798451798446393],[-69.28686618804932,-12.799330628584812],[-69.28714513778687,-12.80018853124227],[-69.2876386642456,-12.80096273357421],[-69.28826093673706,-12.801632312052561],[-69.28892612457275,-12.8022391160128],[-69.28969860076904,-12.802720373287713],[-69.29051399230957,-12.803159781301702],[-69.29139375686646,-12.80336902294394],[-69.29231643676758,-12.803389947098623],[-69.2932391166687,-12.803327174629388],[-69.29497718811035,-12.802720373287713],[-69.29502010345459,-12.803097008775154],[-69.29519176483154,-12.803641036819272],[-69.29583549499512,-12.80336902294394],[-69.29630756378174,-12.80292961529463],[-69.29658651351929,-12.802301888752922],[-69.29750919342041,-12.802280964507958],[-69.29823875427246,-12.80336902294394],[-69.29888248443604,-12.803097008775154],[-69.29952621459961,-12.80336902294394],[-69.29991245269775,-12.802845918512716],[-69.30016994476318,-12.802197267510692],[-69.29971933364868,-12.801736933529199],[-69.29907560348511,-12.801485841912353],[-69.29946184158325,-12.800774414306815],[-69.30021286010742,-12.800251304492846],[-69.3036675453186,-12.797259095503478],[-69.30441856384277,-12.79673597839843],[-69.3051266670227,-12.79617101070653],[-69.30654287338257,-12.794999221830423],[-69.30877447128296,-12.793408928221993],[-69.30946111679077,-12.792823028050123],[-69.31010484695435,-12.792174351272976],[-69.31070566177368,-12.79148382254887],[-69.3133020401001,-12.788930942376794],[-69.31561946868896,-12.786106003896606],[-69.31637048721313,-12.78562471492991],[-69.31729316711426,-12.785687491803685],[-69.31800127029419,-12.786168780650698],[-69.3183445930481,-12.7870058025471]]],[[[-69.22850131988525,-12.716811893635068],[-69.2282223701477,-12.71743983231734],[-69.22824382781982,-12.721060915080926],[-69.22796487808228,-12.721709774164708],[-69.22796487808228,-12.722609801760314],[-69.22768592834473,-12.72323772609947],[-69.22706365585327,-12.722609801760314],[-69.22521829605103,-12.722609801760314],[-69.22457456588745,-12.722337700730833],[-69.22393083572388,-12.722609801760314],[-69.22354459762573,-12.723154002944028],[-69.22326564788818,-12.723070279760947],[-69.22298669815063,-12.722777248402679],[-69.22270774841309,-12.723405172327517],[-69.22270774841309,-12.724305193910112],[-69.22187089920044,-12.724242401810258],[-69.22131299972534,-12.723823787414176],[-69.2213773727417,-12.723154002944028],[-69.22060489654541,-12.722651663431265],[-69.22021865844727,-12.72196094497761],[-69.22024011611938,-12.720160881992626],[-69.22021865844727,-12.720014364676175],[-69.21948909759521,-12.720160881992626],[-69.22000408172607,-12.71940736346427],[-69.22062635421753,-12.71907246562256],[-69.2212700843811,-12.7193445701526],[-69.22159194946289,-12.718779429648635],[-69.22105550765991,-12.718402668613678],[-69.22021865844727,-12.71664444305749],[-69.21985387802124,-12.71664444305749],[-69.21910285949707,-12.716811893635068],[-69.2183518409729,-12.71633047292687],[-69.21787977218628,-12.715681600093305],[-69.21813726425171,-12.715283903020875],[-69.21856641769409,-12.714802479415638],[-69.21772956848145,-12.714781547933839],[-69.2174506187439,-12.715409491637374],[-69.21676397323608,-12.715723462906809],[-69.21601295471191,-12.71622581613039],[-69.21575546264648,-12.71708400058806],[-69.21547651290894,-12.71773286983759],[-69.21474695205688,-12.717418901052966],[-69.21427488327026,-12.716916550189964],[-69.2138671875,-12.716414198332998],[-69.21266555786133,-12.71566066868398],[-69.21204328536987,-12.715639737272909],[-69.21034812927246,-12.716372335633395],[-69.20974731445312,-12.717042137998902],[-69.20906066894531,-12.717272382153922],[-69.20861005783081,-12.716728168360078],[-69.20861005783081,-12.715828119910356],[-69.20822381973267,-12.715283903020875],[-69.20760154724121,-12.714990862674213],[-69.20710802078247,-12.714488507007431],[-69.20667886734009,-12.713965218797796],[-69.20597076416016,-12.713630313777756],[-69.20530557632446,-12.71413267114221],[-69.20466184616089,-12.714781547933839],[-69.20406103134155,-12.714760616450306],[-69.20335292816162,-12.714216397272992],[-69.20163631439209,-12.713630313777756],[-69.2009711265564,-12.714174534211054],[-69.2003059387207,-12.714823410895718],[-69.19979095458984,-12.715032725601588],[-69.19949054718018,-12.715639737272909],[-69.19867515563965,-12.71584905130588],[-69.19687271118164,-12.715869982699687],[-69.19644355773926,-12.71538856020561],[-69.19700145721436,-12.715032725601588],[-69.19700145721436,-12.714111739605187],[-69.19764518737793,-12.71350472428135],[-69.19740915298462,-12.71275118599884],[-69.19700145721436,-12.71195578205294],[-69.19755935668945,-12.711348761576275],[-69.19755935668945,-12.711558079145888],[-69.19743061065674,-12.712039508901384],[-69.19807434082031,-12.71176739654301],[-69.19818162918091,-12.712583732743553],[-69.19837474822998,-12.713295408316029],[-69.19919013977051,-12.713400066320261],[-69.19976949691772,-12.713065160554933],[-69.20032739639282,-12.713002365674754],[-69.2008638381958,-12.712876775867855],[-69.2014217376709,-12.712520937744344],[-69.20167922973633,-12.711683669604867],[-69.20140027999878,-12.710951057718788],[-69.2008638381958,-12.710260307433785],[-69.20114278793335,-12.709632350999328],[-69.20170068740845,-12.70982073809266],[-69.20170068740845,-12.708899733197285],[-69.20225858688354,-12.708543889502593],[-69.2027735710144,-12.7089415971286],[-69.20326709747314,-12.708585753492542],[-69.20363187789917,-12.707936860873119],[-69.20408248901367,-12.707434491255412],[-69.20446872711182,-12.706890256382039],[-69.20472621917725,-12.706722799263403],[-69.20476913452148,-12.706890256382039],[-69.2050051689148,-12.707371694983365],[-69.20543432235718,-12.706890256382039],[-69.20558452606201,-12.706618138508219],[-69.20562744140625,-12.706346020342991],[-69.20627117156982,-12.70607390188637],[-69.20667886734009,-12.706597206352015],[-69.20721530914307,-12.706953052773073],[-69.20749425888062,-12.707581015829845],[-69.2080307006836,-12.707978724963098],[-69.20833110809326,-12.708564821498427],[-69.2084813117981,-12.709318372200002],[-69.20884609222412,-12.709862601872203],[-69.20895338058472,-12.710678944194385],[-69.20931816101074,-12.711223170951712],[-69.21024084091187,-12.711223170951712],[-69.21082019805908,-12.711495283893129],[-69.21165704727173,-12.711411556865272],[-69.21238660812378,-12.711223170951712],[-69.21303033828735,-12.710951057718788],[-69.2138671875,-12.710867330511562],[-69.21399593353271,-12.71005098879479],[-69.21369552612305,-12.709213712514014],[-69.21326637268066,-12.708439229497543],[-69.21272993087769,-12.707685676188433],[-69.2127513885498,-12.707141441853054],[-69.21303033828735,-12.706513477709933],[-69.21363115310669,-12.70607390188637],[-69.21412467956543,-12.70647161337854],[-69.21468257904053,-12.70764381205018],[-69.21536922454834,-12.707413559166454],[-69.21629190444946,-12.707413559166454],[-69.2168927192688,-12.70709957762513],[-69.21815872192383,-12.706701867115825],[-69.21833038330078,-12.707581015829845],[-69.2184591293335,-12.70848109350473],[-69.21740770339966,-12.709925397528579],[-69.21721458435059,-12.71080453508803],[-69.21757936477661,-12.711599942639111],[-69.21875953674316,-12.712981434044593],[-69.21938180923462,-12.713651245354427],[-69.22015428543091,-12.71413267114221],[-69.2210340499878,-12.714279191852981],[-69.2219352722168,-12.714174534211054],[-69.22279357910156,-12.714530370017627],[-69.22369480133057,-12.714488507007431],[-69.22457456588745,-12.714216397272992],[-69.22504663467407,-12.714467575499754],[-69.22547578811646,-12.713965218797796],[-69.22607660293579,-12.713651245354427],[-69.22708511352539,-12.71283491258508],[-69.22712802886963,-12.713693108502653],[-69.22712802886963,-12.71551414877031],[-69.22800779342651,-12.71551414877031],[-69.22850131988525,-12.715911845482125],[-69.22850131988525,-12.716811893635068]]],[[[-69.22605514526367,-12.755448158708958],[-69.22577619552612,-12.756096929762265],[-69.22566890716553,-12.756954979246217],[-69.22511100769043,-12.757331682978702],[-69.2249608039856,-12.758085088761419],[-69.22521829605103,-12.758712925200157],[-69.22523975372314,-12.759612821379022],[-69.22599077224731,-12.759780243570802],[-69.22592639923096,-12.760659208260023],[-69.22517538070679,-12.760847557438993],[-69.2244029045105,-12.760994051147918],[-69.22412395477295,-12.761621880368182],[-69.2244029045105,-12.762249708030282],[-69.22412395477295,-12.762898461644141],[-69.22468185424805,-12.763254229048542],[-69.2249608039856,-12.763882052659142],[-69.22481060028076,-12.764384310425555],[-69.2249608039856,-12.765158622527977],[-69.2249608039856,-12.766958365822944],[-69.22523975372314,-12.767586180237913],[-69.22528266906738,-12.768444190750728],[-69.2255187034607,-12.769239417406567],[-69.22523975372314,-12.769867226157459],[-69.22457456588745,-12.769930006946794],[-69.22403812408447,-12.770453179584962],[-69.22427415847778,-12.771164692635296],[-69.22371625900269,-12.770495033349249],[-69.19350729343147,-12.727758735469664],[-69.19350385665894,-12.727758735469664],[-69.19232368469238,-12.726084296948187],[-69.18957710266113,-12.722191184671033],[-69.18955564498901,-12.72202373764199],[-69.19013500213623,-12.722358631589614],[-69.19092893600464,-12.722484216706036],[-69.19114351272583,-12.723174933735478],[-69.1917872428894,-12.722902833311949],[-69.19258117675781,-12.72302841815906],[-69.1933536529541,-12.723174933735478],[-69.19382572174072,-12.723719133707263],[-69.19416904449463,-12.724493570116408],[-69.19504880905151,-12.724598223503918],[-69.19534921646118,-12.72526800416189],[-69.19620752334595,-12.72533079600791],[-69.19646501541138,-12.72468194618287],[-69.19667959213257,-12.724409847375313],[-69.19668097633819,-12.724409847375313],[-69.19697999954224,-12.724033094698555],[-69.196937084198,-12.723133072150858],[-69.19762372970581,-12.722630732596656],[-69.19891119003296,-12.723174933735478],[-69.19867515563965,-12.723781925936592],[-69.19880032542466,-12.724409847375313],[-69.19880390167236,-12.724409847375313],[-69.19882535934448,-12.724514500797369],[-69.19923305511475,-12.725037767260133],[-69.20011281967163,-12.725058697896202],[-69.20172214508057,-12.724409847375313],[-69.20172357549954,-12.724409847375313],[-69.20204401016235,-12.724242401810258],[-69.20296669006348,-12.724242401810258],[-69.20346021652222,-12.724723807511964],[-69.20416831970215,-12.725226142922551],[-69.20483350753784,-12.724933114053911],[-69.20521974563599,-12.724137748275979],[-69.2055201533678,-12.724409847375313],[-69.20554161071777,-12.724409847375313],[-69.20612096786499,-12.724954044698606],[-69.20667886734009,-12.72533079600791],[-69.20633554458618,-12.725874991355909],[-69.2063570022583,-12.726084296948187],[-69.20639991760254,-12.726314532900219],[-69.20667886734009,-12.726419185536628],[-69.2069149017334,-12.726084296948187],[-69.20704364776611,-12.725874991355909],[-69.20753717422485,-12.726084296948187],[-69.20768737792969,-12.726147088592185],[-69.20805215835571,-12.72669128218925],[-69.20835256576538,-12.727319196427587],[-69.20815944671631,-12.727758735469664],[-69.2081573008766,-12.727758735469664],[-69.20807361602783,-12.72794710911171],[-69.20751571655273,-12.728323855976114],[-69.20723676681519,-12.728930835858435],[-69.20768737792969,-12.729391302386446],[-69.20805215835571,-12.729935489023589],[-69.20869588851929,-12.73020758190431],[-69.20933961868286,-12.729935489023589],[-69.209725856781,-12.729412232663307],[-69.2102837562561,-12.729579674816051],[-69.2107343673706,-12.729663395850977],[-69.21257972717285,-12.729663395850977],[-69.21305179595947,-12.730102930830881],[-69.21358823776245,-12.730479674493097],[-69.2144250869751,-12.73056339523093],[-69.2149829864502,-12.730919208058367],[-69.21551942825317,-12.731295950507985],[-69.2158842086792,-12.731840133058228],[-69.21652793884277,-12.73156804192908],[-69.21691417694092,-12.732112223895427],[-69.21781539916992,-12.732112223895427],[-69.21854496002197,-12.731840133058228],[-69.21912431716919,-12.732175014047158],[-69.21983242034912,-12.73238431444068],[-69.21996116638184,-12.7331587243945],[-69.22024011611938,-12.73378662262077],[-69.22034740447998,-12.734268010207842],[-69.22051906585693,-12.734309869954828],[-69.22062635421753,-12.734268010207842],[-69.22105550765991,-12.733807552534856],[-69.22191381454468,-12.733723832868108],[-69.2228364944458,-12.733723832868108],[-69.22354459762573,-12.73483311620899],[-69.22382354736328,-12.73470753720649],[-69.22408103942871,-12.735021484596132],[-69.2232871055603,-12.735335431597008],[-69.22245025634766,-12.735419150731573],[-69.22189235687256,-12.736695864108015],[-69.22189235687256,-12.7370516683295],[-69.22206401824951,-12.73780513444396],[-69.22270774841309,-12.738077218879283],[-69.22300815582275,-12.738726034430982],[-69.22300815582275,-12.739626001639934],[-69.2232871055603,-12.740253883846506],[-69.2232871055603,-12.742053804216354],[-69.22382354736328,-12.743330484169562],[-69.2232871055603,-12.743686279075831],[-69.22298669815063,-12.744314151220863],[-69.2228364944458,-12.744858305821126],[-69.22356605529785,-12.74504666675658],[-69.22410249710083,-12.745402459252475],[-69.22461748123169,-12.7459675404247],[-69.22438144683838,-12.74659540691529],[-69.22493934631348,-12.74785113522708],[-69.22549724578857,-12.748227852506517],[-69.22528266906738,-12.748918499396694],[-69.22491788864136,-12.749462644104739],[-69.22466039657593,-12.750111430497626],[-69.22466039657593,-12.75193220923697],[-69.22455310821533,-12.752727487795966],[-69.22459602355957,-12.753250696011776],[-69.22521829605103,-12.753564620422196],[-69.22588348388672,-12.753794831409081],[-69.22605514526367,-12.754548247720479],[-69.22605514526367,-12.755448158708958]]],[[[-69.21968221664429,-12.692216407676923],[-69.21933889389038,-12.692488540964959],[-69.21841621398926,-12.692488540964959],[-69.21798706054688,-12.69299094011653],[-69.21770811080933,-12.693618937660716],[-69.21785831451416,-12.694121334579776],[-69.2174506187439,-12.69462373050655],[-69.21712875366211,-12.694121334579776],[-69.2172360420227,-12.693284005830094],[-69.21740770339966,-12.692425741001244],[-69.21727895736694,-12.692718807365935],[-69.21715021133423,-12.692739740664777],[-69.21661376953125,-12.69238387435017],[-69.2163348197937,-12.691755873757074],[-69.21672105789185,-12.691337205833804],[-69.21612024307251,-12.69066733572356],[-69.21541213989258,-12.690855736870319],[-69.21466112136841,-12.691148805043568],[-69.21412467956543,-12.689871862677009],[-69.21326637268066,-12.68978812852744],[-69.21217203140259,-12.690520801401846],[-69.21217203140259,-12.691776807135156],[-69.21124935150146,-12.691651206840845],[-69.21054124832153,-12.691420939473588],[-69.21015501022339,-12.690876670322467],[-69.20951128005981,-12.6906045353103],[-69.20914649963379,-12.6906045353103],[-69.20850276947021,-12.690876670322467],[-69.20775175094604,-12.691044137877583],[-69.2073655128479,-12.691567473276862],[-69.20552015304565,-12.691567473276862],[-69.20466184616089,-12.691630273452446],[-69.20397520065308,-12.691965207460356],[-69.20204401016235,-12.692781607257288],[-69.20167922973633,-12.693325872333034],[-69.20112133026123,-12.693702670549484],[-69.20067071914673,-12.694142267763212],[-69.20002698898315,-12.694414398991],[-69.19919013977051,-12.694519064770304],[-69.19899702072144,-12.69523079092744],[-69.19837474822998,-12.695502920990592],[-69.19781684875488,-12.695858782941542],[-69.19762372970581,-12.696591438331467],[-69.19725894927979,-12.697135695254772],[-69.1967225074768,-12.697491554920987],[-69.19616460800171,-12.698747526232907],[-69.19560670852661,-12.699124316416743],[-69.19513463973999,-12.699563904258838],[-69.19449090957642,-12.699836029684974],[-69.19367551803589,-12.699940693232847],[-69.1932463645935,-12.699752298815639],[-69.1933536529541,-12.698852190228862],[-69.19294595718384,-12.698349802655343],[-69.19202327728271,-12.698287004138848],[-69.19110059738159,-12.698328869818226],[-69.19019937515259,-12.698454466815008],[-69.1895341873169,-12.698956854181745],[-69.18912649154663,-12.699773231535573],[-69.18994188308716,-12.701405978378958],[-69.18989896774292,-12.702264212899578],[-69.18955564498901,-12.704043470357718],[-69.18889045715332,-12.70442025269196],[-69.18798923492432,-12.704587711327875],[-69.18732404708862,-12.704587711327875],[-69.18732404708862,-12.703687619862492],[-69.18743133544922,-12.702787525209573],[-69.18747425079346,-12.7018874273693],[-69.1874098777771,-12.70098732634186],[-69.18715238571167,-12.700129087510476],[-69.18680906295776,-12.69929177854145],[-69.18590784072876,-12.697700883903764],[-69.1858434677124,-12.697135695254772],[-69.18620824813843,-12.697659018121001],[-69.186851978302,-12.697952078455657],[-69.18732404708862,-12.698056742779059],[-69.18788194656372,-12.697679951013242],[-69.18779611587524,-12.696863566938717],[-69.18788194656372,-12.696423974428427],[-69.1884183883667,-12.695147058541735],[-69.18895483016968,-12.694519064770304],[-69.1934609413147,-12.691379072657128],[-69.19423341751099,-12.691065071314213],[-69.19476985931396,-12.690709202657118],[-69.19534921646118,-12.690081197930368],[-69.20886754989624,-12.680681875360563],[-69.20940399169922,-12.680807481067973],[-69.21000480651855,-12.681121495065454],[-69.21092748641968,-12.681100560811004],[-69.21107769012451,-12.681875127079422],[-69.2113995552063,-12.682461283770351],[-69.21189308166504,-12.682063534734397],[-69.21197891235352,-12.681414574447047],[-69.21410322189331,-12.684387217681788],[-69.21438217163086,-12.685078038251717],[-69.21438217163086,-12.68599912942858],[-69.21466112136841,-12.686627144229021],[-69.214768409729,-12.68706675366731],[-69.2152190208435,-12.68706675366731],[-69.2157769203186,-12.6868783497153],[-69.21624898910522,-12.68821810812129],[-69.21659231185913,-12.688636781176726],[-69.2172360420227,-12.688971719125135],[-69.21715021133423,-12.690395200487501],[-69.21742916107178,-12.691023204439219],[-69.21796560287476,-12.691420939473588],[-69.21860933303833,-12.691693073612498],[-69.21916723251343,-12.691462806283127],[-69.21968221664429,-12.692216407676923]]],[[[-69.21740770339966,-12.719365501258224],[-69.21663522720337,-12.720223675102346],[-69.21691417694092,-12.720872536326524],[-69.21637773513794,-12.721249293695493],[-69.21691417694092,-12.721584188665062],[-69.21702146530151,-12.72206559940959],[-69.21665668487549,-12.722609801760314],[-69.21620607376099,-12.722442355007473],[-69.21571254730225,-12.721793497796625],[-69.21526193618774,-12.721081846044996],[-69.21556234359741,-12.720412054338311],[-69.21697854995728,-12.719428294564707],[-69.21740770339966,-12.719365501258224]]],[[[-69.18655157089233,-12.702117685259722],[-69.1862940788269,-12.702829390147826],[-69.18567180633545,-12.703122444522563],[-69.18567180633545,-12.704022537989431],[-69.18547868728638,-12.70473423754379],[-69.18511390686035,-12.705278477034696],[-69.18455600738525,-12.705634325302412],[-69.1842770576477,-12.706283223801947],[-69.1842770576477,-12.7071833060741],[-69.18378353118896,-12.70779033650389],[-69.18346166610718,-12.70846016150199],[-69.18288230895996,-12.708795073338806],[-69.18251752853394,-12.70825084137978],[-69.18208837509155,-12.708732277403058],[-69.18206691741943,-12.709067188881164],[-69.18140172958374,-12.70933930413203],[-69.18103694915771,-12.709883533759381],[-69.18062925338745,-12.70971607861361],[-69.17633771896362,-12.703855078981135],[-69.17646646499634,-12.703227106717364],[-69.1773247718811,-12.703248039151163],[-69.17809724807739,-12.702787525209573],[-69.17886972427368,-12.702285145412674],[-69.18168067932129,-12.700212818255707],[-69.18232440948486,-12.699856962398002],[-69.18277502059937,-12.699312711299271],[-69.18346166610718,-12.698998719750833],[-69.18399810791016,-12.698454466815008],[-69.18500661849976,-12.697952078455657],[-69.18590784072876,-12.699522038782817],[-69.18625116348267,-12.700359346993523],[-69.1865086555481,-12.701238517646857],[-69.18655157089233,-12.702117685259722]]]]}}]}
