{"type":"FeatureCollection","features":[{"type":"Feature","properties":{"projectId":"VCS1498","name":"Preserving Peat Swamp Forest Ecosystem Through Redd+ Activity In Kampar Peninsula Riau-Indonesia","sourceRegistry":"Verra VCS","externalId":"VCS1498","projectType":"avoided_deforestation","country":"Indonesia","vintageYears":[],"sourceUrl":"https://zenodo.org/records/11459391","license":"CC BY 4.0 (Karnik et al. dataset); CarbonPlan Terms of Use also apply to the PMTiles derivative","retrievedAt":"2026-10-05","illustrative":false},"geometry":{"type":"MultiPolygon","coordinates":[[[[102.34676599502563,0.7090506762870348],[102.35616445541382,0.7067763366498951],[102.36128016427773,0.7048238366388659],[102.36127138137817,0.7048238366388659],[102.3657774925232,0.7031073524364899],[102.37483263015747,0.699652926067813],[102.37888813018799,0.698129544686438],[102.3790168762207,0.698065176448182],[102.38008975982666,0.6976575109187451],[102.38197803497314,0.6969494601784589],[102.3820424079895,0.6969280040937491],[102.38534688949585,0.6956620949234633],[102.38547563552856,0.6955977266514992],[102.38830804824829,0.6945249219893981],[102.392578125,0.6928942584367661],[102.39693403244019,0.6912421382123881],[102.47875213623047,0.6600975183123013],[102.47875213623047,0.6600877650447075],[102.48046875,0.6594440775590868],[102.48218536376953,0.6587789337364995],[102.48218536376953,0.6587900508657992],[102.50941514968872,0.6484155524435238],[102.50982284545898,0.648265358354962],[102.51035928726196,0.6480507953636021],[102.51924276351929,0.6446606988955352],[102.52246141433716,0.6434376888556272],[102.54160165786743,0.6361639915276385],[102.5420093536377,0.6359923407289187],[102.54241704940796,0.6358421462753796],[102.54344701766968,0.635455931946197],[102.54361867904663,0.6353915628885289],[102.55642890930176,0.6305209685376809],[102.56604194641113,0.6268519274914865],[102.568359375,0.6272595988460665],[102.58363723754883,0.6288902839465891],[102.58496761322021,0.6290190222223231],[102.6062536239624,0.6312933979026525],[102.61097431182861,0.631786894381321],[102.61258363723755,0.6319585453194208],[102.62417078018188,0.6331815580892339],[102.6282262802124,0.6335892289484093],[102.63329029083252,0.6341470942826675],[102.63601541519165,0.6344260269272581],[102.6383113861084,0.6346835032012166],[102.63859033584595,0.6347049595568137],[102.63837575912476,0.652985741859851],[102.63822555541992,0.66139659600843],[102.63811826705933,0.6723821799331375],[102.6380968093872,0.6730473219202509],[102.63801097869873,0.6794841751601126],[102.63798952102661,0.6840328796160122],[102.62859106063843,0.6838826866130319],[102.62333393096924,0.6837110374610091],[102.6203727722168,0.6831746338213804],[102.62011528015137,0.6830673530862725],[102.61794805526733,0.6823807563248607],[102.61363506317139,0.6810290186645744],[102.61101722717285,0.6802351408143181],[102.60724067687988,0.6802565969741465],[102.58861541748047,0.6860497566288615],[102.58777856826782,0.6860497566288615],[102.58777856826782,0.6861784934306456],[102.58764982223511,0.6861784934306456],[102.58764982223511,0.6860497566288615],[102.58670568466187,0.6860497566288615],[102.58670568466187,0.6859210198236383],[102.5862979888916,0.6859210198236383],[102.5862979888916,0.6860497566288615],[102.58616924285889,0.6860497566288615],[102.58616924285889,0.6857708268798319],[102.58481740951538,0.6857708268798319],[102.58481740951538,0.685642090067077],[102.58453845977783,0.685642090067077],[102.58453845977783,0.6857708268798319],[102.5842809677124,0.6857708268798319],[102.5842809677124,0.6860497566288615],[102.58333683013916,0.6860497566288615],[102.58333683013916,0.685899563689091],[102.58320808410645,0.685899563689091],[102.58320808410645,0.6857708268798319],[102.5829291343689,0.6857708268798319],[102.5829291343689,0.685642090067077],[102.58265018463135,0.685642090067077],[102.58265018463135,0.6857708268798319],[102.58239269256592,0.6857708268798319],[102.58239269256592,0.685899563689091],[102.5822639465332,0.685899563689091],[102.5822639465332,0.6857708268798319],[102.58185625076294,0.6857708268798319],[102.58185625076294,0.685513353250883],[102.58144855499268,0.685513353250883],[102.58144855499268,0.6860497566288615],[102.5809121131897,0.6860497566288615],[102.5809121131897,0.685899563689091],[102.58078336715698,0.685899563689091],[102.58078336715698,0.6857708268798319],[102.58050441741943,0.6857708268798319],[102.58050441741943,0.685899563689091],[102.58037567138672,0.685899563689091],[102.58037567138672,0.6860497566288615],[102.58009672164917,0.6860497566288615],[102.58009672164917,0.6861784934306456],[102.57956027984619,0.6861784934306456],[102.57956027984619,0.685899563689091],[102.57795095443726,0.685899563689091],[102.57795095443726,0.685642090067077],[102.5776720046997,0.685642090067077],[102.5776720046997,0.6857708268798319],[102.57754325866699,0.6857708268798319],[102.57754325866699,0.6860497566288615],[102.57726430892944,0.6860497566288615],[102.57726430892944,0.685899563689091],[102.57700681686401,0.685899563689091],[102.57700681686401,0.6860497566288615],[102.57647037506104,0.6860497566288615],[102.57647037506104,0.6861784934306456],[102.5763201713562,0.6861784934306456],[102.5763201713562,0.6857708268798319],[102.57593393325806,0.6857708268798319],[102.57593393325806,0.6860497566288615],[102.57578372955322,0.6860497566288615],[102.57578372955322,0.6861784934306456],[102.57539749145508,0.6861784934306456],[102.57539749145508,0.6860497566288615],[102.57498979568481,0.6860497566288615],[102.57498979568481,0.685899563689091],[102.57458209991455,0.685899563689091],[102.57458209991455,0.6857708268798319],[102.57445335388184,0.6857708268798319],[102.57445335388184,0.685642090067077],[102.57404565811157,0.685642090067077],[102.57404565811157,0.685899563689091],[102.57376670837402,0.685899563689091],[102.57376670837402,0.685642090067077],[102.57323026657104,0.685642090067077],[102.57323026657104,0.685899563689091],[102.5722861289978,0.685899563689091],[102.5722861289978,0.6857708268798319],[102.57215738296509,0.6857708268798319],[102.57215738296509,0.685642090067077],[102.57147073745728,0.685642090067077],[102.57147073745728,0.6857708268798319],[102.57121324539185,0.6857708268798319],[102.57121324539185,0.685899563689091],[102.57067680358887,0.685899563689091],[102.57067680358887,0.6857708268798319],[102.57039785385132,0.6857708268798319],[102.57039785385132,0.685899563689091],[102.56878852844238,0.685899563689091],[102.56878852844238,0.6860283004948968],[102.56865978240967,0.6860283004948968],[102.56865978240967,0.6861784934306456],[102.56812334060669,0.6861784934306456],[102.56812334060669,0.685899563689091],[102.56797313690186,0.685899563689091],[102.56797313690186,0.6860283004948968],[102.56771564483643,0.6860283004948968],[102.56771564483643,0.6863072302289481],[102.56756544113159,0.6863072302289481],[102.56756544113159,0.6864359670237974],[102.56698608398438,0.6864359670237974],[102.56664276123047,0.6862428618302232],[102.56664276123047,0.6862333373497922],[102.56258726119995,0.6838397743256053],[102.55855321884155,0.6809431940384059],[102.558274269104,0.6807500886239808],[102.55520582199097,0.6785615600536943],[102.54788875579834,0.6732189714505807],[102.54415512084961,0.6704296658349875],[102.54037857055664,0.6675974461995082],[102.53836154937744,0.6660955108819593],[102.53816843032837,0.6659453173249972],[102.53700971603394,0.665087068340398],[102.53325462341309,0.6622763018721258],[102.52926349639893,0.659658640063526],[102.52327680587769,0.6638211508157497],[102.51915693283081,0.6640142568997902],[102.51587390899658,0.6663958979821132],[102.51329898834229,0.6681767639851586],[102.51102447509766,0.6697859796978065],[102.51065969467163,0.6700219979579316],[102.50832080841064,0.6707729650735672],[102.5060248374939,0.6715024758755561],[102.50360012054443,0.6726396542615021],[102.5034499168396,0.6727254790345825],[102.5019907951355,0.6736266390609273],[102.50074625015259,0.6743990618080034],[102.49978065490723,0.6753860462508783],[102.49808549880981,0.6765661360825277],[102.4979567527771,0.6766519607863586],[102.49677658081055,0.6775102077412072],[102.49518871307373,0.6798060175976417],[102.49355792999268,0.6820589140592119],[102.4920129776001,0.6843976340322513],[102.48218536376953,0.6880978897746911],[102.48218536376953,0.6881095450411152],[102.4815845489502,0.6883241062829626],[102.48046875,0.688710316493939],[102.47892379760742,0.6892467195128376],[102.47546911239624,0.6901907886793452],[102.47458934783936,0.6903624375985942],[102.47302293777466,0.6907915598695666],[102.47134923934937,0.691306506543583],[102.47042655944824,0.6916498042952526],[102.46922492980957,0.6922076630887375],[102.46336698532104,0.6961770410676422],[102.45772361755371,0.700210783914784],[102.45744466781616,0.7003609764007166],[102.45645761489868,0.7008759220302068],[102.45538473129272,0.7014337797315733],[102.45396852493286,0.7022276540380972],[102.45248794555664,0.7031073524364899],[102.45137214660645,0.7037724901398832],[102.44931221008301,0.7048238366388659],[102.44928431500827,0.7048238366388659],[102.44838953018188,0.7052744136372127],[102.4468445777893,0.7063686718801563],[102.44186639785767,0.7101234776150847],[102.4396562576294,0.7110460865580848],[102.43772506713867,0.7119901513321594],[102.4365234375,0.7124836396598653],[102.4339485168457,0.7132989680854678],[102.4303650856018,0.714178664382672],[102.42783308029175,0.7148867124996059],[102.42693185806274,0.7151012725134791],[102.42399215698242,0.7167962962703598],[102.42221117019653,0.7189848070283062],[102.42103099822998,0.7200576060364909],[102.41888523101807,0.7219028197398103],[102.41575241088867,0.7243487995409339],[102.4139928817749,0.7246706388902595],[102.41186857223511,0.7259579960588098],[102.41171836853027,0.7259579960588098],[102.41171836853027,0.7260223639076457],[102.40800619125366,0.7281679583431782],[102.40296363830566,0.7300560806018268],[102.40216970443726,0.7303564636153794],[102.39699840545654,0.7319871139098808],[102.39429473876953,0.7347712584602661],[102.39429473876953,0.7347763827752374],[102.3926854133606,0.736428487359305],[102.392578125,0.7366430463512899],[102.39152669906616,0.7386813562595904],[102.39084005355835,0.7386813562595904],[102.39084005355835,0.7388100915908495],[102.39017486572266,0.7388100915908495],[102.39017486572266,0.738960282805948],[102.38976716995239,0.738960282805948],[102.38976716995239,0.7390890181291212],[102.38935947418213,0.7390890181291212],[102.38935947418213,0.7392177534485995],[102.38856554031372,0.7392177534485995],[102.38856554031372,0.7393464887642978],[102.3877501487732,0.7393464887642978],[102.3877501487732,0.739496679961249],[102.38721370697021,0.739496679961249],[102.38721370697021,0.7397541505727929],[102.38667726516724,0.7397541505727929],[102.38667726516724,0.7399043417559454],[102.38599061965942,0.7399043417559454],[102.38599061965942,0.7400330770517627],[102.38532543182373,0.7400330770517627],[102.38532543182373,0.7401618123438283],[102.38397359848022,0.7401618123438283],[102.38397359848022,0.740312003513182],[102.38343715667725,0.740312003513182],[102.38343715667725,0.7404407387971617],[102.38277196884155,0.7404407387971617],[102.38277196884155,0.7405694740773896],[102.38208532333374,0.7405694740773896],[102.38208532333374,0.7406982093538943],[102.38154888153076,0.7406982093538943],[102.38154888153076,0.7408484005050866],[102.38073348999023,0.7408484005050866],[102.38073348999023,0.7409771357734627],[102.37993955612183,0.7409771357734627],[102.37993955612183,0.7411058710381297],[102.38019704818726,0.7411058710381297],[102.38019704818726,0.7412560621754949],[102.37981081008911,0.7412560621754949],[102.37981081008911,0.7411058710381297],[102.37953186035156,0.7411058710381297],[102.37953186035156,0.7412560621754949],[102.37886667251587,0.7412560621754949],[102.37886667251587,0.7413847974320333],[102.3784589767456,0.7413847974320333],[102.3784589767456,0.7415135326848343],[102.37764358520508,0.7415135326848343],[102.37764358520508,0.7416637238083581],[102.37682819366455,0.7416637238083581],[102.37682819366455,0.7417924590530589],[102.3757553100586,0.7417924590530589],[102.3757553100586,0.7419211942939938],[102.37521886825562,0.7419211942939938],[102.37521886825562,0.7420499295311913],[102.37440347671509,0.7420499295311913],[102.37440347671509,0.7422001206365252],[102.37455368041992,0.7422001206365252],[102.37455368041992,0.7423288558656083],[102.37414598464966,0.7423288558656083],[102.37414598464966,0.7422001206365252],[102.3737382888794,0.7422001206365252],[102.3737382888794,0.7423288558656083],[102.37253665924072,0.7423288558656083],[102.37253665924072,0.7424575910909397],[102.37200021743774,0.7424575910909397],[102.37197875976562,0.742736517399635],[102.37144231796265,0.742736517399635],[102.37144231796265,0.7428652526131003],[102.37024068832397,0.7428652526131003],[102.37024068832397,0.743015443690723],[102.36957550048828,0.743015443690723],[102.36957550048828,0.7431441788960598],[102.36901760101318,0.7431441788960598],[102.36901760101318,0.7432729140976448],[102.36807346343994,0.7432729140976448],[102.36807346343994,0.7434016492954783],[102.36740827560425,0.7434016492954783],[102.36740827560425,0.7435518403548542],[102.36687183380127,0.7435518403548542],[102.36687183380127,0.743680575544559],[102.366464138031,0.743680575544559],[102.366464138031,0.7438093107304979],[102.36633539199829,0.7438093107304979],[102.36633539199829,0.7439595017760183],[102.36620664596558,0.7439595017760183],[102.36620664596558,0.7440882369538144],[102.36605644226074,0.7440882369538144],[102.36605644226074,0.7442169721278731],[102.36579895019531,0.7442169721278731],[102.36579895019531,0.7443671631595095],[102.36564874649048,0.7443671631595095],[102.36564874649048,0.7444958983254111],[102.36552000045776,0.7444958983254111],[102.36552000045776,0.744624633487561],[102.3651123046875,0.744624633487561],[102.3651123046875,0.7447748245053134],[102.3644471168518,0.7447748245053134],[102.3644471168518,0.7449035596593063],[102.36363172531128,0.7449035596593063],[102.36363172531128,0.7450322948095618],[102.36322402954102,0.7450322948095618],[102.36324548721313,0.7449035596593063],[102.36296653747559,0.7449035596593063],[102.36296653747559,0.7450322948095618],[102.36243009567261,0.7450322948095618],[102.36243009567261,0.7451610299560372],[102.36189365386963,0.7451610299560372],[102.36189365386963,0.7453112209555144],[102.35987663269043,0.7453112209555144],[102.35987663269043,0.745439956093847],[102.35918998718262,0.745439956093847],[102.35918998718262,0.7455686912284136],[102.35865354537964,0.7455686912284136],[102.35865354537964,0.7457188822139642],[102.35730171203613,0.7457188822139642],[102.35730171203613,0.7458476173403739],[102.35610008239746,0.7458476173403739],[102.35610008239746,0.7459763524630176],[102.35528469085693,0.7459763524630176],[102.35528469085693,0.7461050875818955],[102.3550271987915,0.7461050875818955],[102.3550271987915,0.746255278549171],[102.35354661941528,0.746255278549171],[102.35354661941528,0.7463840136598776],[102.35217332839966,0.7463840136598776],[102.34676599502563,0.7090506762870348]]],[[[102.3522162437439,0.746662939720153],[102.35326766967773,0.746662939720153],[102.35326766967773,0.7465127487668184],[102.35449075698853,0.7465127487668184],[102.35449075698853,0.7463840136598776],[102.35515594482422,0.7463840136598776],[102.35515594482422,0.746255278549171],[102.35635757446289,0.746255278549171],[102.35635757446289,0.7461050875818955],[102.35689401626587,0.7461265434346842],[102.35689401626587,0.7459763524630176],[102.35811710357666,0.7459763524630176],[102.35811710357666,0.7458476173403739],[102.35878229141235,0.7458476173403739],[102.35878229141235,0.7457188822139642],[102.36026287078857,0.7457188822139642],[102.36026287078857,0.7455686912284136],[102.36013412475586,0.7455686912284136],[102.36013412475586,0.745439956093847],[102.36202239990234,0.745439956093847],[102.36202239990234,0.7453112209555144],[102.36337423324585,0.7453112209555144],[102.36337423324585,0.7451610299560372],[102.36403942108154,0.7451610299560372],[102.36403942108154,0.7450322948095618],[102.36526250839233,0.7450322948095618],[102.36526250839233,0.7449035596593063],[102.36552000045776,0.7449035596593063],[102.36552000045776,0.7447748245053134],[102.36579895019531,0.7447748245053134],[102.36579895019531,0.744624633487561],[102.36592769622803,0.744624633487561],[102.36592769622803,0.7444958983254111],[102.36605644226074,0.7444958983254111],[102.36605644226074,0.7443671631595095],[102.36620664596558,0.7443671631595095],[102.36620664596558,0.7442169721278731],[102.36633539199829,0.7442169721278731],[102.36633539199829,0.7440882369538144],[102.366464138031,0.7440882369538144],[102.366464138031,0.7439595017760183],[102.36659288406372,0.7439595017760183],[102.36659288406372,0.7438093107304979],[102.36753702163696,0.7438093107304979],[102.36753702163696,0.743680575544559],[102.36835241317749,0.743680575544559],[102.36835241317749,0.7435518403548542],[102.36916780471802,0.7435518403548542],[102.36916780471802,0.7434016492954783],[102.369704246521,0.7434016492954783],[102.369704246521,0.7432729140976448],[102.37036943435669,0.7432729140976448],[102.37036943435669,0.7431441788960598],[102.37024068832397,0.7431441788960598],[102.37024068832397,0.743015443690723],[102.37077713012695,0.743015443690723],[102.37077713012695,0.7431441788960598],[102.3710560798645,0.7431441788960598],[102.3710560798645,0.743015443690723],[102.3717212677002,0.743015443690723],[102.3717212677002,0.7428652526131003],[102.37225770950317,0.7428652526131003],[102.37225770950317,0.742736517399635],[102.37320184707642,0.742736517399635],[102.37320184707642,0.742607782182418],[102.37360954284668,0.742607782182418],[102.37360954284668,0.7424575910909397],[102.37468242645264,0.7424575910909397],[102.37468242645264,0.7423288558656083],[102.37534761428833,0.7423288558656083],[102.37534761428833,0.7422001206365252],[102.37603425979614,0.7422001206365252],[102.37603425979614,0.7420499295311913],[102.3764419555664,0.7420713854036904],[102.3764419555664,0.7419211942939938],[102.37723588943481,0.7419211942939938],[102.37723588943481,0.7417924590530589],[102.37805128097534,0.7417924590530589],[102.37805128097534,0.7416637238083581],[102.37858772277832,0.7416637238083581],[102.37858772277832,0.7415135326848343],[102.3791241645813,0.7415135326848343],[102.3791241645813,0.7413847974320333],[102.38019704818726,0.7413847974320333],[102.38019704818726,0.7412560621754949],[102.38088369369507,0.7412560621754949],[102.38088369369507,0.7411058710381297],[102.38129138946533,0.7411058710381297],[102.38129138946533,0.7409771357734627],[102.38223552703857,0.7409771357734627],[102.38223552703857,0.7408484005050866],[102.38302946090698,0.7408484005050866],[102.38302946090698,0.7407196652329446],[102.3837161064148,0.7407196652329446],[102.3837161064148,0.7405694740773896],[102.38438129425049,0.7405694740773896],[102.38438129425049,0.7404407387971617],[102.38504648208618,0.7404407387971617],[102.38504648208618,0.740312003513182],[102.38545417785645,0.740312003513182],[102.38545417785645,0.7401618123438283],[102.38614082336426,0.7401618123438283],[102.38614082336426,0.7400330770517627],[102.38693475723267,0.7400330770517627],[102.38693475723267,0.7399043417559454],[102.38734245300293,0.7399043417559454],[102.38734245300293,0.7397541505727929],[102.38800764083862,0.7397541505727929],[102.38800764083862,0.7396254152689039],[102.38882303237915,0.7396254152689039],[102.38882303237915,0.739496679961249],[102.38935947418213,0.739496679961249],[102.38935947418213,0.7393464887642978],[102.39017486572266,0.7393464887642978],[102.39017486572266,0.7392177534485995],[102.39071130752563,0.7392177534485995],[102.39071130752563,0.7390890181291212],[102.39133358001709,0.7390890181291212],[102.39099025726318,0.7397756064564192],[102.39092081875144,0.7399028997801169],[102.38903760910034,0.7436162079501827],[102.38717079162598,0.7476713645596504],[102.38687038421631,0.7503748002197597],[102.38397359848022,0.7519839873198606],[102.38397359848022,0.7519625314957636],[102.38384485244751,0.7519625314957636],[102.38384485244751,0.7516836057728256],[102.38328695297241,0.7516836057728256],[102.38328695297241,0.7519625314957636],[102.38302946090698,0.7519625314957636],[102.38302946090698,0.7522414572008671],[102.38275051116943,0.7522414572008671],[102.38275051116943,0.7523701921356718],[102.38234281539917,0.7523701921356718],[102.38234281539917,0.752498927066668],[102.38221406936646,0.752498927066668],[102.38221406936646,0.7526276619938841],[102.38208532333374,0.7526276619938841],[102.38208532333374,0.7527778527374949],[102.38101243972778,0.7527778527374949],[102.38101243972778,0.7529065876564687],[102.38086223602295,0.7529065876564687],[102.38086223602295,0.753035322571634],[102.38073348999023,0.753035322571634],[102.38073348999023,0.7531855133012044],[102.38060474395752,0.7531855133012044],[102.38060474395752,0.7533142482081416],[102.3804759979248,0.7533142482081416],[102.3804759979248,0.7534429831112703],[102.38019704818726,0.7534429831112703],[102.38019704818726,0.753593173826772],[102.38006830215454,0.753593173826772],[102.38006830215454,0.7538506436127506],[102.38019704818726,0.7538506436127506],[102.38019704818726,0.754086657569843],[102.37953186035156,0.7544728621993357],[102.37953186035156,0.7544084947634531],[102.37938165664673,0.7544084947634531],[102.37938165664673,0.7542583040760604],[102.37925291061401,0.7542583040760604],[102.37925291061401,0.7544084947634531],[102.3791241645813,0.7544084947634531],[102.3791241645813,0.7545372296342379],[102.37899541854858,0.7545372296342379],[102.37899541854858,0.7546659645011999],[102.37884521484375,0.7546659645011999],[102.37884521484375,0.7544084947634531],[102.37871646881104,0.7544084947634531],[102.37871646881104,0.7545372296342379],[102.37858772277832,0.7545372296342379],[102.37858772277832,0.7547946993643677],[102.37830877304077,0.7547946993643677],[102.37830877304077,0.7549448900332436],[102.37818002700806,0.7549448900332436],[102.37818002700806,0.7546659645011999],[102.37805128097534,0.7546659645011999],[102.37805128097534,0.7544084947634531],[102.37790107727051,0.7544084947634531],[102.37790107727051,0.7542583040760604],[102.3777723312378,0.7542583040760604],[102.3777723312378,0.7538506436127506],[102.37764358520508,0.7538506436127506],[102.37764358520508,0.7537219087216727],[102.37736463546753,0.7537219087216727],[102.37736463546753,0.7533142482081416],[102.37723588943481,0.7533142482081416],[102.37723588943481,0.7534429831112703],[102.3771071434021,0.7534429831112703],[102.3771071434021,0.753035322571634],[102.37695693969727,0.753035322571634],[102.37695693969727,0.7531855133012044],[102.37669944763184,0.7531855133012044],[102.37669944763184,0.7529065876564687],[102.37629175186157,0.7529065876564687],[102.37629175186157,0.7531855133012044],[102.37588405609131,0.7531855133012044],[102.37588405609131,0.7534429831112703],[102.37534761428833,0.7534429831112703],[102.37534761428833,0.7542583040760604],[102.37493991851807,0.7542583040760604],[102.37493991851807,0.7541295691970333],[102.3745322227478,0.7541295691970333],[102.3745322227478,0.75397937850002],[102.37399578094482,0.75397937850002],[102.37399578094482,0.7543655831390197],[102.37412452697754,0.7543655831390197],[102.37412452697754,0.7547732435540979],[102.37438201904297,0.7547732435540979],[102.37438201904297,0.7549019784140825],[102.37451076507568,0.7549019784140825],[102.37451076507568,0.7550307132702585],[102.37481117248535,0.7550307132702585],[102.37481117248535,0.755352550394008],[102.37493991851807,0.755352550394008],[102.37493991851807,0.75548128523684],[102.37534761428833,0.75548128523684],[102.37534761428833,0.7557602107165309],[102.37547636032104,0.7557602107165309],[102.37547636032104,0.7558889455472979],[102.37562656402588,0.7558889455472979],[102.37562656402588,0.756017680374228],[102.3757553100586,0.756017680374228],[102.3757553100586,0.7561678710008124],[102.37616300582886,0.7561678710008124],[102.37616300582886,0.7563609732273733],[102.37399578094482,0.757562497999487],[102.37399578094482,0.7575195864062181],[102.3737382888794,0.7575195864062181],[102.3737382888794,0.75736939582643],[102.37345933914185,0.75736939582643],[102.37345933914185,0.7572406610395888],[102.37333059310913,0.7572406610395888],[102.37333059310913,0.7571119262489674],[102.37305164337158,0.7571119262489674],[102.37305164337158,0.756833000856119],[102.37264394760132,0.756833000856119],[102.37264394760132,0.7565540754453366],[102.3725152015686,0.7565540754453366],[102.3725152015686,0.7561464151973212],[102.37185001373291,0.7561464151973212],[102.37185001373291,0.7565540754453366],[102.37197875976562,0.7565540754453366],[102.37197875976562,0.7569617356550395],[102.37238645553589,0.7569617356550395],[102.37238645553589,0.7571119262489674],[102.3725152015686,0.7571119262489674],[102.3725152015686,0.7572406610395888],[102.37264394760132,0.7572406610395888],[102.37264394760132,0.7575195864062181],[102.37279415130615,0.7575195864062181],[102.37279415130615,0.7576483211847602],[102.37305164337158,0.7576483211847602],[102.37305164337158,0.7579272465251279],[102.37333059310913,0.7579272465251279],[102.37333059310913,0.7579487023197942],[102.36983299255371,0.7599226349742594],[102.36983299255371,0.7594076961077718],[102.36968278884888,0.7594076961077718],[102.36968278884888,0.7595364308301527],[102.36955404281616,0.7595364308301527],[102.36955404281616,0.7596866213347511],[102.3691463470459,0.7596866213347511],[102.3691463470459,0.7594076961077718],[102.36901760101318,0.7594076961077718],[102.36901760101318,0.7588713013899735],[102.3691463470459,0.7588713013899735],[102.3691463470459,0.7579272465251279],[102.36888885498047,0.7579272465251279],[102.36888885498047,0.7577770559594654],[102.3691463470459,0.7577770559594654],[102.3691463470459,0.7575195864062181],[102.36901760101318,0.7575195864062181],[102.36901760101318,0.7564253406343227],[102.36888885498047,0.7564253406343227],[102.36888885498047,0.7561464151973212],[102.36873865127563,0.7561464151973212],[102.36876010894775,0.7556100200758493],[102.36888885498047,0.7556100200758493],[102.36888885498047,0.7557387549110359],[102.3691463470459,0.7557387549110359],[102.3691463470459,0.7558889455472979],[102.36929655075073,0.7558889455472979],[102.36929655075073,0.7565540754453366],[102.36942529678345,0.7565540754453366],[102.36942529678345,0.7562966058194718],[102.36955404281616,0.7562966058194718],[102.36955404281616,0.7561464151973212],[102.36968278884888,0.7561464151973212],[102.36968278884888,0.7558889455472979],[102.36955404281616,0.7558889455472979],[102.36955404281616,0.7557387549110359],[102.36929655075073,0.7557387549110359],[102.36929655075073,0.7556100200758493],[102.36955404281616,0.7556100200758493],[102.36955404281616,0.75548128523684],[102.36942529678345,0.75548128523684],[102.36942529678345,0.755352550394008],[102.36901760101318,0.755352550394008],[102.36901760101318,0.7550736248881265],[102.3691463470459,0.7550736248881265],[102.3691463470459,0.7549448900332436],[102.36888885498047,0.7549448900332436],[102.36888885498047,0.7546659645011999],[102.36876010894775,0.7546659645011999],[102.36876010894775,0.7545372296342379],[102.3684811592102,0.7545372296342379],[102.3684811592102,0.7542583040760604],[102.36807346343994,0.7542583040760604],[102.36807346343994,0.75397937850002],[102.36766576766968,0.75397937850002],[102.36766576766968,0.7538506436127506],[102.36753702163696,0.7538506436127506],[102.36753702163696,0.7537219087216727],[102.36740827560425,0.7537219087216727],[102.36740827560425,0.7535717180105905],[102.36727952957153,0.7535717180105905],[102.36727952957153,0.7534429831112703],[102.36740827560425,0.7534429831112703],[102.36740827560425,0.753035322571634],[102.36727952957153,0.753035322571634],[102.36727952957153,0.7527563969172917],[102.3671293258667,0.7527563969172917],[102.3671293258667,0.752498927066668],[102.36700057983398,0.752498927066668],[102.36700057983398,0.7519410756715672],[102.36633539199829,0.7519410756715672],[102.36633539199829,0.7515334149915702],[102.36618518829346,0.7515334149915702],[102.36618518829346,0.7508682843267707],[102.36605644226074,0.7508682843267707],[102.36605644226074,0.7507395493476992],[102.36579895019531,0.7507395493476992],[102.36579895019531,0.7505893585339862],[102.36564874649048,0.7505893585339862],[102.36564874649048,0.7504606235467008],[102.36552000045776,0.7504606235467008],[102.36552000045776,0.7503318885556496],[102.36539125442505,0.7503318885556496],[102.36539125442505,0.7501816977279248],[102.36524105072021,0.7501816977279248],[102.36526250839233,0.7500529627286596],[102.3651123046875,0.7500529627286596],[102.3651123046875,0.749924227725586],[102.36457586288452,0.749924227725586],[102.36457586288452,0.7497740368839061],[102.3644471168518,0.7497740368839061],[102.3644471168518,0.7496453018726328],[102.36431837081909,0.7496453018726328],[102.36431837081909,0.7495165668575794],[102.36416816711426,0.7495165668575794],[102.36416816711426,0.748829980046736],[102.36403942108154,0.748829980046736],[102.36403942108154,0.7489587150819688],[102.36391067504883,0.7489587150819688],[102.36391067504883,0.7491089059516156],[102.363760471344,0.7491089059516156],[102.363760471344,0.7495165668575794],[102.36391067504883,0.7495165668575794],[102.36391067504883,0.7496453018726328],[102.36403942108154,0.7496453018726328],[102.36403942108154,0.7497740368839061],[102.36416816711426,0.7497740368839061],[102.36416816711426,0.7500529627286596],[102.36431837081909,0.7500529627286596],[102.36431837081909,0.7501816977279248],[102.3644471168518,0.7501816977279248],[102.3644471168518,0.7503318885556496],[102.36524105072021,0.7503318885556496],[102.36524105072021,0.7508682843267707],[102.36592769622803,0.7508682843267707],[102.36592769622803,0.7516836057728256],[102.36605644226074,0.7516836057728256],[102.36605644226074,0.7519410756715672],[102.36618518829346,0.7519410756715672],[102.36618518829346,0.7522200013780207],[102.36633539199829,0.7522200013780207],[102.36633539199829,0.7523487363134791],[102.36672163009644,0.7523487363134791],[102.36672163009644,0.752498927066668],[102.36687183380127,0.752498927066668],[102.36687183380127,0.7526276619938841],[102.36700057983398,0.7526276619938841],[102.36700057983398,0.7529065876564687],[102.3671293258667,0.7529065876564687],[102.3671293258667,0.7535717180105905],[102.36700057983398,0.7535717180105905],[102.36700057983398,0.7533142482081416],[102.366464138031,0.7533142482081416],[102.366464138031,0.7531640574830192],[102.36633539199829,0.7531640574830192],[102.36633539199829,0.753035322571634],[102.36605644226074,0.753035322571634],[102.36605644226074,0.7529065876564687],[102.36524105072021,0.7529065876564687],[102.36524105072021,0.7527563969172917],[102.3651123046875,0.7527563969172917],[102.3651123046875,0.7523487363134791],[102.36457586288452,0.7523487363134791],[102.36457586288452,0.7526276619938841],[102.36470460891724,0.7526276619938841],[102.36470460891724,0.753035322571634],[102.36457586288452,0.753035322571634],[102.36457586288452,0.7537219087216727],[102.36485481262207,0.7537219087216727],[102.36485481262207,0.7538506436127506],[102.36498355865479,0.7538506436127506],[102.36498355865479,0.7537219087216727],[102.36524105072021,0.7537219087216727],[102.36524105072021,0.7538506436127506],[102.36539125442505,0.7538506436127506],[102.36539125442505,0.754387038951279],[102.36498355865479,0.754387038951279],[102.36498355865479,0.7545157738227033],[102.36539125442505,0.7545157738227033],[102.36539125442505,0.7549234342236986],[102.36524105072021,0.7549234342236986],[102.36524105072021,0.755202359739215],[102.36403942108154,0.755202359739215],[102.36403942108154,0.7553310945865093],[102.36391067504883,0.7553310945865093],[102.36391067504883,0.7556100200758493],[102.363760471344,0.7556100200758493],[102.363760471344,0.7558889455472979],[102.36363172531128,0.7558889455472979],[102.36363172531128,0.7562966058194718],[102.363760471344,0.7562966058194718],[102.363760471344,0.7564253406343227],[102.36391067504883,0.7564253406343227],[102.36391067504883,0.7562966058194718],[102.36429691314697,0.7562966058194718],[102.36429691314697,0.7561464151973212],[102.36457586288452,0.7561464151973212],[102.36457586288452,0.756017680374228],[102.36470460891724,0.756017680374228],[102.36470460891724,0.7558889455472979],[102.3651123046875,0.7558889455472979],[102.3651123046875,0.756017680374228],[102.36539125442505,0.756017680374228],[102.36539125442505,0.7556100200758493],[102.36552000045776,0.7556100200758493],[102.36552000045776,0.75548128523684],[102.36564874649048,0.75548128523684],[102.36564874649048,0.7553310945865093],[102.36659288406372,0.7553310945865093],[102.36659288406372,0.755202359739215],[102.3671293258667,0.755202359739215],[102.3671293258667,0.7557387549110359],[102.36740827560425,0.7557387549110359],[102.36740827560425,0.7558889455472979],[102.36766576766968,0.7558889455472979],[102.36766576766968,0.756017680374228],[102.36781597137451,0.756017680374228],[102.36781597137451,0.7561464151973212],[102.36794471740723,0.7561464151973212],[102.36794471740723,0.7565540754453366],[102.3684811592102,0.7565540754453366],[102.3684811592102,0.7569617356550395],[102.36835241317749,0.7569617356550395],[102.36835241317749,0.7577770559594654],[102.36725807189941,0.7577770559594654],[102.36725807189941,0.7580559812915482],[102.3671293258667,0.7580559812915482],[102.3671293258667,0.7581847160541457],[102.36700057983398,0.7581847160541457],[102.36700057983398,0.7583134508129206],[102.36687183380127,0.7583134508129206],[102.36687183380127,0.7587211108570671],[102.36725807189941,0.7587211108570671],[102.36725807189941,0.7591287708628158],[102.3671293258667,0.7591287708628158],[102.3671293258667,0.7592789613815825],[102.36687183380127,0.7592789613815825],[102.36687183380127,0.7594076961077718],[102.36631393432617,0.7594076961077718],[102.36631393432617,0.7595364308301527],[102.36618518829346,0.7595364308301527],[102.36618518829346,0.7596866213347511],[102.36605644226074,0.7596866213347511],[102.36605644226074,0.7598153560488043],[102.36536979675293,0.7598153560488043],[102.36536979675293,0.7596866213347511],[102.36483335494995,0.7596866213347511],[102.36483335494995,0.7595364308301527],[102.3644471168518,0.7595364308301527],[102.3644471168518,0.7590000361283273],[102.36429691314697,0.7590000361283273],[102.36429691314697,0.7581847160541457],[102.3644471168518,0.7581847160541457],[102.3644471168518,0.7577770559594654],[102.36429691314697,0.7577770559594654],[102.36429691314697,0.7579057907303479],[102.36363172531128,0.7579057907303479],[102.36363172531128,0.7576483211847602],[102.363760471344,0.7576483211847602],[102.363760471344,0.7574981306094344],[102.36416816711426,0.7574981306094344],[102.36416816711426,0.756833000856119],[102.36363172531128,0.756833000856119],[102.36363172531128,0.7567042660533758],[102.36350297927856,0.7567042660533758],[102.36350297927856,0.756833000856119],[102.36335277557373,0.756833000856119],[102.36335277557373,0.7569617356550395],[102.36296653747559,0.7569617356550395],[102.36296653747559,0.756833000856119],[102.36281633377075,0.756833000856119],[102.36281633377075,0.756682810252542],[102.36255884170532,0.756682810252542],[102.36255884170532,0.756833000856119],[102.36227989196777,0.756833000856119],[102.36227989196777,0.7569617356550395],[102.36161470413208,0.7569617356550395],[102.36161470413208,0.7570904704501515],[102.36148595809937,0.7570904704501515],[102.36148595809937,0.7572406610395888],[102.36092805862427,0.7572406610395888],[102.36092805862427,0.7574981306094344],[102.36054182052612,0.7574981306094344],[102.36054182052612,0.7576483211847602],[102.35985517501831,0.7576483211847602],[102.35985517501831,0.7579057907303479],[102.35918998718262,0.7579057907303479],[102.35918998718262,0.7580559812915482],[102.35891103744507,0.7580559812915482],[102.35891103744507,0.7581847160541457],[102.3577094078064,0.7581847160541457],[102.3577094078064,0.7580559812915482],[102.35717296600342,0.7580559812915482],[102.35717296600342,0.7579057907303479],[102.35689401626587,0.7579057907303479],[102.35689401626587,0.7577770559594654],[102.35635757446289,0.7577770559594654],[102.35635757446289,0.7579057907303479],[102.3564863204956,0.7579057907303479],[102.3564863204956,0.7580345254974219],[102.35689401626587,0.7580345254974219],[102.35689401626587,0.7581847160541457],[102.35702276229858,0.7581847160541457],[102.35702276229858,0.7583134508129206],[102.35717296600342,0.7583134508129206],[102.35717296600342,0.7584421855678443],[102.35702276229858,0.7584421855678443],[102.35702276229858,0.7585923761104283],[102.35717296600342,0.7585923761104283],[102.35717296600342,0.7587211108570671],[102.35702276229858,0.7587211108570671],[102.35702276229858,0.7590000361283273],[102.35663652420044,0.7590000361283273],[102.35663652420044,0.7588498455998973],[102.35635757446289,0.7588498455998973],[102.35635757446289,0.7591287708628158],[102.35622882843018,0.7591287708628158],[102.35622882843018,0.7594076961077718],[102.35607862472534,0.7594076961077718],[102.35607862472534,0.75925750559351],[102.35582113265991,0.75925750559351],[102.35582113265991,0.7594076961077718],[102.35554218292236,0.7594076961077718],[102.35554218292236,0.7596651655486824],[102.35541343688965,0.7596651655486824],[102.35541343688965,0.7598153560488043],[102.35425472259521,0.7598153560488043],[102.3522162437439,0.746662939720153]]],[[[102.35453367233276,0.7617034647473133],[102.3551344871521,0.7617034647473133],[102.3551344871521,0.7615747300895777],[102.35528469085693,0.7615747300895777],[102.35528469085693,0.7614245396506902],[102.3556923866272,0.7614245396506902],[102.3556923866272,0.761295804984627],[102.3564863204956,0.761295804984627],[102.3564863204956,0.7615747300895777],[102.35663652420044,0.7615747300895777],[102.35661506652832,0.7623900495235887],[102.35717296600342,0.7623900495235887],[102.35717296600342,0.7625187841569669],[102.35730171203613,0.7625187841569669],[102.35730171203613,0.7626475187864798],[102.3577094078064,0.7626475187864798],[102.3577094078064,0.7627977091827205],[102.3585033416748,0.7627977091827205],[102.3585033416748,0.7626475187864798],[102.35878229141235,0.7626475187864798],[102.35878229141235,0.762239859113123],[102.35903978347778,0.762239859113123],[102.35903978347778,0.7619823898258744],[102.35918998718262,0.7619823898258744],[102.35918998718262,0.7618536551764663],[102.35931873321533,0.7618536551764663],[102.35931873321533,0.7617034647473133],[102.35998392105103,0.7617034647473133],[102.35998392105103,0.7618536551764663],[102.36013412475586,0.7618536551764663],[102.36013412475586,0.7619823898258744],[102.36026287078857,0.7619823898258744],[102.36026287078857,0.7621111244714172],[102.36067056655884,0.7621111244714172],[102.36067056655884,0.7623900495235887],[102.360520362854,0.7623900495235887],[102.360520362854,0.763205368803213],[102.36039161682129,0.763205368803213],[102.36039161682129,0.7633341034122054],[102.36013412475586,0.7633341034122054],[102.36013412475586,0.7636130283850946],[102.36039161682129,0.7636130283850946],[102.36039161682129,0.7638704975747856],[102.360520362854,0.7638704975747856],[102.360520362854,0.7641494225128724],[102.36067056655884,0.7641494225128724],[102.36067056655884,0.7650720202559285],[102.35549926757812,0.7679900025082844],[102.35453367233276,0.7617034647473133]]]]}}]}
