{"type":"FeatureCollection","features":[{"type":"Feature","properties":{"projectId":"VCS1329","name":"Maísa REDD+ Project","sourceRegistry":"Verra VCS","externalId":"VCS1329","projectType":"avoided_deforestation","country":"Brazil","vintageYears":[2013,2014,2015,2016,2017,2018,2019,2020],"sourceUrl":"https://zenodo.org/records/11459391","license":"CC BY 4.0 (Karnik et al. dataset); CarbonPlan Terms of Use also apply to the PMTiles derivative","retrievedAt":"2026-10-05","illustrative":false},"geometry":{"type":"Polygon","coordinates":[[[-49.48010444641113,-3.362395323916573],[-49.480061531066895,-3.362502427578363],[-49.479825496673584,-3.362502427578363],[-49.47948217391968,-3.362181116557707],[-49.479267597198486,-3.362395323916573],[-49.4789457321167,-3.3631022078670156],[-49.47885990142822,-3.3631878907352615],[-49.47862386703491,-3.3631878907352615],[-49.478516578674316,-3.3633164150235473],[-49.478280544281006,-3.3633164150235473],[-49.47815179824829,-3.3634235185841703],[-49.47815179824829,-3.363659146376108],[-49.47791576385498,-3.3638947741110883],[-49.478044509887695,-3.364023298306151],[-49.478044509887695,-3.3642589259531093],[-49.477808475494385,-3.3644945535431106],[-49.47662830352783,-3.3644945535431106],[-49.476521015167236,-3.3642589259531093],[-49.476284980773926,-3.3642589259531093],[-49.47617769241333,-3.364366029410178],[-49.476284980773926,-3.3644945535431106],[-49.476284980773926,-3.3647087603936825],[-49.47641372680664,-3.364944387874914],[-49.476521015167236,-3.365072911931577],[-49.47699308395386,-3.365072911931577],[-49.47710037231445,-3.364944387874914],[-49.477336406707764,-3.3648372844814105],[-49.477572441101074,-3.3648372844814105],[-49.477572441101074,-3.365072911931577],[-49.477808475494385,-3.365308539324758],[-49.47770118713379,-3.3654156426664628],[-49.47699308395386,-3.3654156426664628],[-49.47686433792114,-3.3655441666609534],[-49.47662830352783,-3.3655441666609534],[-49.47662830352783,-3.3657583732807836],[-49.47675704956055,-3.3658868972300695],[-49.47675704956055,-3.3661225244264017],[-49.47686433792114,-3.3662296276786066],[-49.47686433792114,-3.367643389504039],[-49.477035999298096,-3.3678790162753813],[-49.47566270828247,-3.3678790162753813],[-49.47549104690552,-3.367836175048467],[-49.475340843200684,-3.367836175048467],[-49.47516918182373,-3.3678790162753813],[-49.47495460510254,-3.368114642989724],[-49.474782943725586,-3.3681574842043887],[-49.47413921356201,-3.3681574842043887],[-49.47396755218506,-3.368114642989724],[-49.47349548339844,-3.3680503811641955],[-49.473323822021484,-3.368114642989724],[-49.473066329956055,-3.368328849044161],[-49.4728946685791,-3.368328849044161],[-49.472787380218506,-3.3684359520537157],[-49.47261571884155,-3.3684787932542406],[-49.472551345825195,-3.3685644756496345],[-49.4719934463501,-3.3685644756496345],[-49.4719934463501,-3.370192439728754],[-49.47145700454712,-3.370192439728754],[-49.47145700454712,-3.3707279536331356],[-49.47038412094116,-3.3707279536331356],[-49.47038412094116,-3.371263467242713],[-49.469847679138184,-3.371263467242713],[-49.469847679138184,-3.3717989805574575],[-49.46821689605713,-3.3717989805574575],[-49.46821689605713,-3.372355914091969],[-49.46390390396118,-3.3723344935773127],[-49.46390390396118,-3.3717989805574575],[-49.46120023727417,-3.3717989805574575],[-49.46120023727417,-3.3712420467039834],[-49.45903301239014,-3.3712420467039834],[-49.45903301239014,-3.370706533082611],[-49.45849657058716,-3.370706533082611],[-49.45849657058716,-3.3712420467039834],[-49.456329345703125,-3.3712420467039834],[-49.456329345703125,-3.371777560030523],[-49.45364713668823,-3.371777560030523],[-49.45364713668823,-3.3723344935773127],[-49.45094347000122,-3.3723130730621875],[-49.45094347000122,-3.372870006302236],[-49.44823980331421,-3.3728485857988915],[-49.44823980331421,-3.37340551873217],[-49.4455361366272,-3.37340551873217],[-49.4455361366272,-3.373941030867087],[-49.442832469940186,-3.373941030867087],[-49.442832469940186,-3.3744765427069154],[-49.44066524505615,-3.3744765427069154],[-49.44066524505615,-3.375012054251627],[-49.43798303604126,-3.375012054251627],[-49.43798303604126,-3.375547565501165],[-49.43527936935425,-3.375547565501165],[-49.43527936935425,-3.3761044968875353],[-49.42879915237427,-3.376083076455501],[-49.42879915237427,-3.378953410136859],[-49.400131702423096,-3.382637706597592],[-49.40023899078369,-3.3823806631126843],[-49.4005823135376,-3.380152950055873],[-49.40083980560303,-3.379210454530053],[-49.40109729766846,-3.3787177860499327],[-49.40229892730713,-3.3752690996882393],[-49.402899742126465,-3.374005292303437],[-49.403157234191895,-3.3732555752815188],[-49.40332889556885,-3.372570119212611],[-49.40335035324097,-3.3717347189752616],[-49.403157234191895,-3.3710492618342585],[-49.40257787704468,-3.3699996546509965],[-49.401891231536865,-3.3689928875134143],[-49.40060377120972,-3.3674291832987677],[-49.399681091308594,-3.3660796831222086],[-49.39944505691528,-3.3655013253313513],[-49.39624786376953,-3.3607459260397974],[-49.39596891403198,-3.360446035217123],[-49.39453125,-3.3592893126092918],[-49.394402503967285,-3.359203629398621],[-49.39360857009888,-3.3581540094575644],[-49.39281463623047,-3.356740233876124],[-49.39281463623047,-3.356718811963958],[-49.39202070236206,-3.355283614470352],[-49.39107656478882,-3.3525631577081896],[-49.390432834625244,-3.351213636978599],[-49.389424324035645,-3.349842693379216],[-49.38697814941406,-3.347379274274843],[-49.386656284332275,-3.346972274000308],[-49.38603401184082,-3.3457941143578296],[-49.38560485839844,-3.344294636400889],[-49.38524007797241,-3.3419597304456943],[-49.38483238220215,-3.3406316163221277],[-49.384410784397694,-3.3396676613972573],[-49.384403228759766,-3.3396676613972573],[-49.384167194366455,-3.3391107092315053],[-49.38352346420288,-3.337953961416474],[-49.382643699645996,-3.3363902075754055],[-49.38223600387573,-3.33516919257238],[-49.38172101974487,-3.3315489812840866],[-49.38124895095825,-3.3300280601426664],[-49.379210472106934,-3.3258722918089063],[-49.37721490859985,-3.3230232240145767],[-49.37652826309204,-3.3210524354636846],[-49.37534809112549,-3.3173464854719583],[-49.373695850372314,-3.3135334125968114],[-49.37223672866821,-3.311476917755442],[-49.37049865722656,-3.309741746910902],[-49.36949014663696,-3.3085635427532054],[-49.36657190322876,-3.303914978144121],[-49.36530590057373,-3.301258645733043],[-49.364426136016846,-3.299587723318382],[-49.3634819984436,-3.2984951956051134],[-49.36206579208374,-3.297702576708673],[-49.35852527618408,-3.2960530704934285],[-49.3576455116272,-3.2954960937510975],[-49.354920387268066,-3.2932681836646225],[-49.354233741760254,-3.2924541383509194],[-49.35288190841675,-3.290526133638423],[-49.351701736450195,-3.2885124358452487],[-49.35155153274536,-3.2881054113290844],[-49.351229667663574,-3.2875698525021164],[-49.3505859375,-3.285684683143913],[-49.350457191467285,-3.2846349850259315],[-49.350478649139404,-3.2828569224305824],[-49.35032844543457,-3.281742953890671],[-49.350242614746094,-3.2795150130856],[-49.35004949569702,-3.278936604564791],[-49.34974908828735,-3.278508153592952],[-49.34964179992676,-3.278058279874969],[-49.34880495071411,-3.2767086575073137],[-49.34803247451782,-3.275873176081845],[-49.346938133239746,-3.2749948487032015],[-49.346251487731934,-3.2741165205541023],[-49.34584379196167,-3.2727240475197306],[-49.34562921524048,-3.272317016574931],[-49.34511423110962,-3.271717181197019],[-49.344191551208496,-3.271203036301685],[-49.343698024749756,-3.2705817775346446],[-49.343440532684326,-3.2698319819583332],[-49.34290409088135,-3.268953649284569],[-49.34279680252075,-3.268375234664788],[-49.34303283691406,-3.2666828344178356],[-49.34292554855347,-3.266125841307371],[-49.34277534484863,-3.2657830761627196],[-49.342195987701416,-3.2651403912011716],[-49.34101581573486,-3.264347745848852],[-49.34056520462036,-3.2637907514433238],[-49.34035062789917,-3.2632551796083504],[-49.34035062789917,-3.2630409507944336],[-49.34088706970215,-3.2619483831331735],[-49.34101581573486,-3.2613485415593146],[-49.34092998504639,-3.2602988179440473],[-49.340479373931885,-3.258413597272451],[-49.34037208557129,-3.257599523617884],[-49.34054374694824,-3.2572139095517088],[-49.341466426849365,-3.256678334214797],[-49.341981410980225,-3.256121335562213],[-49.34211015701294,-3.2557785670075106],[-49.3420672416687,-3.254493183888542],[-49.34185266494751,-3.2537219532300554],[-49.341187477111816,-3.2526936447674046],[-49.34067249298096,-3.252243759485168],[-49.340157508959486,-3.2519224127320854],[-49.34013605117798,-3.2519224127320854],[-49.339470863342285,-3.2514939502353712],[-49.33908462524414,-3.25110833383269],[-49.33887004852295,-3.250722717282585],[-49.33884859085083,-3.2502085616531673],[-49.33906316757202,-3.2495230204063574],[-49.3390417098999,-3.2489874409832566],[-49.338204860687256,-3.2468665436771857],[-49.338011741638184,-3.245945344469874],[-49.3381404876709,-3.245259800328583],[-49.338440895080566,-3.2445956789981807],[-49.33863401412964,-3.2444028694979323],[-49.33878421783447,-3.2440386736748934],[-49.33902025222778,-3.2430746252747014],[-49.33912754058838,-3.2419177659812703],[-49.33951377868652,-3.2419177659812703],[-49.339728355407715,-3.242217692591808],[-49.34007167816162,-3.2418534959817293],[-49.34007167816162,-3.2415107225818645],[-49.34043645858765,-3.2415107225818645],[-49.34043645858765,-3.240418131594737],[-49.34007167816162,-3.240418131594737],[-49.34007167816162,-3.240053934336885],[-49.33936357498169,-3.2393469628151905],[-49.33936357498169,-3.238982765171926],[-49.338998794555664,-3.238618567397637],[-49.338998794555664,-3.2378901714561437],[-49.33863401412964,-3.2378901714561437],[-49.33863401412964,-3.2364548014499803],[-49.337196350097656,-3.2364548014499803],[-49.33683156967163,-3.2368190000023134],[-49.33683156967163,-3.2378901714561437],[-49.33704614639282,-3.2381044056109687],[-49.33693885803223,-3.2381044056109687],[-49.33412790298462,-3.2366261890203276],[-49.33331251144409,-3.2360263323973157],[-49.33155298233032,-3.234419571836497],[-49.33133840560913,-3.23405537242202],[-49.33112382888794,-3.2335197848101416],[-49.3310809135437,-3.23317700859009],[-49.33133840560913,-3.2320844086156484],[-49.331252574920654,-3.2315916670657145],[-49.33080196380615,-3.2308632660753887],[-49.32994365692139,-3.2302419824646904],[-49.32964324951172,-3.2298563579633566],[-49.32953596115112,-3.229385038929493],[-49.32957887649536,-3.2285495182863997],[-49.32940721511841,-3.2278211151136986],[-49.32869911193848,-3.2267285093754907],[-49.328227043151855,-3.2264285781830324],[-49.32741165161133,-3.2261714942333413],[-49.326982498168945,-3.2257215971649345],[-49.32666063308716,-3.2250788867218176],[-49.32807683944702,-3.2250788867218176],[-49.32807683944702,-3.225614478785957],[-49.32861328125,-3.225614478785957],[-49.32861328125,-3.2261714942333413],[-49.32914972305298,-3.2261714942333413],[-49.32914972305298,-3.226707085721827],[-49.329707622528076,-3.226707085721827],[-49.329707622528076,-3.227799691483071],[-49.330244064331055,-3.227799691483071],[-49.330244064331055,-3.227242676928057],[-49.33078050613403,-3.227242676928057],[-49.33078050613403,-3.229427886123432],[-49.33131694793701,-3.229427886123432],[-49.33131694793701,-3.2304990653842083],[-49.33185338973999,-3.2304990653842083],[-49.33185338973999,-3.2315916670657145],[-49.33238983154297,-3.2315916670657145],[-49.33238983154297,-3.23212725569563],[-49.33292627334595,-3.23212725569563],[-49.33292627334595,-3.232684267570818],[-49.333462715148926,-3.232684267570818],[-49.333462715148926,-3.233755443394216],[-49.333999156951904,-3.233755443394216],[-49.333999156951904,-3.2343124543752424],[-49.33453559875488,-3.2343124543752424],[-49.33453559875488,-3.234848041568412],[-49.33509349822998,-3.234848041568412],[-49.33507204055786,-3.23594063856504],[-49.33562994003296,-3.23594063856504],[-49.33562994003296,-3.2364762248978565],[-49.33507204055786,-3.2364762248978565],[-49.33507204055786,-3.237033234383688],[-49.336702823638916,-3.237033234383688],[-49.336702823638916,-3.23594063856504],[-49.337239265441895,-3.23594063856504],[-49.337239265441895,-3.235405051949158],[-49.33831214904785,-3.235405051949158],[-49.33833360671997,-3.234848041568412],[-49.33887004852295,-3.2348694650502523],[-49.33887004852295,-3.2343124543752424],[-49.33940649032593,-3.2343124543752424],[-49.33940649032593,-3.2337768668991487],[-49.339942932128906,-3.2337768668991487],[-49.339942932128906,-3.2332412791401737],[-49.34157371520996,-3.2332412791401737],[-49.34157371520996,-3.232684267570818],[-49.3431830406189,-3.2327056910983885],[-49.3431830406189,-3.232148679234939],[-49.34642314910889,-3.232148679234939],[-49.34642314910889,-3.2327056910983885],[-49.34803247451782,-3.2327056910983885],[-49.34803247451782,-3.2332412791401737],[-49.350199699401855,-3.2332412791401737],[-49.350199699401855,-3.2337982904036124],[-49.35183048248291,-3.2337982904036124],[-49.35183048248291,-3.2321701027738072],[-49.35236692428589,-3.2321701027738072],[-49.35236692428589,-3.2316345141665153],[-49.35290336608887,-3.2316345141665153],[-49.35290336608887,-3.228913719676868],[-49.35129404067993,-3.228913719676868],[-49.35129404067993,-3.2272855242123626],[-49.35183048248291,-3.2272855242123626],[-49.35183048248291,-3.2251217340973426],[-49.35236692428589,-3.2251217340973426],[-49.35236692428589,-3.224029125457804],[-49.35075759887695,-3.224029125457804],[-49.35075759887695,-3.2234935325587486],[-49.34914827346802,-3.2234721088369156],[-49.34914827346802,-3.2229365156446192],[-49.34859037399292,-3.2229365156446192],[-49.34859037399292,-3.2224009221703653],[-49.346444606781006,-3.2224009221703653],[-49.346444606781006,-3.221843904658158],[-49.34537172317505,-3.221843904658158],[-49.34535026550293,-3.2234721088369156],[-49.34481382369995,-3.2234721088369156],[-49.34481382369995,-3.2240077017472544],[-49.343740940093994,-3.2240077017472544],[-49.343740940093994,-3.2245647180748307],[-49.343204498291016,-3.2245647180748307],[-49.343204498291016,-3.2251003104098004],[-49.34264659881592,-3.2251003104098004],[-49.34264659881592,-3.225635902462656],[-49.34211015701294,-3.225635902462656],[-49.34211015701294,-3.2261929178983024],[-49.34157371520996,-3.2261714942333413],[-49.34157371520996,-3.2267285093754907],[-49.339964389801025,-3.2267285093754907],[-49.339964389801025,-3.2261714942333413],[-49.33779716491699,-3.2261714942333413],[-49.33779716491699,-3.225635902462656],[-49.337196350097656,-3.225635902462656],[-49.337196350097656,-3.2242005151259434],[-49.33683156967163,-3.2242005151259434],[-49.33683156967163,-3.223836312046629],[-49.336466789245605,-3.223836312046629],[-49.336466789245605,-3.2234721088369156],[-49.335758686065674,-3.2234721088369156],[-49.33539390563965,-3.2231079054968177],[-49.332947731018066,-3.2231079054968177],[-49.332947731018066,-3.2223794984255534],[-49.33284044265747,-3.2223794984255534],[-49.33284044265747,-3.222250955947075],[-49.33329105377197,-3.222250955947075],[-49.33329105377197,-3.222036718446887],[-49.333741664886475,-3.222036718446887],[-49.333741664886475,-3.2218010571445745],[-49.33380603790283,-3.2218010571445745],[-49.33380603790283,-3.22145827697112],[-49.33391332626343,-3.22135115814325],[-49.333741664886475,-3.22135115814325],[-49.33307647705078,-3.2195515601498528],[-49.33307647705078,-3.21931589827237],[-49.33329105377197,-3.21931589827237],[-49.33329105377197,-3.219080236340389],[-49.333741664886475,-3.219080236340389],[-49.333741664886475,-3.219037388710518],[-49.3335485458374,-3.218823150534206],[-49.3335485458374,-3.2185660646631646],[-49.332754611968994,-3.2185660646631646],[-49.332754611968994,-3.218823150534206],[-49.332497119903564,-3.218823150534206],[-49.332497119903564,-3.219101660154635],[-49.332239627838135,-3.219101660154635],[-49.332239627838135,-3.219358745890517],[-49.331960678100586,-3.219615831561512],[-49.331703186035156,-3.219358745890517],[-49.3311882019043,-3.219358745890517],[-49.33090925216675,-3.219101660154635],[-49.33065176010132,-3.219101660154635],[-49.33065176010132,-3.218823150534206],[-49.33039426803589,-3.2185660646631646],[-49.33039426803589,-3.2183089787272507],[-49.33013677597046,-3.2183089787272507],[-49.33013677597046,-3.2180518927264927],[-49.32985782623291,-3.2180518927264927],[-49.32960033416748,-3.217773382819132],[-49.32908535003662,-3.217773382819132],[-49.32908535003662,-3.2180518927264927],[-49.32880640029907,-3.2180518927264927],[-49.32854890823364,-3.2183089787272507],[-49.32854890823364,-3.2185660646631646],[-49.32809829711914,-3.2185660646631646],[-49.32809829711914,-3.21965867916704],[-49.32754039764404,-3.21965867916704],[-49.32754039764404,-3.220729868719289],[-49.327003955841064,-3.220729868719289],[-49.327003955841064,-3.2223580746802583],[-49.326467514038086,-3.2223580746802583],[-49.326467514038086,-3.2228936681770506],[-49.325523376464844,-3.2228936681770506],[-49.32541608810425,-3.22276512576353],[-49.32434320449829,-3.222250955947075],[-49.32406425476074,-3.2217582096292148],[-49.32417154312134,-3.221479700735344],[-49.32483673095703,-3.2211154966822306],[-49.325995445251465,-3.2202799692445865],[-49.32644605636597,-3.219787221972794],[-49.3267035484314,-3.219294474462629],[-49.32691812515259,-3.218351826387746],[-49.32713270187378,-3.216509375360019],[-49.32689666748047,-3.215609572485107],[-49.32633876800537,-3.214238442768206],[-49.32631731033325,-3.2137242686492726],[-49.32653188705444,-3.213124398516399],[-49.32629585266113,-3.212181744738132],[-49.32638168334961,-3.2119889290853223],[-49.32711124420166,-3.211217666110059],[-49.327261447906494,-3.210917730351241],[-49.327261447906494,-3.2106606424878805],[-49.32640314102173,-3.2090324178506933],[-49.32595252990723,-3.20845396899972],[-49.32595252990723,-3.2082611526433027],[-49.326488971710205,-3.2082611526433027],[-49.326488971710205,-3.206632924183481],[-49.32811975479126,-3.206632924183481],[-49.32811975479126,-3.2071685259367086],[-49.32865619659424,-3.2071685259367086],[-49.32865619659424,-3.207704127409386],[-49.32919263839722,-3.207704127409386],[-49.32919263839722,-3.2082611526433027],[-49.330265522003174,-3.2082611526433027],[-49.330265522003174,-3.2077255514624454],[-49.33133840560913,-3.2077255514624454],[-49.33133840560913,-3.2082611526433027],[-49.332969188690186,-3.2082611526433027],[-49.332969188690186,-3.208796753543524],[-49.33457851409912,-3.208796753543524],[-49.33457851409912,-3.209053841875914],[-49.33432102203369,-3.209053841875914],[-49.33432102203369,-3.2093966262185063],[-49.333956241607666,-3.2093966262185063],[-49.33359146118164,-3.2097608344565174],[-49.333226680755615,-3.2097608344565174],[-49.333226680755615,-3.210125042564684],[-49.33286190032959,-3.210125042564684],[-49.33286190032959,-3.210489250543006],[-49.332518577575684,-3.210489250543006],[-49.332518577575684,-3.210853458391469],[-49.33142423629761,-3.210853458391469],[-49.33142423629761,-3.211217666110059],[-49.33035135269165,-3.211217666110059],[-49.3296217918396,-3.2119246571929807],[-49.3296217918396,-3.2122888645294836],[-49.329257011413574,-3.2122888645294836],[-49.329257011413574,-3.2130172788127],[-49.329729080200195,-3.2130172788127],[-49.329707622528076,-3.2153096380170183],[-49.330265522003174,-3.2153096380170183],[-49.330265522003174,-3.2164022560117758],[-49.33187484741211,-3.2164022560117758],[-49.33187484741211,-3.215866659101806],[-49.332947731018066,-3.215866659101806],[-49.332947731018066,-3.2153096380170183],[-49.3351149559021,-3.2153096380170183],[-49.3351149559021,-3.2147740405332144],[-49.33781862258911,-3.2147740405332144],[-49.33781862258911,-3.214238442768206],[-49.33942794799805,-3.214238442768206],[-49.33942794799805,-3.2137028447220217],[-49.34052228927612,-3.2137028447220217],[-49.34052228927612,-3.2131672463947183],[-49.3470025062561,-3.2131672463947183],[-49.3470025062561,-3.20881817757369],[-49.34483528137207,-3.20881817757369],[-49.34483528137207,-3.2082825766847094],[-49.34376239776611,-3.2082825766847094],[-49.34376239776611,-3.207189950000995],[-49.34592962265015,-3.207189950000995],[-49.34592962265015,-3.2066543482589935],[-49.346466064453125,-3.2066543482589935],[-49.346466064453125,-3.2059687776199013],[-49.3466591835022,-3.2059687776199013],[-49.3466591835022,-3.2057331126065804],[-49.34689521789551,-3.2057331126065804],[-49.34689521789551,-3.200077136009014],[-49.34592962265015,-3.2003342265319787],[-49.34567213058472,-3.2008269831873974],[-49.344749450683594,-3.2011911944760385],[-49.344685077667236,-3.2010840735222246],[-49.34234619140625,-3.201898192490205],[-49.34058666229248,-3.2027123108110516],[-49.3390417098999,-3.203397883631837],[-49.33891296386719,-3.203397883631837],[-49.33891296386719,-3.203440731917894],[-49.338719844818115,-3.203526428484608],[-49.337196350097656,-3.203654973321264],[-49.33590888977051,-3.203526428484608],[-49.334750175476074,-3.20329076290885],[-49.333655834198,-3.2030336731279476],[-49.33389186859131,-3.202776583282514],[-49.330952167510986,-3.201555405635176],[-49.330716133117676,-3.201555405635176],[-49.330716133117676,-3.2017910716103444],[-49.330458641052246,-3.2017910716103444],[-49.330458641052246,-3.2020481617032033],[-49.329729080200195,-3.2013197396058217],[-49.327754974365234,-3.200569892788053],[-49.32758331298828,-3.2011269219051],[-49.32758331298828,-3.2006555895950015],[-49.32595252990723,-3.2006555895950015],[-49.32595252990723,-3.2011911944760385],[-49.32541608810425,-3.2011911944760385],[-49.32541608810425,-3.201748223255251],[-49.32595252990723,-3.201748223255251],[-49.32595252990723,-3.203376459488126],[-49.326488971710205,-3.203376459488126],[-49.326488971710205,-3.2044476661238406],[-49.32595252990723,-3.2044476661238406],[-49.32595252990723,-3.2039120629461166],[-49.32541608810425,-3.2039120629461166],[-49.32541608810425,-3.203376459488126],[-49.32487964630127,-3.203376459488126],[-49.32487964630127,-3.201748223255251],[-49.32380676269531,-3.2017267990770506],[-49.32380676269531,-3.2000985602217185],[-49.32487964630127,-3.2001199844339823],[-49.32487964630127,-3.199027349037536],[-49.32434320449829,-3.199027349037536],[-49.32434320449829,-3.197934712476467],[-49.32380676269531,-3.197934712476467],[-49.32380676269531,-3.197399105893851],[-49.323270320892334,-3.197399105893851],[-49.323270320892334,-3.196842074751217],[-49.32487964630127,-3.1968634990315223],[-49.32490110397339,-3.195235252452946],[-49.32543754577637,-3.195235252452946],[-49.32543754577637,-3.193607003291234],[-49.322733879089355,-3.193585578942944],[-49.322733879089355,-3.194142611853124],[-49.32219743728638,-3.194142611853124],[-49.32219743728638,-3.195213828138634],[-49.3216609954834,-3.195213828138634],[-49.3216609954834,-3.1957708601652683],[-49.32114601135254,-3.1957708601652683],[-49.31990146636963,-3.1932427893095507],[-49.319214820861816,-3.19236439035177],[-49.31906461715698,-3.1920858734522284],[-49.31809902191162,-3.191143200308886],[-49.315781593322754,-3.1899005843897044],[-49.31530952453613,-3.189536369094256],[-49.31481599807739,-3.188979333686973],[-49.3146014213562,-3.1885722691600478],[-49.31457996368408,-3.187651017267413],[-49.31438684463501,-3.1872225277339368],[-49.3140435218811,-3.187136829805823],[-49.31342124938965,-3.1877152906820356],[-49.313013553619385,-3.187629592794977],[-49.31279897689819,-3.187329650134032],[-49.312756061553955,-3.1870297073856477],[-49.31297063827515,-3.186429821626575],[-49.31294918060303,-3.1859156335547993],[-49.3126916885376,-3.185037228338004],[-49.31206941604614,-3.1833018402194],[-49.31088924407959,-3.1815450245784547],[-49.31046009063721,-3.1806880402523205],[-49.310009479522705,-3.1790597680703883],[-49.30990219116211,-3.1781813570101605],[-49.30994510650635,-3.177817137570756],[-49.31046009063721,-3.176638779680289],[-49.31039571762085,-3.175674667678564],[-49.31005239486694,-3.1749462269024917],[-49.309000968933105,-3.1742392103638792],[-49.30846452713013,-3.1734679190426647],[-49.30835723876953,-3.1728668346749376],[-49.30835723876953,-3.1728894501739546],[-49.30831646851941,-3.172638418844166],[-49.30807828903198,-3.1713040153188103],[-49.307799339294434,-3.1704470224930787],[-49.30730581283569,-3.1696757283428383],[-49.307284355163574,-3.169354355610537],[-49.30741310119629,-3.168583060645787],[-49.307005405426025,-3.1678546148735336],[-49.30691957473755,-3.1672975677606416],[-49.30713415145874,-3.1668904946809278],[-49.30784225463867,-3.166097772961237],[-49.30792808532715,-3.165797824044219],[-49.30792808532715,-3.1652622007621005],[-49.30745601654053,-3.1640624036053993],[-49.3060827255249,-3.1626912051542604],[-49.30595397949219,-3.1624555302378496],[-49.30561065673828,-3.1618127801935856],[-49.305546283721924,-3.161212879792899],[-49.30556774139404,-3.160741529234727],[-49.30557555927325,-3.160741529234727],[-49.30571794509888,-3.1584490484672045],[-49.30565357208252,-3.158127672254068],[-49.3050742149353,-3.156306538501255],[-49.30496692657471,-3.155578084106267],[-49.30492401123047,-3.1548496292007115],[-49.30494649961868,-3.1544155123630317],[-49.30494546890259,-3.154356850592748],[-49.304988384246826,-3.1536069696542626],[-49.305524826049805,-3.1507788423934358],[-49.305524826049805,-3.1501575103745125],[-49.30535316467285,-3.1488291441247185],[-49.30492401123047,-3.147265097820167],[-49.30492401123047,-3.147262418949932],[-49.30466651916504,-3.1463223838450602],[-49.30455923080444,-3.1451654155284956],[-49.30492401123047,-3.1435810093999814],[-49.30492401123047,-3.1435799383431515],[-49.304988384246826,-3.1433014083184787],[-49.30591106414795,-3.141351696064177],[-49.30597543716431,-3.140644656654601],[-49.305503368377686,-3.139616234840645],[-49.304237365722656,-3.138266429673294],[-49.30387258529663,-3.1377093667149865],[-49.30367946624756,-3.137045175876665],[-49.30359363555908,-3.136102452671949],[-49.3027138710022,-3.13102458807208],[-49.3027138710022,-3.130146136423079],[-49.303035736083984,-3.1284749336916917],[-49.30294990539551,-3.1276393313268187],[-49.30247783660889,-3.1263966393988625],[-49.30116891860962,-3.1244254698730742],[-49.30112600326538,-3.123868399553487],[-49.30123329162598,-3.1230113677154065],[-49.30039644241333,-3.1215329861509105],[-49.300246238708496,-3.12095448845065],[-49.300267696380615,-3.1205688231401894],[-49.300739765167236,-3.1191975675569665],[-49.30065393447876,-3.1187904757113927],[-49.300246238708496,-3.1179120138234566],[-49.30037498474121,-3.1169049956347408],[-49.30071830749512,-3.116026532172384],[-49.301555156707764,-3.11514806797679],[-49.30191993713379,-3.1145481407878464],[-49.302027225494385,-3.1138839352870917],[-49.301769733428955,-3.112726931156459],[-49.30181264877319,-3.112405540894656],[-49.30207014083862,-3.1119555943634793],[-49.302992820739746,-3.1112699611846466],[-49.30333614349365,-3.1107771620618934],[-49.30357217788696,-3.1098129891990283],[-49.303529262542725,-3.1088702415474074],[-49.30337905883789,-3.108356015200499],[-49.30241346359253,-3.1061491242830357],[-49.30241346359253,-3.1055491919739353],[-49.302735328674316,-3.104670719049281],[-49.302756786346436,-3.1042636215925654],[-49.303271770477295,-3.10323516416112],[-49.303507804870605,-3.1029137710085166],[-49.306640625,-3.1037065406081297],[-49.30835723876953,-3.1041350644683803],[-49.30835723876953,-3.10413706237534],[-49.370970726013184,-3.1198403438343405],[-49.370970726013184,-3.1199903249091676],[-49.37112092971802,-3.120140305962593],[-49.37112092971802,-3.1202902869946314],[-49.37127113342285,-3.1202902869946314],[-49.371421337127686,-3.120440268005268],[-49.37157154083252,-3.120440268005268],[-49.37187194824219,-3.1207402299623084],[-49.37260150909424,-3.1207402299623084],[-49.372901916503906,-3.1210401918337425],[-49.373202323913574,-3.1210401918337425],[-49.37350273132324,-3.121340153619542],[-49.373953342437744,-3.121340153619542],[-49.37423229217529,-3.121640115319707],[-49.37438249588013,-3.121640115319707],[-49.37453269958496,-3.1217900961376728],[-49.37483310699463,-3.121918651107464],[-49.37712907791138,-3.1218329477960225],[-49.37721490859985,-3.121918651107464],[-49.37803030014038,-3.121918651107464],[-49.37803030014038,-3.1217686703078584],[-49.378674030303955,-3.1217686703078584],[-49.37901735305786,-3.1221329093554857],[-49.38011169433594,-3.1221329093554857],[-49.38011169433594,-3.122497148276807],[-49.38024044036865,-3.122497148276807],[-49.38026189804077,-3.1226042773472784],[-49.38174247741699,-3.123054219323919],[-49.382407665252686,-3.123054219323919],[-49.3825364112854,-3.1229470902993484],[-49.3825364112854,-3.122732832217423],[-49.3854546546936,-3.123461309517637],[-49.3854546546936,-3.1274893513446784],[-49.38708543777466,-3.1275107770577364],[-49.38708543777466,-3.1269537083762344],[-49.38762187957764,-3.1269537083762344],[-49.38762187957764,-3.125882421618712],[-49.388694763183594,-3.125882421618712],[-49.388694763183594,-3.1264180651342315],[-49.391934871673584,-3.1264180651342315],[-49.391934871673584,-3.1269751341002348],[-49.39300775527954,-3.1269751341002348],[-49.39300775527954,-3.1275107770577364],[-49.39247131347656,-3.1275107770577364],[-49.39247131347656,-3.1280464197416222],[-49.39354419708252,-3.1280464197416222],[-49.39354419708252,-3.1275107770577364],[-49.394638538360596,-3.1275107770577364],[-49.394638538360596,-3.1269751341002348],[-49.39504623413086,-3.1269751341002348],[-49.395174980163574,-3.1273179456245543],[-49.395174980163574,-3.1275107770577364],[-49.39523935317993,-3.1275107770577364],[-49.39624786376953,-3.130296116025036],[-49.39624786376953,-3.130303816008571],[-49.403865337371826,-3.15140017404147],[-49.40345764160156,-3.151828678410169],[-49.404122829437256,-3.152214332191136],[-49.40418720245361,-3.152278607807389],[-49.40444469451904,-3.1529856393241573],[-49.40420866012573,-3.153028489703672],[-49.40377950668335,-3.153028489703672],[-49.40377950668335,-3.1524928598329183],[-49.40268516540527,-3.1524928598329183],[-49.40268516540527,-3.153028489703672],[-49.402148723602295,-3.153028489703672],[-49.402148723602295,-3.1568207412961016],[-49.40268516540527,-3.1568207412961016],[-49.40268516540527,-3.1573777940366483],[-49.40322160720825,-3.1573777940366483],[-49.40322160720825,-3.157913421390063],[-49.40429449081421,-3.157913421390063],[-49.40429449081421,-3.1573777940366483],[-49.40485239028931,-3.1573777940366483],[-49.40485239028931,-3.1541211737846453],[-49.40431594848633,-3.1541211737846453],[-49.40431594848633,-3.153521268941148],[-49.40444469451904,-3.1534355682209707],[-49.40446615219116,-3.1536283948314434],[-49.40468072891235,-3.1536283948314434],[-49.40571069717407,-3.1564993645791475],[-49.405517578125,-3.1564993645791475],[-49.405517578125,-3.156649340392775],[-49.405388832092285,-3.156649340392775],[-49.405388832092285,-3.1570564174920293],[-49.405517578125,-3.157184968121811],[-49.405667781829834,-3.157184968121811],[-49.405667781829834,-3.157313518735691],[-49.40601110458374,-3.157313518735691],[-49.40724134546787,-3.160741529234727],[-49.40725564956665,-3.160741529234727],[-49.407856464385986,-3.1624555302378496],[-49.40847873687744,-3.164169528407996],[-49.40847592145272,-3.164169528407996],[-49.430837631225586,-3.226042952234124],[-49.43002223968506,-3.226385730862603],[-49.429893493652344,-3.2265142728184912],[-49.42965745925903,-3.2265142728184912],[-49.42922830581665,-3.226707085721827],[-49.4290566444397,-3.2268142039856684],[-49.42882061004639,-3.2268784749385304],[-49.42845582962036,-3.227071287772773],[-49.42832708358765,-3.2271784059982167],[-49.42826271057129,-3.227371218775545],[-49.42826271057129,-3.2275426078802383],[-49.428391456604004,-3.227842538743886],[-49.42847728729248,-3.2279925041424917],[-49.42847728729248,-3.228485247439238],[-49.4279408454895,-3.228485247439238],[-49.4279408454895,-3.2290422613129124],[-49.42740440368652,-3.2290422613129124],[-49.42740440368652,-3.2295778512879707],[-49.4279408454895,-3.2295778512879707],[-49.4279408454895,-3.2301134409805172],[-49.42847728729248,-3.2301134409805172],[-49.42847728729248,-3.2306704539610394],[-49.42901372909546,-3.2306704539610394],[-49.4290566444397,-3.230820418942045],[-49.4290566444397,-3.230991807464619],[-49.42918539047241,-3.2312917373094905],[-49.42948579788208,-3.2314202786444497],[-49.43105220794678,-3.2314202786444497],[-49.43165302276611,-3.2312274666359],[-49.432575702667236,-3.2308632660753887],[-49.43729639053345,-3.2438887106507934],[-49.43703889846802,-3.244188636676739],[-49.43678140640259,-3.2440172503871025],[-49.43648099899292,-3.2448099117330855],[-49.43628787994385,-3.2450027211556716],[-49.43618059158325,-3.24530264685103],[-49.436373710632324,-3.2453883398904964],[-49.43648099899292,-3.245581149202735],[-49.43622350692749,-3.2457525352271546],[-49.43630933761597,-3.246459502270568],[-49.43618059158325,-3.246588041679857],[-49.436094760894775,-3.246780850763116],[-49.436094760894775,-3.2475306635147376],[-49.435858726501465,-3.248130513315175],[-49.435858726501465,-3.2486018236226357],[-49.43594455718994,-3.2487732091344412],[-49.43596601486206,-3.2487732091344412],[-49.43596601486206,-3.2490088641656314],[-49.43620204925537,-3.2490088641656314],[-49.43630933761597,-3.2491159800707266],[-49.436888694763184,-3.2491159800707266],[-49.436888694763184,-3.2494587508905965],[-49.437124729156494,-3.249672982593893],[-49.437339305877686,-3.249672982593893],[-49.4374680519104,-3.249565866747929],[-49.43768262863159,-3.2494587508905965],[-49.43781137466431,-3.2493302118467824],[-49.437854290008545,-3.249223095964439],[-49.438369274139404,-3.2489874409832566],[-49.43877696990967,-3.2489874409832566],[-49.43877696990967,-3.2492445191418113],[-49.43864822387695,-3.2493516350218954],[-49.43864822387695,-3.24958728991804],[-49.43877696990967,-3.24969440576173],[-49.43916320800781,-3.24969440576173],[-49.43916320800781,-3.2515153733645263],[-49.439334869384766,-3.2515153733645263],[-49.43995714187622,-3.251258295784595],[-49.446609020233154,-3.2696606000336175],[-49.446372985839844,-3.2697891364799148],[-49.446372985839844,-3.2698319819583332],[-49.446351528167725,-3.2698319819583332],[-49.446351528167725,-3.270796004739182],[-49.44617986679077,-3.270646045700815],[-49.4459867477417,-3.270538932088243],[-49.44579362869263,-3.270538932088243],[-49.445600509643555,-3.270453241189955],[-49.4454288482666,-3.270538932088243],[-49.445321559906006,-3.2707317365826327],[-49.445321559906006,-3.2709245410399177],[-49.44493532180786,-3.2721670577641078],[-49.44504261016846,-3.2723384392603663],[-49.44523572921753,-3.2724455526806224],[-49.445321559906006,-3.272638356808244],[-49.44551467895508,-3.2727240475197306],[-49.445600509643555,-3.272916851593777],[-49.44590091705322,-3.2730668102923772],[-49.44590091705322,-3.2734524182714466],[-49.44680213928223,-3.273902294059411],[-49.44701671600342,-3.2727883155485387],[-49.44680213928223,-3.2727883155485387],[-49.446566104888916,-3.272552666089453],[-49.446566104888916,-3.2715029541893443],[-49.44665193557739,-3.2713101498432877],[-49.44718837738037,-3.2713101498432877],[-49.44772481918335,-3.2727883155485387],[-49.447317123413086,-3.2736880675189184],[-49.447317123413086,-3.2738594487549904],[-49.44742441177368,-3.2739665620126317],[-49.447317123413086,-3.274437860210213],[-49.44703817367554,-3.2753804559399384],[-49.44742441177368,-3.2755732595026075],[-49.44751024246216,-3.2757660630281435],[-49.44751024246216,-3.276344473381968],[-49.447596073150635,-3.2765372767589582],[-49.44778919219971,-3.2766229671368023],[-49.4478964805603,-3.276815770460132],[-49.44819688796997,-3.2769657285748366],[-49.44817543029785,-3.2770085737463432],[-49.44864749908447,-3.2775655608088954],[-49.449119567871094,-3.277951167055164],[-49.449613094329834,-3.2780154347484256],[-49.46115732192993,-3.3099345438215124],[-49.46074962615967,-3.3099345438215124],[-49.46074962615967,-3.309398996754979],[-49.45914030075073,-3.309398996754979],[-49.45914030075073,-3.3104700905985283],[-49.45967674255371,-3.3104700905985283],[-49.45967674255371,-3.3115626051257863],[-49.46173667907715,-3.3115626051257863],[-49.46877479553223,-3.3310348673583263],[-49.46798086166382,-3.3305850174530462],[-49.46798086166382,-3.332105937733971],[-49.46845293045044,-3.332105937733971],[-49.46868896484375,-3.3319988307488586],[-49.46892499923706,-3.331763195340571],[-49.469032287597656,-3.331763195340571],[-49.47064614354116,-3.336240258446196],[-49.47066307067871,-3.336240258446196],[-49.47126388549805,-3.337953961416474],[-49.47175741195679,-3.3393035004015417],[-49.47175741195679,-3.3393677641164885],[-49.47149991989136,-3.3395819764692334],[-49.47149991989136,-3.339796188775267],[-49.47173595428467,-3.3402674556839855],[-49.47173595428467,-3.340503089053499],[-49.47186470031738,-3.34061019511185],[-49.47212219238281,-3.34046024662689],[-49.47218656539917,-3.340503089053499],[-49.473302364349365,-3.3435663177086212],[-49.47325944900513,-3.3435663177086212],[-49.473023414611816,-3.3446159532990265],[-49.473023414611816,-3.3448515856240704],[-49.4728946685791,-3.344958691207637],[-49.4728946685791,-3.3451943234503005],[-49.47265863418579,-3.3454299556363196],[-49.47265863418579,-3.34590121983841],[-49.4728946685791,-3.3461368518544674],[-49.4728946685791,-3.3468437475627013],[-49.47313070297241,-3.3469508529285434],[-49.474074840545654,-3.3469508529285434],[-49.47439670562744,-3.34660811571662],[-49.48010444641113,-3.362395323916573]],[[-49.43622350692749,-3.241596415942709],[-49.43547248840332,-3.2406323652146227],[-49.43442106246948,-3.2411036790186643],[-49.434335231781006,-3.240846598789119],[-49.43373441696167,-3.240846598789119],[-49.433863162994385,-3.2406966352917266],[-49.433863162994385,-3.2402467446661944],[-49.43397045135498,-3.240011087592066],[-49.434099197387695,-3.2398825473466673],[-49.433863162994385,-3.2394112329739215],[-49.433627128601074,-3.2391755757052607],[-49.433391094207764,-3.2391755757052607],[-49.43328380584717,-3.240589518494275],[-49.43330526351929,-3.240846598789119],[-49.4329833984375,-3.240846598789119],[-49.434335231781006,-3.2433317049379724],[-49.43439960479736,-3.2433317049379724],[-49.43439960479736,-3.2458596514776445],[-49.43493604660034,-3.2458596514776445],[-49.43493604660034,-3.244788488461623],[-49.43547248840332,-3.244788488461623],[-49.43547248840332,-3.2436959010156983],[-49.43603038787842,-3.2436959010156983],[-49.43603038787842,-3.2426033123889653],[-49.435837268829346,-3.2426033123889653],[-49.43575143814087,-3.2419606126453715],[-49.43622350692749,-3.241596415942709]]]}}]}
