{"type":"FeatureCollection","features":[{"type":"Feature","properties":{"projectId":"VCS1202","name":"LOWER ZAMBEZI REDD+ PROJECT","sourceRegistry":"Verra VCS","externalId":"VCS1202","projectType":"avoided_deforestation","country":"Zambia","vintageYears":[2009,2010,2011,2012,2013,2014,2015,2016,2017,2018,2019,2020,2021,2022,2023,2024],"sourceUrl":"https://zenodo.org/records/11459391","license":"CC BY 4.0 (Karnik et al. dataset); CarbonPlan Terms of Use also apply to the PMTiles derivative","retrievedAt":"2026-10-05","illustrative":false},"geometry":{"type":"Polygon","coordinates":[[[29.026308059692383,-15.531119427809301],[29.028947353363037,-15.533310875928606],[29.03038501739502,-15.53643261556401],[29.030794083481002,-15.536722045982756],[29.030771255493164,-15.536722045982756],[29.031758308410645,-15.537404273218684],[29.033260345458984,-15.538375926292048],[29.03609275817871,-15.54015383281994],[29.039289951324463,-15.54015383281994],[29.039669751473173,-15.54002979332742],[29.039697647094727,-15.54002979332742],[29.04182195663452,-15.539326901459376],[29.044252345872323,-15.540025257503283],[29.046692848205566,-15.541476916093629],[29.05064105987549,-15.541518262309026],[29.052958488464355,-15.543606235395913],[29.055254459381104,-15.54408171145731],[29.058516025543213,-15.544102384304637],[29.060425758361816,-15.546913872213295],[29.061949253082275,-15.550324817043233],[29.06235694885254,-15.552908828539287],[29.06383752822876,-15.555141388354443],[29.066927433013916,-15.557311909403651],[29.068708419799805,-15.558345482810083],[29.070510864257812,-15.560970735923476],[29.07557487487793,-15.563327233811933],[29.07810688018799,-15.56485687588831],[29.081497192382812,-15.56748204591156],[29.086217880249023,-15.570603267451375],[29.088900089263916,-15.57163677407641],[29.09008026123047,-15.571055713130068],[29.09008026123047,-15.571058011006414],[29.091796875,-15.570210533571753],[29.092676639556885,-15.569755788142459],[29.09351348876953,-15.569611096204056],[29.09351348876953,-15.569600936027298],[29.096474647521973,-15.569052997773653],[29.099178314208984,-15.56870160168856],[29.101345539093018,-15.56956975563152],[29.103662967681885,-15.569259701072639],[29.106388092041016,-15.567833444080549],[29.11128044128418,-15.569363052644206],[29.1127610206604,-15.57140940306462],[29.113619327545166,-15.57386913065622],[29.115915298461914,-15.576494185620561],[29.118683338165283,-15.578602473205663],[29.12100076675415,-15.57841644870048],[29.122309684753418,-15.57711427244945],[29.125120639801025,-15.57376578134972],[29.13275957107544,-15.57256692559713],[29.13975477218628,-15.572546255609055],[29.141063690185547,-15.573104344557663],[29.14323091506958,-15.573455733118422],[29.145419597625732,-15.572794295328805],[29.14973258972168,-15.57378645121517],[29.15198564529419,-15.573827790939859],[29.153831005096436,-15.575667400271996],[29.154388904571533,-15.578829836261107],[29.156084060668945,-15.581330813268053],[29.15672779083252,-15.582963666128137],[29.155890941619873,-15.587572788355075],[29.15642738342285,-15.590714372927792],[29.159646034240723,-15.59133441683548],[29.162650108337402,-15.5926985068416],[29.165525436401367,-15.595137311841157],[29.16792869567871,-15.595199314980434],[29.169580936431885,-15.59652204415687],[29.17067527770996,-15.597638090269385],[29.170804023742676,-15.597410748034932],[29.170825481414795,-15.597018065400505],[29.170825481414795,-15.596749387375667],[29.17073965072632,-15.596253365482738],[29.1796875,-15.592884518412973],[29.18140411376953,-15.592243811179841],[29.18140411376953,-15.59223943367733],[29.26307201385498,-15.5615495273791],[29.264423847198486,-15.561466842985126],[29.265024662017822,-15.561466842985126],[29.265518188476562,-15.56136348744593],[29.26586151123047,-15.5612273012416],[29.26586151123047,-15.561239460730349],[29.266397953033447,-15.560764024294755],[29.266912937164307,-15.560081874446496],[29.26736354827881,-15.55892428165022],[29.267578125,-15.55892428165022],[29.26807165145874,-15.558882938929912],[29.268436431884766,-15.558634882433637],[29.268715381622314,-15.558366154225268],[29.26929473876953,-15.557911382611621],[29.26929473876953,-15.557901046823064],[29.26935911178589,-15.557849368222818],[29.269530773162842,-15.557849368222818],[29.27036762237549,-15.557435938486492],[29.271976947784424,-15.557435938486492],[29.27354335784912,-15.557621981970613],[29.27534580230713,-15.557683996427954],[29.27586078643799,-15.557580638988682],[29.276268482208252,-15.557394595467173],[29.276740550994873,-15.557249894834186],[29.277148246765137,-15.55720855177752],[29.277470111846924,-15.55702250791964],[29.27785634994507,-15.55675377760582],[29.27858591079712,-15.556112957749164],[29.27931547164917,-15.555327433912709],[29.27955150604248,-15.554996686137315],[29.279744625091553,-15.554541907078374],[29.280195236206055,-15.552185308589571],[29.280431270599365,-15.551813211625301],[29.280624389648438,-15.550882966272411],[29.28079605102539,-15.550324817043233],[29.28083896636963,-15.549828683124886],[29.28107500076294,-15.549497926515173],[29.28133249282837,-15.548691705053173],[29.28133249282837,-15.546831181940249],[29.281439781188965,-15.546541765723106],[29.281439781188965,-15.546045622690357],[29.281396865844727,-15.545487460349918],[29.281504154205322,-15.545032660287447],[29.2820405960083,-15.543502870889512],[29.28231954574585,-15.543130758237027],[29.28307056427002,-15.541973070130709],[29.28352117538452,-15.54178701250683],[29.28384304046631,-15.541600954714923],[29.28431510925293,-15.541559608516124],[29.28504467010498,-15.54203508930135],[29.285452365875244,-15.542407203932967],[29.28579568862915,-15.542862009792188],[29.286246299743652,-15.542944701658712],[29.286482334136963,-15.543130758237027],[29.286718368530273,-15.543502870889512],[29.28704023361206,-15.543730272735118],[29.287362098693848,-15.544102384304637],[29.287641048431396,-15.544557186421159],[29.28781270980835,-15.544970642019322],[29.288134574890137,-15.545218714979839],[29.288649559020996,-15.545301405900275],[29.289100170135498,-15.545260060444207],[29.289379119873047,-15.54511535128259],[29.289658069610596,-15.54470189597491],[29.289851188659668,-15.544288439837317],[29.290130138397217,-15.54383363712742],[29.290215969085693,-15.54327546879287],[29.290366172790527,-15.541745666345378],[29.290730953216553,-15.540960087701109],[29.2910099029541,-15.540649990043264],[29.291181564331055,-15.54027787223778],[29.291390776592237,-15.54002979332742],[29.291396141052246,-15.54002979332742],[29.29182529449463,-15.539616327813093],[29.29225444793701,-15.539347574783832],[29.292619228363037,-15.539016801343564],[29.293134212493896,-15.538706700761082],[29.29382085800171,-15.538375926292048],[29.294872283935547,-15.537962457459116],[29.295387268066406,-15.537921110530178],[29.295902252197266,-15.537921110530178],[29.297146797180176,-15.538065824745118],[29.297704696655273,-15.53818986541988],[29.297962188720703,-15.538375926292048],[29.298434257507324,-15.538706700761082],[29.29903507232666,-15.539202861469064],[29.299592971801758,-15.53916151478903],[29.300236701965332,-15.539347574783832],[29.301159381866455,-15.539347574783832],[29.30180311203003,-15.539264881473542],[29.30203914642334,-15.539078821404061],[29.302403926849365,-15.539016801343564],[29.30324077606201,-15.539037474699128],[29.303691387176514,-15.538520640187585],[29.304442405700684,-15.538479293370656],[29.30450677871704,-15.538375926292048],[29.304614067077637,-15.53818986541988],[29.304893016815186,-15.53810717164501],[29.30549383163452,-15.53810717164501],[29.306416511535645,-15.537735049247374],[29.306931495666504,-15.537404273218684],[29.30725336074829,-15.537362926177778],[29.307854175567627,-15.537362926177778],[29.30873394012451,-15.537404273218684],[29.308862686157227,-15.537176864390986],[29.308884143829346,-15.536722045982756],[29.308881198631735,-15.536722045982756],[29.308905601501465,-15.536122511092856],[29.309141635894775,-15.535791732476],[29.309184551239014,-15.535481627040568],[29.309613704681396,-15.534820067218874],[29.309699535369873,-15.5345099603215],[29.30978536605835,-15.53438591743192],[29.31004285812378,-15.532752679090564],[29.309828281402588,-15.531925718033662],[29.309828281402588,-15.531553584475802],[29.309935569763184,-15.530726618608952],[29.310343265533447,-15.530065043527216],[29.31053638458252,-15.529651558023147],[29.310643672943115,-15.529486163589354],[29.310686588287354,-15.52930009469273],[29.309978485107422,-15.527666816061512],[29.31027889251709,-15.526984556600212],[29.310150146484375,-15.526798485446292],[29.3100643157959,-15.526322969512464],[29.31002140045166,-15.52590947650485],[29.310107231140137,-15.525599356205106],[29.31053638458252,-15.524937764673794],[29.31075096130371,-15.524710342094764],[29.311180114746094,-15.524482919264983],[29.311673641204834,-15.524400219991975],[29.312188625335693,-15.524338195515469],[29.312660694122314,-15.524152121974026],[29.312918186187744,-15.523924698528745],[29.313325881958008,-15.523490525800554],[29.311931133270264,-15.521588424982],[29.312167167663574,-15.520678718390869],[29.31199550628662,-15.520244538830994],[29.31199550628662,-15.518569837684268],[29.31255340576172,-15.51774281975878],[29.312660694122314,-15.517474038219333],[29.312596321105957,-15.517143229690191],[29.312424659729004,-15.516957149659504],[29.312424659729004,-15.516688367096734],[29.312467575073242,-15.51635755730814],[29.312596321105957,-15.515902692982976],[29.31274652481079,-15.515633909046883],[29.313197135925293,-15.515530530516713],[29.313197135925293,-15.5153444490319],[29.31330442428589,-15.515013637089098],[29.313626289367676,-15.514703500411187],[29.3139910697937,-15.514476066551182],[29.3145489692688,-15.513917818741405],[29.314956665039062,-15.513649032220428],[29.315385818481445,-15.51323551381239],[29.314656257629395,-15.512036305744516],[29.31422710418701,-15.510361537991798],[29.313583374023438,-15.50897622600391],[29.312381744384766,-15.507839022649321],[29.312703609466553,-15.506639783236238],[29.312467575073242,-15.506474370356855],[29.312381744384766,-15.506164220850891],[29.312317371368408,-15.505750687451695],[29.312424659729004,-15.50533715322446],[29.31251049041748,-15.504592789528814],[29.312660694122314,-15.50407586871735],[29.312875270843506,-15.50376571560949],[29.31326150894165,-15.5036209773331],[29.314184188842773,-15.503393531265303],[29.315192699432373,-15.503290146606233],[29.315600395202637,-15.503104054089505],[29.315965175628662,-15.502835253491597],[29.317359924316406,-15.501181088266605],[29.317638874053955,-15.5009949938499],[29.318132400512695,-15.500291968985096],[29.31851863861084,-15.499568264419494],[29.318561553955078,-15.49919607251293],[29.318690299987793,-15.498906589455416],[29.31875467300415,-15.498637783395978],[29.318647384643555,-15.498182880037206],[29.31875467300415,-15.497438490562587],[29.319119453430176,-15.497107649935316],[29.319334030151367,-15.496983584563523],[29.31999921798706,-15.496756131188462],[29.32025671005249,-15.496549355175716],[29.32053565979004,-15.496425289468746],[29.320857524871826,-15.496321901322702],[29.32178020477295,-15.495598182852163],[29.32197332382202,-15.495370727952263],[29.32201623916626,-15.49518462830251],[29.32229518890381,-15.49489513962537],[29.32229518890381,-15.494626328347806],[29.32253122329712,-15.494398872378312],[29.322853088378906,-15.494150738307937],[29.323089122772217,-15.493509723913988],[29.32349681854248,-15.491028359131533],[29.32349681854248,-15.490614795438646],[29.32373285293579,-15.490139196169054],[29.324054718017578,-15.489766987281826],[29.324333667755127,-15.489270707723179],[29.324698448181152,-15.488381537201406],[29.325170516967773,-15.487595755418084],[29.325621128082275,-15.487471684337223],[29.326179027557373,-15.487099470647948],[29.32650089263916,-15.486685899096287],[29.32673692703247,-15.4864584343903],[29.326822757720947,-15.485982825560214],[29.326865673065186,-15.485383143302329],[29.32701587677002,-15.484928210774285],[29.327659606933594,-15.484328525458338],[29.32798147201538,-15.484183773569839],[29.328303337097168,-15.484328525458338],[29.328625202178955,-15.484555992506998],[29.32898998260498,-15.484886853222122],[29.329183101654053,-15.485341785841129],[29.32922601699829,-15.485755360080887],[29.32922601699829,-15.486313683992606],[29.329397678375244,-15.486685899096287],[29.32971954345703,-15.48676861347279],[29.330148696899414,-15.48676861347279],[29.3304705619812,-15.486727256288674],[29.33074951171875,-15.486582506079131],[29.3310284614563,-15.486396398517982],[29.331436157226562,-15.48635504125943],[29.331800937652588,-15.48649979162819],[29.33223009109497,-15.486830649233454],[29.33250904083252,-15.487244220495597],[29.332680702209473,-15.487595755418084],[29.33272361755371,-15.48792661126977],[29.332551956176758,-15.488257466592046],[29.332444667816162,-15.488712391795744],[29.332594871520996,-15.489043245860657],[29.332873821258545,-15.489312064398561],[29.33328151702881,-15.489539525965313],[29.333946704864502,-15.489539525965313],[29.33446168899536,-15.489622239200273],[29.334697723388672,-15.489870378706613],[29.334847927093506,-15.490118517915121],[29.335105419158936,-15.490221909164106],[29.335427284240723,-15.490221909164106],[29.3359637260437,-15.490118517915121],[29.33628559112549,-15.48993241353665],[29.336435794830322,-15.489704952402136],[29.33673620223999,-15.489684274104789],[29.33770179748535,-15.489704952402136],[29.33828115463257,-15.48978766557093],[29.339354038238525,-15.490201230918444],[29.339675903320312,-15.490490726169455],[29.340898990631104,-15.491028359131533],[29.34122085571289,-15.491028359131533],[29.34152126312256,-15.490945646459153],[29.34171438217163,-15.490759542825288],[29.34173583984375,-15.490408013281964],[29.341628551483154,-15.48978766557093],[29.34169292449951,-15.48842289405465],[29.34197187423706,-15.488030003614853],[29.342293739318848,-15.4877611834101],[29.34276580810547,-15.487637112428501],[29.344396591186523,-15.487843897356484],[29.34497594833374,-15.487616433924316],[29.345598220825195,-15.487264899037001],[29.3459415435791,-15.48687200639688],[29.346091747283936,-15.48540382202981],[29.346091747283936,-15.484638707735414],[29.34626340866089,-15.483460012607708],[29.346542358398438,-15.483067112739079],[29.34697151184082,-15.482550138090673],[29.34744358062744,-15.482136557441649],[29.34800148010254,-15.4817850132398],[29.348795413970947,-15.481330072797633],[29.350061416625977,-15.480564943434018],[29.350318908691406,-15.480482226576555],[29.35068368911743,-15.480647660258413],[29.350919723510742,-15.480833772992355],[29.35122013092041,-15.481185318810759],[29.35145616531372,-15.48155754314378],[29.351842403411865,-15.481929766807028],[29.352421760559082,-15.48234334786953],[29.35343027114868,-15.482984396882173],[29.35370922088623,-15.483025754814761],[29.353902339935303,-15.4829430389413],[29.354159832000732,-15.482694891122463],[29.354889392852783,-15.481847050495304],[29.355318546295166,-15.481371431060992],[29.35546875,-15.481268035387089],[29.355533123016357,-15.481226677103066],[29.35596227645874,-15.481123281356801],[29.356112480163574,-15.481040564722576],[29.35600519180298,-15.479944566196892],[29.355833530426025,-15.48013067956336],[29.35546875,-15.479861849091392],[29.34748649597168,-15.473968170208678],[29.35375213623047,-15.469000923044476],[29.35375213623047,-15.469004942022593],[29.35546875,-15.467640033410447],[29.373085498809814,-15.453680224345831],[29.39370632171631,-15.43732019966312],[29.393534660339355,-15.436161918912802],[29.39445734024048,-15.43330755660891],[29.39514398574829,-15.432025149169505],[29.395358562469482,-15.431425310711845],[29.395358562469482,-15.430825470520745],[29.395272731781006,-15.429936049115739],[29.393041133880615,-15.42716433936657],[29.393084049224854,-15.425240668311275],[29.393062591552734,-15.424558071072397],[29.392483234405518,-15.42244821087617],[29.39115285873413,-15.421455328073165],[29.389264583587646,-15.422075880381257],[29.38771963119507,-15.421744919380998],[29.38793420791626,-15.421041625504444],[29.387848377227783,-15.421000255202259],[29.38767671585083,-15.41955228943469],[29.388020038604736,-15.418828302766045],[29.38840627670288,-15.418393909553771],[29.389071464538574,-15.41793882997625],[29.389607906341553,-15.417338950828281],[29.388277530670166,-15.411629669503327],[29.388341903686523,-15.411195261242355],[29.388298988342285,-15.410947027542733],[29.388341903686523,-15.410285069561084],[29.388577938079834,-15.40916801068694],[29.388277530670166,-15.407533784112374],[29.38769817352295,-15.406106411151384],[29.387118816375732,-15.406065037875948],[29.386346340179443,-15.405837484713913],[29.385530948638916,-15.405671991348726],[29.385273456573486,-15.404596281264503],[29.38514471054077,-15.401886294654688],[29.385337829589844,-15.400914000775117],[29.385230541229248,-15.399734829758884],[29.38565969467163,-15.397769529877877],[29.38744068145752,-15.395473208603121],[29.387032985687256,-15.393321677386027],[29.38591718673706,-15.39272172721499],[29.38289165496826,-15.3952870192809],[29.38216209411621,-15.39559733472538],[29.38121795654297,-15.39613521373279],[29.378793239593506,-15.397666092527714],[29.37741994857788,-15.397335092661677],[29.376347064971924,-15.397148905005594],[29.37448024749756,-15.395824899090513],[29.373557567596436,-15.39342511689587],[29.37124013900757,-15.393694059380877],[29.369866847991943,-15.393280301567685],[29.36896562576294,-15.392121775314436],[29.369287490844727,-15.389784015203517],[29.37021017074585,-15.388170324766065],[29.369029998779297,-15.38657731039855],[29.367785453796387,-15.385749765656755],[29.366326332092285,-15.386556621820091],[29.36471700668335,-15.386639376121579],[29.36370849609375,-15.386535933239571],[29.36295747756958,-15.386060095320374],[29.361755847930908,-15.385398058145512],[29.36117649078369,-15.384549819938954],[29.360532760620117,-15.383163667140153],[29.360597133636475,-15.382791266308388],[29.361262321472168,-15.380122374194002],[29.362163543701172,-15.379046532042622],[29.362635612487793,-15.37811551031146],[29.362914562225342,-15.37623276476269],[29.362850189208984,-15.374763797628674],[29.363043308258057,-15.373729307516996],[29.363129138946533,-15.372053422637492],[29.363257884979248,-15.370977538821762],[29.363622665405273,-15.369984410370193],[29.364116191864014,-15.368949896534701],[29.36441659927368,-15.368308495378315],[29.365317821502686,-15.366942925052584],[29.36521053314209,-15.36528767630223],[29.36441659927368,-15.36431521153348],[29.362914562225342,-15.364770408372834],[29.361412525177002,-15.364770408372834],[29.35993194580078,-15.3648324805921],[29.359138011932373,-15.365970468004079],[29.35645580291748,-15.365763561663897],[29.35546875,-15.365453201768602],[29.355082511901855,-15.365411820414323],[29.35443878173828,-15.364873862061359],[29.353559017181396,-15.363901395362689],[29.35321569442749,-15.36141848109294],[29.353108406066895,-15.358190648351325],[29.35323715209961,-15.357900968611546],[29.35126304626465,-15.355666282813047],[29.35119867324829,-15.355355907892388],[29.350790977478027,-15.35461100619905],[29.34948205947876,-15.352769432265816],[29.3479585647583,-15.35181760116562],[29.346070289611816,-15.350679536543197],[29.3459415435791,-15.350245001141204],[29.34574842453003,-15.347927463718833],[29.345383644104004,-15.344264874440384],[29.34476137161255,-15.342257665493008],[29.344353675842285,-15.341554103151196],[29.343109130859375,-15.34020905090081],[29.34147834777832,-15.339608947871554],[29.34023380279541,-15.339195082708883],[29.339053630828857,-15.33905022970822],[29.33828115463257,-15.338677750102391],[29.33821678161621,-15.339215775986503],[29.31345294968495,-15.367294663719022],[29.313433170318604,-15.367294663719022],[29.312467575073242,-15.368411947311216],[29.312424659729004,-15.368949896534701],[29.30976390838623,-15.402589653351257],[29.29830551147461,-15.422262045712145],[29.299399852752686,-15.432976613512153],[29.313476085662842,-15.440422705529699],[29.290010562582765,-15.452025666113087],[29.290001392364502,-15.452025666113087],[29.288713932037354,-15.452666808995701],[29.287383556365967,-15.453680224345831],[29.285194873809814,-15.455334769369841],[29.285208271351163,-15.455334769369841],[29.276697635650635,-15.461808049815232],[29.26880121231079,-15.461042848291399],[29.267578125,-15.464599977347333],[29.266934394836426,-15.466440560838734],[29.26586151123047,-15.466688728147773],[29.26586151123047,-15.466696435050206],[29.235284328460693,-15.473988850077149],[29.18140411376953,-15.480943079195754],[29.18140411376953,-15.480937168883315],[29.1796875,-15.4811646396615],[29.091796875,-15.492496503559337],[29.090423583984375,-15.492682605629483],[29.09008026123047,-15.492558537601326],[29.09008026123047,-15.492564220043398],[29.044547080993652,-15.476863331689032],[29.038002490997314,-15.488257466592046],[29.034934043884277,-15.499051331034877],[29.033217430114746,-15.506825872567177],[29.03085708618164,-15.50847999258302],[29.02911901473999,-15.512904698489507],[29.027423858642578,-15.520947495755735],[29.026308059692383,-15.531119427809301]]]}}]}
