{"type":"FeatureCollection","features":[{"type":"Feature","properties":{"projectId":"VCS1115","name":"JARI/AMAPÁ REDD+ PROJECT","sourceRegistry":"Verra VCS","externalId":"VCS1115","projectType":"avoided_deforestation","country":"Brazil","vintageYears":[2012,2013,2014,2015,2016,2017,2018,2019],"sourceUrl":"https://zenodo.org/records/11459391","license":"CC BY 4.0 (Karnik et al. dataset); CarbonPlan Terms of Use also apply to the PMTiles derivative","retrievedAt":"2026-10-05","illustrative":false},"geometry":{"type":"Polygon","coordinates":[[[-52.46570348739624,-0.7921920131119293],[-52.45488882064819,-0.7999589406614831],[-52.45280742645264,-0.8006455191872561],[-52.44855880737305,-0.802297598293535],[-52.4452543258667,-0.8034132877022984],[-52.4412202835083,-0.804700621256913],[-52.44025468826294,-0.8049366323645444],[-52.44042634963989,-0.8049366323645444],[-52.437744140625,-0.8054944767464463],[-52.43201494216919,-0.8074898425640242],[-52.43250846862793,-0.8091204633652183],[-52.433903217315674,-0.8130039128949846],[-52.434096336364746,-0.8150636415175256],[-52.43205785751343,-0.815406929518943],[-52.43008375167847,-0.8152996520216504],[-52.43001937866211,-0.8153640185203557],[-52.43147850036621,-0.81714482457663],[-52.43321657180786,-0.8189685408039793],[-52.434654235839844,-0.8205991569634961],[-52.402446269989014,-0.8572878423234727],[-52.40622282028198,-0.8607421392706129],[-52.40562200546265,-0.8619007226397741],[-52.404162883758545,-0.8641535226259833],[-52.40270376205444,-0.8658699407665296],[-52.39972114562988,-0.8687234842044944],[-52.39701747894287,-0.872006129253009],[-52.396695613861084,-0.8727785159076404],[-52.39650249481201,-0.8737010886483318],[-52.39622354507446,-0.8768979087166286],[-52.396159172058105,-0.878206673192409],[-52.3957085609436,-0.8788717828324195],[-52.394678592681885,-0.8803521877348146],[-52.39412069320679,-0.881467854809145],[-52.39388465881348,-0.8822831497675026],[-52.39354133605957,-0.8836777328346415],[-52.39328384399414,-0.8850079500415973],[-52.393198013305664,-0.8862523463516965],[-52.393198013305664,-0.8882905807837176],[-52.39326238632202,-0.8907793707759879],[-52.393455505371094,-0.8941907267403764],[-52.393670082092285,-0.895950041156695],[-52.39429235458374,-0.8980311802899905],[-52.394914627075195,-0.8998548579379673],[-52.39555835723877,-0.9031374754055292],[-52.39562273025513,-0.9041244055682256],[-52.39577293395996,-0.9071924693593729],[-52.39596605300903,-0.9081150334875332],[-52.39624500274658,-0.9089517774931579],[-52.3967170715332,-0.9099387060711166],[-52.39751100540161,-0.9112260038104552],[-52.39824056625366,-0.9132856792362816],[-52.38854169845581,-0.9133500440743347],[-52.388412952423096,-0.9134358638566198],[-52.38824129104614,-0.9134358638566198],[-52.387940883636475,-0.9132642242900033],[-52.38776922225952,-0.9132642242900033],[-52.387211322784424,-0.9134787737469736],[-52.386460304260254,-0.9135216836368443],[-52.38605260848999,-0.9132856792362816],[-52.385902404785156,-0.9132856792362816],[-52.38577365875244,-0.9133285891284402],[-52.38530158996582,-0.9138649627372502],[-52.3848295211792,-0.9142940615666362],[-52.38476514816284,-0.91459443071669],[-52.38474369049072,-0.9149806195869417],[-52.38461494445801,-0.9153668084156408],[-52.38452911376953,-0.9154526281481623],[-52.38452911376953,-0.9154526281497084],[-52.384400367736816,-0.9155813577469445],[-52.38425016403198,-0.9158388169275753],[-52.38403558731079,-0.9163751901611334],[-52.383949756622314,-0.9166541042108349],[-52.38399267196655,-0.9168901083897651],[-52.384464740753174,-0.9178555798688421],[-52.384464740753174,-0.9179843093796904],[-52.384443283081055,-0.918113038885906],[-52.38409996032715,-0.9185635921211741],[-52.38364934921265,-0.918949780563338],[-52.38330602645874,-0.9191428747687809],[-52.38309144973755,-0.9193788787834478],[-52.38302707672119,-0.9199581612987657],[-52.382941246032715,-0.9203228946861088],[-52.3828125,-0.9204730790112166],[-52.38276958465576,-0.9205159888172432],[-52.382662296295166,-0.9205588986227298],[-52.38210439682007,-0.9205803535252954],[-52.38182544708252,-0.9206661731342223],[-52.38158941268921,-0.9208378123458942],[-52.38139629364014,-0.9210309064491469],[-52.38126754760742,-0.9214814593160412],[-52.3812460899353,-0.9219749219143836],[-52.38126754760742,-0.922275290419023],[-52.38137483596802,-0.9227687529073307],[-52.38139629364014,-0.9231334860068756],[-52.38133192062378,-0.923455309298916],[-52.3812460899353,-0.9235196739538338],[-52.38109588623047,-0.9235840386075864],[-52.38109588623047,-0.9235774371042905],[-52.380967140197754,-0.9236269483761106],[-52.38064527511597,-0.9235625837231396],[-52.38013029098511,-0.9232407604407911],[-52.37987279891968,-0.9231549408939088],[-52.37959384918213,-0.9231334860068756],[-52.378950119018555,-0.9232836702134506],[-52.37849950790405,-0.9233480348714806],[-52.37830638885498,-0.9234767641840165],[-52.37811326980591,-0.9236913130279163],[-52.377727031707764,-0.9238629520936996],[-52.37706184387207,-0.9243993241208273],[-52.37682580947876,-0.9245065985165297],[-52.37637519836426,-0.9245924180307554],[-52.37639665603638,-0.9295055817553504],[-52.37680435180664,-0.9299990432370038],[-52.37706184387207,-0.930170681997069],[-52.37783432006836,-0.9304495949643723],[-52.377963066101074,-0.9306426885441823],[-52.378220558166504,-0.9314794272679023],[-52.37879991531372,-0.9322088916341755],[-52.37884283065796,-0.9324019851176075],[-52.379164695739746,-0.9332601782491281],[-52.37927198410034,-0.9335176361477551],[-52.37952947616577,-0.9339467326036015],[-52.379722595214844,-0.9340754615301279],[-52.380216121673584,-0.9340754615301279],[-52.38053798675537,-0.9341183711712517],[-52.38113880157471,-0.934290009730546],[-52.381417751312256,-0.9344831030997085],[-52.38212585449219,-0.9351696572152122],[-52.3828125,-0.9354271149739048],[-52.38300561904907,-0.935512934222615],[-52.3832631111145,-0.935512934222615],[-52.38409996032715,-0.9353842053487824],[-52.3847222328186,-0.9353842053487824],[-52.38500118255615,-0.9353198409100969],[-52.385687828063965,-0.9352769312836386],[-52.38598823547363,-0.9353198409100969],[-52.38652467727661,-0.9354700245985299],[-52.38727569580078,-0.935512934222615],[-52.38755464553833,-0.9355772986577762],[-52.38806962966919,-0.935834756386555],[-52.38856315612793,-0.9359420304346457],[-52.388906478881836,-0.9359205756252891],[-52.38924980163574,-0.9358133015765446],[-52.38961458206177,-0.9355558438461884],[-52.390923500061035,-0.9345260127358586],[-52.39128828048706,-0.9344401934630326],[-52.39171743392944,-0.9344616482814416],[-52.392683029174805,-0.9346332868239529],[-52.39298343658447,-0.9346547416411681],[-52.39330530166626,-0.9347405609087645],[-52.39362716674805,-0.9348478349902933],[-52.39388465881348,-0.9350194735139183],[-52.394185066223145,-0.9352983860969317],[-52.39472150802612,-0.9353842053487824],[-52.395665645599365,-0.9363925814007672],[-52.3957085609436,-0.9365642198488331],[-52.39562273025513,-0.9369074967197264],[-52.395644187927246,-0.937336592761028],[-52.3957085609436,-0.9375511407619825],[-52.39596605300903,-0.9379373271305411],[-52.39603042602539,-0.938173329890347],[-52.39600896835327,-0.9383878778400003],[-52.39575147628784,-0.939160250349758],[-52.395687103271484,-0.9396322556883803],[-52.40124464035034,-0.9392246147178724],[-52.40122318267822,-0.9389671572383094],[-52.40124464035034,-0.9388598832829018],[-52.40133047103882,-0.938709699739789],[-52.40148067474365,-0.9386238805694234],[-52.401652336120605,-0.9385809709834376],[-52.40178108215332,-0.9385166066034714],[-52.40173816680908,-0.9380231463177608],[-52.4017596244812,-0.937851507941204],[-52.40182399749756,-0.9377656887497636],[-52.40255355834961,-0.937143499548938],[-52.40272521972656,-0.9370576803401605],[-52.40324020385742,-0.9369718611292654],[-52.40334749221802,-0.9370791351425538],[-52.40356206893921,-0.9377871435478227],[-52.40427017211914,-0.9390100668195629],[-52.40744590759277,-0.9387740641162026],[-52.40547180175781,-0.9468839660367507],[-52.395193576812744,-0.9622026177690799],[-52.38452911376953,-0.9612601376838227],[-52.38452911376953,-0.9612800678496569],[-52.3828125,-0.9611084306278457],[-52.38109588623047,-0.9609582480516679],[-52.38109588623047,-0.960957389853195],[-52.37476587295532,-0.9604004269966708],[-52.3684242593401,-0.9650346299157633],[-52.368435859680176,-0.9650346299157633],[-52.36607551574707,-0.9667509997666315],[-52.363736629486084,-0.9684673687498702],[-52.36371819355879,-0.9684673687498702],[-52.36189126968384,-0.9697975541141375],[-52.36058235168457,-0.9719644678619943],[-52.32517719268799,-0.9720288316154324],[-52.325284481048584,-0.9685317325698435],[-52.325284481048584,-0.9661502704174296],[-52.32534885406494,-0.9655280863366613],[-52.32543468475342,-0.9651204484288769],[-52.325541973114014,-0.9648844475125884],[-52.32558488845825,-0.9645840826863292],[-52.32519865036011,-0.9642193539331032],[-52.3248553276062,-0.9628033478150542],[-52.323782444000244,-0.9620738898883161],[-52.322258949279785,-0.9619451620026922],[-52.320542335510254,-0.9616233422674156],[-52.320263385772705,-0.9667509997666315],[-52.32017755508423,-0.9684673687498702],[-52.32017267036321,-0.9684673687498702],[-52.319984436035156,-0.9720288316154324],[-52.318267822265625,-0.9720502861996323],[-52.318267822265625,-0.9667509997666315],[-52.318246364593506,-0.9051542454519677],[-52.318246364593506,-0.8116736709343257],[-52.30449199676514,-0.811866770600929],[-52.29663848876953,-0.8118315566115666],[-52.29663848876953,-0.811845315082877],[-52.294921875,-0.8118238595647114],[-52.29320526123047,-0.8118238595647114],[-52.29320526123047,-0.8118197275438129],[-52.250354290008545,-0.811716581972135],[-52.261834144592285,-0.7981137603044886],[-52.26288557052612,-0.7963758571182211],[-52.26340055465698,-0.7928142260782352],[-52.26390705547224,-0.7927069479872699],[-52.26389408111572,-0.7927069479872699],[-52.26775646209717,-0.7918916344050757],[-52.26872205734253,-0.7915483444277527],[-52.2699236869812,-0.7909904981540024],[-52.27176434862747,-0.7900458236569297],[-52.272931965891146,-0.7894116226778343],[-52.274107933044434,-0.7887376566707047],[-52.27494478225708,-0.7881583543777566],[-52.276597023010254,-0.7869353826058614],[-52.27745532989502,-0.7864204470156722],[-52.27837800979614,-0.7859913339753177],[-52.279343605041504,-0.7856480435112871],[-52.280330657958984,-0.7854120313008934],[-52.281339168548584,-0.7853047530190338],[-52.282347679138184,-0.7853047530190338],[-52.28537321090698,-0.785562220890867],[-52.2864031791687,-0.7856051322012974],[-52.28945016860962,-0.785626587856342],[-52.29045867919922,-0.785562220890867],[-52.2914457321167,-0.7853905756447404],[-52.29241132736206,-0.7851116521047743],[-52.29320526123047,-0.7848117496771518],[-52.29320526123047,-0.7848112728870547],[-52.293467802179016,-0.7847052566753483],[-52.294921875,-0.7840388690853501],[-52.29630168489017,-0.783314536637266],[-52.29788303375244,-0.7824082383694986],[-52.29957818984985,-0.7812925433039482],[-52.30118751525879,-0.7800266581592723],[-52.30195999145508,-0.7793615319136649],[-52.30266809463501,-0.7786105828004679],[-52.303311824798584,-0.7778381778587686],[-52.3038911819458,-0.7770014056790728],[-52.30438470840454,-0.7761217219268417],[-52.30569362640381,-0.7733539352700234],[-52.306058406829834,-0.772388427871789],[-52.30638027191162,-0.7713800087994542],[-52.306787967681885,-0.7704574124175565],[-52.30741024017334,-0.769685005990695],[-52.30820417404175,-0.769062789600639],[-52.30910539627075,-0.768547851829922],[-52.31007099151611,-0.768140192717425],[-52.311036586761475,-0.7679041795292534],[-52.31206655502319,-0.7678183565485028],[-52.31309652328491,-0.7677539893118137],[-52.31410503387451,-0.7676467105818432],[-52.315049171447754,-0.7673248743757597],[-52.31592893600464,-0.7667241133929963],[-52.316551208496094,-0.7659302505364849],[-52.31683015823364,-0.7649861972184198],[-52.31691598892212,-0.763956320634577],[-52.31706619262695,-0.7629049880339664],[-52.31762409210205,-0.7608666894033291],[-52.31794595718384,-0.7598582676192933],[-52.31837511062622,-0.7589785803388622],[-52.319018840789795,-0.7582919950200306],[-52.31989860534668,-0.75794870231978],[-52.322022914886475,-0.7575195864062039],[-52.3229455947876,-0.7571119262489532],[-52.32444763183594,-0.7561893268041757],[-52.32470512390137,-0.7561893268041757],[-52.32388973236084,-0.7578414233453827],[-52.32388973236084,-0.7582919950200306],[-52.32464075088501,-0.7582919950200306],[-52.32464075088501,-0.7581418044670301],[-52.324790954589844,-0.7581418044670301],[-52.32494115829468,-0.7579916139088141],[-52.32494115829468,-0.7578414233453827],[-52.32509136199951,-0.7578414233453827],[-52.325263023376465,-0.7566184428494012],[-52.3253059387207,-0.7565755312467957],[-52.3253059387207,-0.7557387549110359],[-52.32569217681885,-0.7555456526568207],[-52.32584238052368,-0.7555456526568207],[-52.32584238052368,-0.7554812852368258],[-52.326529026031494,-0.7551594481226118],[-52.327494621276855,-0.7548376109845663],[-52.32846021652222,-0.7547088761226775],[-52.330498695373535,-0.7550521690792493],[-52.331485748291016,-0.7549448900332294],[-52.332494258880615,-0.7547088761226775],[-52.333481311798096,-0.7543655831390197],[-52.33436107635498,-0.7538935552422572],[-52.335026264190674,-0.753164057483005],[-52.33556270599365,-0.7522629130235998],[-52.336249351501465,-0.7515119591652422],[-52.33710765838623,-0.7509970193020479],[-52.33985424041748,-0.7496667577080984],[-52.340712547302246,-0.7491089059516156],[-52.34152793884277,-0.7484866866009838],[-52.34193563461304,-0.7481219372854184],[-52.34227895736694,-0.7478859230062653],[-52.34287977218628,-0.7470706008533483],[-52.34378099441528,-0.745246853384927],[-52.34493970870972,-0.7435303844895458],[-52.34517574310303,-0.7426077821824038],[-52.345004081726074,-0.7405480181976003],[-52.344982624053955,-0.7395181358461116],[-52.34502553939819,-0.7385097091454185],[-52.34513282775879,-0.7374798263213336],[-52.3453688621521,-0.7364928550579748],[-52.34616279602051,-0.734604735510672],[-52.346463203430176,-0.7336392195246333],[-52.346484661102295,-0.7326307914945858],[-52.34631299972534,-0.7305924788262246],[-52.34609842300415,-0.7285541652332199],[-52.345969676971436,-0.7264729388236475],[-52.34607696533203,-0.7254645091874892],[-52.34659194946289,-0.7246277269783405],[-52.3473858833313,-0.72391968037293],[-52.3482871055603,-0.7234905611643399],[-52.34933853149414,-0.7235549290482055],[-52.35028266906738,-0.7232974575072149],[-52.35114097595215,-0.7227610584165802],[-52.351956367492676,-0.7221173794242048],[-52.352707386016846,-0.7214307883985214],[-52.35326528549194,-0.7205725494707593],[-52.353951930999756,-0.719843046255022],[-52.35483169555664,-0.7193495587193723],[-52.35577583312988,-0.7189204390797812],[-52.35661268234253,-0.7183840394735768],[-52.3573637008667,-0.7176759918969822],[-52.35802888870239,-0.7168821202413653],[-52.35858678817749,-0.7160453364553945],[-52.358994483947754,-0.7151227285143307],[-52.35965967178345,-0.7131916880377247],[-52.359938621520996,-0.7125265516858548],[-52.37480878829956,-0.7188775271136052],[-52.37704038619995,-0.7138782803001078],[-52.36362934112549,-0.7086430117171716],[-52.364187240600586,-0.7078062264350962],[-52.36457347869873,-0.7068836168465111],[-52.3647665977478,-0.7058966389441821],[-52.36480951309204,-0.7048667487358102],[-52.364680767059326,-0.7031073524364757],[-52.36465930938721,-0.7028069676361355],[-52.3634147644043,-0.6970567406004875],[-52.366225719451904,-0.6195782069552109],[-52.36716985702515,-0.6160164404473676],[-52.36739200704594,-0.6167434348058497],[-52.367470264434814,-0.6169390669404748],[-52.367470123284726,-0.6169390669404748],[-52.3688006401062,-0.6200502481202363],[-52.36955165863037,-0.6239124015229436],[-52.369980812072754,-0.6278603776264902],[-52.37032413482666,-0.6322374780817768],[-52.37000226974487,-0.636829138318646],[-52.36965894699097,-0.6394897246235729],[-52.36751317977905,-0.6512906955641711],[-52.366740703582764,-0.6564616577907287],[-52.366204261779785,-0.6598517463096414],[-52.36581802368164,-0.6613107710377761],[-52.36536741256714,-0.6641000818236051],[-52.36541032791138,-0.6672756029557547],[-52.36564636230469,-0.6698718045209802],[-52.365689277648926,-0.6700649103676284],[-52.36635446548462,-0.6719315998258679],[-52.36740589141846,-0.6745707112906985],[-52.37124681472778,-0.6837324936053335],[-52.37150430679321,-0.6851485989195254],[-52.37259864807129,-0.6946322024665648],[-52.37287759780884,-0.6982153690027388],[-52.37330675125122,-0.7003824324697376],[-52.373414039611816,-0.7005969931545764],[-52.3739494833909,-0.7013908676030525],[-52.373950481414795,-0.7013908676030525],[-52.3740482167008,-0.7015304789755138],[-52.37577438354492,-0.7031073524364757],[-52.37785577774048,-0.7048238366388517],[-52.3778449383789,-0.7048238366388517],[-52.37828493118286,-0.7051885894504011],[-52.38121352601747,-0.7073980199492449],[-52.381954193115234,-0.7079349626421703],[-52.3828125,-0.7082997152094777],[-52.384400367736816,-0.7089433961405405],[-52.38448619842529,-0.7120759753929349],[-52.39158868789673,-0.7113250148068886],[-52.39257574081421,-0.7113893828619098],[-52.393412590026855,-0.7111319106364249],[-52.40296125411987,-0.7101449336390999],[-52.402403354644775,-0.7097801812171696],[-52.40135192871094,-0.7086859237788445],[-52.399935722351074,-0.7079349626421703],[-52.39927053451538,-0.7078062264350962],[-52.39733934402466,-0.7065832322897307],[-52.405128479003906,-0.7061541114606484],[-52.41270303726196,-0.7058537268567306],[-52.4143123626709,-0.7158736884804],[-52.410149574279785,-0.716560280341767],[-52.41006374359131,-0.7165388243476514],[-52.40656614303589,-0.717118136153374],[-52.40660905838013,-0.7171395921447754],[-52.4053430557251,-0.7173541520532041],[-52.40545034408569,-0.7191135429225852],[-52.40547180175781,-0.7212591406259179],[-52.40609407424927,-0.7231043538418902],[-52.40620136260986,-0.7243917114554961],[-52.413389682769775,-0.7239411363322859],[-52.41403341293335,-0.7262154674485686],[-52.414162158966064,-0.7282537820993724],[-52.414419651031494,-0.7306783025361909],[-52.41444110870361,-0.735184045002157],[-52.4143123626709,-0.7375656498991248],[-52.404420375823975,-0.7387886357025621],[-52.40454912185669,-0.7391748416758475],[-52.40478515625,-0.739646871153127],[-52.40504264831543,-0.7401189005802138],[-52.40508556365967,-0.7402905476321564],[-52.40508556365967,-0.7412989739280818],[-52.41598606109619,-0.7387886357025621],[-52.41675853729248,-0.7414062533077441],[-52.404892444610596,-0.7448177362237374],[-52.40480661392212,-0.7458905290483386],[-52.40446329116821,-0.7468989540650313],[-52.40448474884033,-0.7472422476349578],[-52.40435600280762,-0.7479502905381992],[-52.40435600280762,-0.7482935840259444],[-52.40411996841431,-0.7487656125277056],[-52.40411996841431,-0.7509541076440343],[-52.40452766418457,-0.7512544892412478],[-52.4108362197876,-0.7577770559594654],[-52.42268085479736,-0.7564253406343084],[-52.423882484436035,-0.7598797234043815],[-52.41308927536011,-0.7611670703147126],[-52.41673707962036,-0.7669172151466626],[-52.41982698440552,-0.7704574124175565],[-52.42278814315796,-0.7745125438579947],[-52.42233753204346,-0.7745125438579947],[-52.42233753204346,-0.7745983667037564],[-52.422637939453125,-0.7751991265755009],[-52.422873973846436,-0.7751991265755009],[-52.42321729660034,-0.7755424178925239],[-52.423603534698486,-0.775628240717424],[-52.42377519607544,-0.7758642534769393],[-52.42401123046875,-0.7763362789564638],[-52.424118518829346,-0.7763362789564638],[-52.4247407913208,-0.7771730512679227],[-52.438645362854004,-0.7741692524575257],[-52.44025468826294,-0.7772374183619206],[-52.45501756668091,-0.7727102636955863],[-52.45705604553223,-0.7755424178925239],[-52.45978116989136,-0.7786105828004679],[-52.4358344078064,-0.7877077858719588],[-52.43643522262573,-0.7881154430935879],[-52.43757247924805,-0.7890594912430657],[-52.45428800582886,-0.7827515290992295],[-52.45720624923706,-0.7854978539243973],[-52.459115982055664,-0.7853905756447404],[-52.46044635772705,-0.7881368987357149],[-52.462858341788795,-0.7892740476108031],[-52.46289253234863,-0.7892740476108031],[-52.464587688446045,-0.7900893617072455],[-52.465059757232666,-0.7909904981540024],[-52.46570348739624,-0.7921920131119293]]]}}]}
