{"type":"FeatureCollection","features":[{"type":"Feature","properties":{"projectId":"VCS2619","name":"Tombwe Smallholder Reforestation Project","sourceRegistry":"Verra VCS","externalId":"VCS2619","projectType":"afforestation","country":"Zambia","vintageYears":[],"sourceUrl":"https://zenodo.org/records/11459391","license":"CC BY 4.0 (Karnik et al. dataset); CarbonPlan Terms of Use also apply to the PMTiles derivative","retrievedAt":"2026-10-05","illustrative":false},"geometry":{"type":"MultiPolygon","coordinates":[[[[25.375585556030273,-14.902902432167494],[25.375864505767822,-14.902923168068028],[25.37588596343994,-14.902798752634894],[25.376808643341064,-14.902798752634894],[25.376851558685303,-14.901803426581452],[25.376787185668945,-14.900994720775017],[25.376851558685303,-14.900538526416],[25.376851558685303,-14.900040858740226],[25.376036167144775,-14.899978650199898],[25.376079082489014,-14.899729815858805],[25.37670135498047,-14.899688343440673],[25.37689447402954,-14.899833496869192],[25.377087593078613,-14.899916441641565],[25.377838611602783,-14.899937177829685],[25.377624034881592,-14.899771288268951],[25.377581119537354,-14.899522453688249],[25.377473831176758,-14.899335827564016],[25.377259254455566,-14.899128465014059],[25.376830101013184,-14.898941838548396],[25.376336574554443,-14.898921102264438],[25.376358032226562,-14.898817420814751],[25.376615524291992,-14.898775948220916],[25.376980304718018,-14.898817420814751],[25.37713050842285,-14.898796684518828],[25.37717342376709,-14.898651530391419],[25.377366542816162,-14.898547848811944],[25.377302169799805,-14.898423430850698],[25.3769588470459,-14.89844416718256],[25.376293659210205,-14.898755211920971],[25.376121997833252,-14.898734475619065],[25.37614345550537,-14.898589321449734],[25.376293659210205,-14.898506376166182],[25.376336574554443,-14.898402694516818],[25.376336574554443,-14.898278276471714],[25.376272201538086,-14.898133121994888],[25.3764009475708,-14.898029440165828],[25.376572608947754,-14.898133121994888],[25.37663698196411,-14.898278276471714],[25.376722812652588,-14.898381958180963],[25.37693738937378,-14.898340485503255],[25.377001762390137,-14.898153858354718],[25.3769588470459,-14.898050176535634],[25.37719488143921,-14.897946494666655],[25.376830101013184,-14.89773913077893],[25.3769588470459,-14.897635448760198],[25.37717342376709,-14.897635448760198],[25.37738800048828,-14.89773913077893],[25.377559661865234,-14.898133121994888],[25.37794589996338,-14.898236803774026],[25.378267765045166,-14.898278276471714],[25.378074645996094,-14.897987967420235],[25.377860069274902,-14.897822076357969],[25.377988815307617,-14.897718394379169],[25.378353595733643,-14.897780603572443],[25.378611087799072,-14.89773913077893],[25.37891149520874,-14.897842812747754],[25.379254817962646,-14.898050176535634],[25.379297733306885,-14.898340485503255],[25.37919044494629,-14.899688343440673],[25.379576683044434,-14.899916441641565],[25.37944793701172,-14.900144539600873],[25.378289222717285,-14.900082331090474],[25.37792444229126,-14.903006111650186],[25.37893295288086,-14.903068319315821],[25.37895441055298,-14.902715808972843],[25.379104614257812,-14.902840224453925],[25.379490852355957,-14.902715808972843],[25.379769802093506,-14.902425505904091],[25.379791259765625,-14.902259618260459],[25.379726886749268,-14.902093730489014],[25.3798770904541,-14.90199005056698],[25.380263328552246,-14.901969314576576],[25.380327701568604,-14.901803426581452],[25.380327701568604,-14.901575330379487],[25.380499362945557,-14.90145091416747],[25.38064956665039,-14.90153385831681],[25.38064956665039,-14.901658274480894],[25.38090705871582,-14.901699746519611],[25.38094997406006,-14.90147165020781],[25.38112163543701,-14.90140944208082],[25.38114309310913,-14.90120208152777],[25.38094997406006,-14.901243553654353],[25.380842685699463,-14.901430178125153],[25.38062810897827,-14.901367969986197],[25.380606651306152,-14.901056929021792],[25.380370616912842,-14.900787359822544],[25.380370616912842,-14.90045558188325],[25.380520820617676,-14.900310428874036],[25.38069248199463,-14.90010306726262],[25.38165807723999,-14.900123803432734],[25.381958484649658,-14.900082331090474],[25.382065773010254,-14.899750552064873],[25.382087230682373,-14.899460244998139],[25.381829738616943,-14.899190673800021],[25.381357669830322,-14.899024783664217],[25.381035804748535,-14.899045519938184],[25.380821228027344,-14.898817420814751],[25.380520820617676,-14.898817420814751],[25.38039207458496,-14.898610057765637],[25.38045644760132,-14.89844416718256],[25.38090705871582,-14.89844416718256],[25.3814435005188,-14.898506376166182],[25.381529331207275,-14.898672266701325],[25.38167953491211,-14.898838157108685],[25.381958484649658,-14.89856858513184],[25.382001399993896,-14.898610057765637],[25.382022857666016,-14.898734475619065],[25.382087230682373,-14.898775948220916],[25.38219451904297,-14.898755211920971],[25.382559299468994,-14.898900365978506],[25.38294553756714,-14.898858893400615],[25.383224487304688,-14.892347599625666],[25.380477905273438,-14.892202441152321],[25.380263328552246,-14.891642543267523],[25.380370616912842,-14.891497384319152],[25.38013458251953,-14.891414436304728],[25.379748344421387,-14.891497384319152],[25.379812717437744,-14.891912123912192],[25.379791259765625,-14.892451284189619],[25.379576683044434,-14.892472021096438],[25.37944793701172,-14.892347599625666],[25.379490852355957,-14.892015808685713],[25.37938356399536,-14.891870649988817],[25.379469394683838,-14.89145591031594],[25.37944793701172,-14.891372962285558],[25.379533767700195,-14.891207066128999],[25.379512310028076,-14.89108264392776],[25.379533767700195,-14.890999695753706],[25.378546714782715,-14.89093748460219],[25.37841796875,-14.89352960069668],[25.378718376159668,-14.893591811099725],[25.37869691848755,-14.893840652532248],[25.378353595733643,-14.893840652532248],[25.37813901901245,-14.893736968636972],[25.37820339202881,-14.893612547896751],[25.378353595733643,-14.89093748460219],[25.3774094581604,-14.890896010491204],[25.377323627471924,-14.892617179388154],[25.377259254455566,-14.893322232556798],[25.3774094581604,-14.893550337499704],[25.377345085144043,-14.894068756926217],[25.377087593078613,-14.894068756926217],[25.377066135406494,-14.894317597807827],[25.37766695022583,-14.89485675206518],[25.378010272979736,-14.894939698754229],[25.378096103668213,-14.895230011914364],[25.378267765045166,-14.895209275273047],[25.378310680389404,-14.895478851454513],[25.378289222717285,-14.895624007720158],[25.37843942642212,-14.89560327111677],[25.378525257110596,-14.895499588069868],[25.378568172454834,-14.895147065337099],[25.379233360290527,-14.895230011914364],[25.379297733306885,-14.895375168347712],[25.379555225372314,-14.895520324683247],[25.379598140716553,-14.896266841435093],[25.38062810897827,-14.896225368350102],[25.38062810897827,-14.895644744321572],[25.381078720092773,-14.89568621751836],[25.38114309310913,-14.895769163888005],[25.381464958190918,-14.895769163888005],[25.381529331207275,-14.89558253451139],[25.381765365600586,-14.895478851454513],[25.381786823272705,-14.895250748553693],[25.381529331207275,-14.895084855383203],[25.381572246551514,-14.894981172086759],[25.382065773010254,-14.894607911806375],[25.38187265396118,-14.894400544704482],[25.381851196289062,-14.894234650879227],[25.382838249206543,-14.8942139141421],[25.3829026222229,-14.894587175105173],[25.38264513015747,-14.894753068658943],[25.382602214813232,-14.89502264541133],[25.38266658782959,-14.896018002805278],[25.382473468780518,-14.896308314512126],[25.38213014602661,-14.896018002805278],[25.381979942321777,-14.895810637060848],[25.381615161895752,-14.895748427298585],[25.381486415863037,-14.895852110225704],[25.38140058517456,-14.896536416292975],[25.380971431732178,-14.896536416292975],[25.380864143371582,-14.896349787581144],[25.379855632781982,-14.896453470218802],[25.3794264793396,-14.896536416292975],[25.379469394683838,-14.895769163888005],[25.379340648651123,-14.895624007720158],[25.37912607192993,-14.895706954113763],[25.37912607192993,-14.896100949047167],[25.379276275634766,-14.896349787581144],[25.379297733306885,-14.896743781338671],[25.379211902618408,-14.896847463786656],[25.37889003753662,-14.896619362335201],[25.377538204193115,-14.896536416292975],[25.37691593170166,-14.896557152806537],[25.376572608947754,-14.896349787581144],[25.376765727996826,-14.89618389525711],[25.377044677734375,-14.896287577974604],[25.37715196609497,-14.896121685602651],[25.377323627471924,-14.896204631804594],[25.377602577209473,-14.895748427298585],[25.377731323242188,-14.895624007720158],[25.377559661865234,-14.895561797904008],[25.377624034881592,-14.895354431720364],[25.377516746520996,-14.895209275273047],[25.37738800048828,-14.895230011914364],[25.37717342376709,-14.89545811483714],[25.376765727996826,-14.89502264541133],[25.377023220062256,-14.894794542027427],[25.376765727996826,-14.894524964989586],[25.376765727996826,-14.8942139141421],[25.37691593170166,-14.89417244066182],[25.376830101013184,-14.893985809901821],[25.377023220062256,-14.893944336377643],[25.376808643341064,-14.893674758275836],[25.376765727996826,-14.893363706200745],[25.377066135406494,-14.893280758904865],[25.377044677734375,-14.89299044311781],[25.37713050842285,-14.892658653167842],[25.37713050842285,-14.89249275800124],[25.377087593078613,-14.89230612578612],[25.37719488143921,-14.892078019525883],[25.377109050750732,-14.891891386951514],[25.377066135406494,-14.891538858314377],[25.377237796783447,-14.890771588110354],[25.37715196609497,-14.890896010491204],[25.376980304718018,-14.89093748460219],[25.37693738937378,-14.890875273432727],[25.376980304718018,-14.890750851039897],[25.37719488143921,-14.890647165657654],[25.377302169799805,-14.887889116176396],[25.37620782852173,-14.887826904126882],[25.375821590423584,-14.897324402404507],[25.376057624816895,-14.897365875277885],[25.37614345550537,-14.897531766691543],[25.376014709472656,-14.897635448760198],[25.375800132751465,-14.897593975938733],[25.375585556030273,-14.902902432167494]],[[25.37895441055298,-14.902363298052705],[25.378997325897217,-14.90134723393588],[25.379104614257812,-14.900932512510224],[25.379104614257812,-14.900600734794594],[25.37914752960205,-14.900144539600873],[25.379233360290527,-14.900248220411584],[25.37940502166748,-14.900808095926777],[25.37938356399536,-14.90134723393588],[25.379276275634766,-14.902363298052705],[25.37912607192993,-14.90234256209824],[25.37895441055298,-14.902363298052705]],[[25.379233360290527,-14.894483491569204],[25.379254817962646,-14.893985809901821],[25.37938356399536,-14.893882126076392],[25.379512310028076,-14.893840652532248],[25.379962921142578,-14.893944336377643],[25.380370616912842,-14.893985809901821],[25.380477905273438,-14.894193177402954],[25.380091667175293,-14.894566438401966],[25.38015604019165,-14.894939698754229],[25.380370616912842,-14.89502264541133],[25.380327701568604,-14.895437378217778],[25.380091667175293,-14.895375168347712],[25.380070209503174,-14.895001908750046],[25.37992000579834,-14.894918962084958],[25.37970542907715,-14.894670121898017],[25.379469394683838,-14.894690858591247],[25.379233360290527,-14.894483491569204]]],[[[25.376980304718018,-14.902674337129852],[25.377001762390137,-14.902964639863086],[25.377259254455566,-14.902985375757638],[25.37743091583252,-14.902840224453925],[25.37768840789795,-14.902778016722365],[25.37770986557007,-14.90252918561643],[25.377516746520996,-14.902425505904091],[25.377559661865234,-14.902238882296032],[25.377581119537354,-14.901782690573086],[25.377817153930664,-14.901699746519611],[25.378010272979736,-14.900144539600873],[25.377967357635498,-14.900040858740226],[25.377087593078613,-14.900040858740226],[25.377109050750732,-14.900476318019429],[25.377044677734375,-14.901160609393173],[25.377044677734375,-14.901782690573086],[25.376980304718018,-14.902674337129852]]],[[[25.3774094581604,-14.890688639816531],[25.378332138061523,-14.890750851039897],[25.37846088409424,-14.887951328207961],[25.377538204193115,-14.887889116176396],[25.3774094581604,-14.890688639816531]]],[[[25.377581119537354,-14.896287577974604],[25.378074645996094,-14.896329051047644],[25.37846088409424,-14.896308314512126],[25.37869691848755,-14.896100949047167],[25.378847122192383,-14.896059475930215],[25.37889003753662,-14.89591431995801],[25.378482341766357,-14.895872846805148],[25.378289222717285,-14.895748427298585],[25.378031730651855,-14.895831373644285],[25.377795696258545,-14.895852110225704],[25.377581119537354,-14.89618389525711],[25.377581119537354,-14.896287577974604]]],[[[25.378568172454834,-14.890771588110354],[25.379555225372314,-14.890792325178822],[25.379619598388672,-14.889195565067695],[25.379726886749268,-14.889237039505957],[25.379726886749268,-14.890792325178822],[25.383288860321045,-14.89083379930976],[25.383310317993164,-14.890149475128396],[25.380585193634033,-14.890066526595106],[25.380606651306152,-14.889796943641358],[25.383310317993164,-14.88994210373528],[25.383353233337402,-14.88909187893708],[25.379748344421387,-14.888946718270432],[25.379748344421387,-14.888552710253776],[25.37964105606079,-14.888552710253776],[25.37968397140503,-14.888096489545077],[25.378825664520264,-14.88807575221719],[25.378782749176025,-14.887972065547828],[25.37865400314331,-14.887951328207961],[25.378568172454834,-14.890771588110354]]],[[[25.38045644760132,-14.891144855037382],[25.380713939666748,-14.891476647318555],[25.380477905273438,-14.89160106929225],[25.380477905273438,-14.891829176057456],[25.38062810897827,-14.892015808685713],[25.383224487304688,-14.892078019525883],[25.383267402648926,-14.89116559206991],[25.38045644760132,-14.891144855037382]]]]}}]}
