{"type":"FeatureCollection","features":[{"type":"Feature","properties":{"projectId":"VCS2079","name":"Fazenda Nascente do Luar Agroforestry Project","sourceRegistry":"Verra VCS","externalId":"VCS2079","projectType":"afforestation","country":"Brazil","vintageYears":[2020],"sourceUrl":"https://zenodo.org/records/11459391","license":"CC BY 4.0 (Karnik et al. dataset); CarbonPlan Terms of Use also apply to the PMTiles derivative","retrievedAt":"2026-10-05","illustrative":false},"geometry":{"type":"Polygon","coordinates":[[[-53.47826957702637,-18.570188801091604],[-53.47801208496094,-18.57045322689335],[-53.477604389190674,-18.570778673471125],[-53.477582931518555,-18.57102275799687],[-53.47738981246948,-18.571592287198357],[-53.47723960876465,-18.57220249494638],[-53.476853370666504,-18.572426237240222],[-53.47648859024048,-18.572772020207807],[-53.476359844207764,-18.57313814258569],[-53.47588777542114,-18.57395174505534],[-53.47543716430664,-18.574378884797838],[-53.474857807159424,-18.574643304102167],[-53.47425699234009,-18.575558598527564],[-53.4739351272583,-18.57545689938962],[-53.47363471984863,-18.575924714921882],[-53.47322702407837,-18.57584335579108],[-53.47314119338989,-18.576026413780767],[-53.4730339050293,-18.575945054698508],[-53.47290515899658,-18.575965394472718],[-53.472862243652344,-18.57620947157389],[-53.472583293914795,-18.576473888039175],[-53.472325801849365,-18.576636605660113],[-53.472347259521484,-18.576941700780793],[-53.47245454788208,-18.577043399033016],[-53.4724760055542,-18.57726713497435],[-53.47269058227539,-18.57755188938411],[-53.472840785980225,-18.57751121021184],[-53.47314119338989,-18.577755285099855],[-53.47318410873413,-18.578060378218453],[-53.4733772277832,-18.578060378218453],[-53.47365617752075,-18.578528186606434],[-53.474063873291016,-18.578772260038335],[-53.474063873291016,-18.579301084608574],[-53.47389221191406,-18.5794637995309],[-53.474085330963135,-18.579707871623114],[-53.47421407699585,-18.580073979106146],[-53.474299907684326,-18.580175675489684],[-53.474106788635254,-18.580480764276132],[-53.47417116165161,-18.58066381728591],[-53.474063873291016,-18.580846870099066],[-53.474364280700684,-18.581151957684114],[-53.47445011138916,-18.58129433170356],[-53.451876640319824,-18.58959249761071],[-53.44550371170044,-18.593680416035525],[-53.4375,-18.593558390040485],[-53.42434644699097,-18.593314337788144],[-53.42052698135376,-18.59014162668528],[-53.4200119972229,-18.590121288602987],[-53.4200119972229,-18.589917907646353],[-53.41977596282959,-18.58971452644691],[-53.41958284378052,-18.589734864577792],[-53.41934680938721,-18.58967385017789],[-53.41934680938721,-18.589511145004664],[-53.41902494430542,-18.58926708695344],[-53.41853141784668,-18.589185734192014],[-53.41805934906006,-18.58932810149902],[-53.417930603027344,-18.58926708695344],[-53.417909145355225,-18.58916539599558],[-53.41782331466675,-18.589124719595432],[-53.41784477233887,-18.589002690336727],[-53.41775894165039,-18.58890099922104],[-53.417673110961914,-18.58894167567459],[-53.41752290725708,-18.58894167567459],[-53.41728687286377,-18.588778969802078],[-53.41705083847046,-18.58865694029572],[-53.416900634765625,-18.58837220444093],[-53.416900634765625,-18.588229836335074],[-53.41679334640503,-18.587945099766472],[-53.41670751571655,-18.587884084725587],[-53.41657876968384,-18.58784340801951],[-53.416686058044434,-18.587701039471767],[-53.41632127761841,-18.587558670805066],[-53.41602087020874,-18.587233256263005],[-53.41595649719238,-18.58686716416028],[-53.415677547454834,-18.58672479479678],[-53.41548442840576,-18.586501071270916],[-53.41524839401245,-18.58666377931884],[-53.41479778289795,-18.586480732753998],[-53.414626121520996,-18.5862773474513],[-53.41449737548828,-18.58591125329464],[-53.41411113739014,-18.58558583560618],[-53.41400384902954,-18.58558583560618],[-53.41378927230835,-18.58528075595879],[-53.41372489929199,-18.58515872394689],[-53.41357469558716,-18.585097707908176],[-53.41374635696411,-18.584914659660924],[-53.413896560668945,-18.58462991755212],[-53.413896560668945,-18.584467207562042],[-53.41378927230835,-18.584345174967524],[-53.41357469558716,-18.584589240069178],[-53.41355323791504,-18.58444686880236],[-53.41323137283325,-18.58450788507413],[-53.41336011886597,-18.584243481071994],[-53.41297388076782,-18.583999415475134],[-53.41297388076782,-18.583877382545623],[-53.41282367706299,-18.583735010684066],[-53.41275930404663,-18.583511283232724],[-53.41230869293213,-18.5832061998712],[-53.41222286224365,-18.583023149592123],[-53.4120512008667,-18.583104505295978],[-53.41157913208008,-18.582718065356715],[-53.41155767440796,-18.58263670946836],[-53.41121435165405,-18.582596031509624],[-53.4110426902771,-18.582453658577577],[-53.41054916381836,-18.583084166373652],[-53.400700092315674,-18.584650256289947],[-53.40054988861084,-18.584324836193275],[-53.38327646255493,-18.592907583257087],[-53.383212089538574,-18.59284656999364],[-53.38338375091553,-18.592683867850937],[-53.38327646255493,-18.591951706285457],[-53.38306188583374,-18.591931368419267],[-53.38299751281738,-18.59142292097532],[-53.382675647735596,-18.59111785178044],[-53.382675647735596,-18.590934810001258],[-53.38258981704712,-18.590772106032418],[-53.382418155670166,-18.59058906388171],[-53.382418155670166,-18.59026365512814],[-53.38224649429321,-18.590039936249468],[-53.38205337524414,-18.58965351203973],[-53.38186025619507,-18.58959249761071],[-53.38164567947388,-18.58936877785061],[-53.381452560424805,-18.58926708695344],[-53.381474018096924,-18.589206072386006],[-53.38138818740845,-18.589206072386006],[-53.381195068359375,-18.58910438139172],[-53.38104486465454,-18.589185734192014],[-53.380937576293945,-18.589145057796713],[-53.380980491638184,-18.589246748766726],[-53.38057279586792,-18.58938911602276],[-53.380422592163086,-18.589002690336727],[-53.38027238845825,-18.588697616807536],[-53.380165100097656,-18.58863660203616],[-53.379671573638916,-18.588575587242914],[-53.37960720062256,-18.58837220444093],[-53.3796501159668,-18.58806712978273],[-53.37958574295044,-18.587741716211838],[-53.37952136993408,-18.58761968596251],[-53.379435539245605,-18.58735528678912],[-53.37934970855713,-18.587294271536976],[-53.37937116622925,-18.587151902530394],[-53.37928533554077,-18.586968856489932],[-53.379414081573486,-18.586846825687076],[-53.379478454589844,-18.586643440821362],[-53.37930679321289,-18.5862773474513],[-53.37937116622925,-18.58589091470732],[-53.379950523376465,-18.585097707908176],[-53.379929065704346,-18.584934998364773],[-53.37984323501587,-18.584792627386847],[-53.380186557769775,-18.583897721373276],[-53.38029384613037,-18.583735010684066],[-53.38025093078613,-18.583409588839572],[-53.38035821914673,-18.583124844215874],[-53.380186557769775,-18.582819760162536],[-53.380229473114014,-18.58265704844409],[-53.38027238845825,-18.58263670946836],[-53.380229473114014,-18.582351963553307],[-53.38027238845825,-18.582250268468343],[-53.380444049835205,-18.582351963553307],[-53.38061571121216,-18.58196552190762],[-53.380701541900635,-18.581843487521667],[-53.380722999572754,-18.5816604357789],[-53.38087320327759,-18.5816604357789],[-53.38089466094971,-18.581619757587134],[-53.38059425354004,-18.581375688232697],[-53.38061571121216,-18.581050261883107],[-53.380422592163086,-18.580948566021405],[-53.380422592163086,-18.580806191713123],[-53.38048696517944,-18.580765513317473],[-53.380208015441895,-18.580623138856282],[-53.37990760803223,-18.580623138856282],[-53.379714488983154,-18.580196014759082],[-53.379971981048584,-18.57974855027119],[-53.37977886199951,-18.57960617496049],[-53.37949991226196,-18.57962651429787],[-53.37930679321289,-18.579240066472664],[-53.379414081573486,-18.57903667252853],[-53.37960720062256,-18.578975654297963],[-53.379435539245605,-18.578812938909692],[-53.37902784347534,-18.578589204997172],[-53.378920555114746,-18.578711241713137],[-53.37879180908203,-18.578589204997172],[-53.37874889373779,-18.57844682871813],[-53.37879180908203,-18.578345131303152],[-53.37879180908203,-18.578101057259673],[-53.378727436065674,-18.57793834103653],[-53.378448486328125,-18.577572228966602],[-53.37834119796753,-18.57726713497435],[-53.37827682495117,-18.57684000246789],[-53.37806224822998,-18.576799323125755],[-53.377676010131836,-18.576962040436086],[-53.377482891082764,-18.576677285041086],[-53.37739706039429,-18.576311170262912],[-53.377525806427,-18.576189131828798],[-53.37754726409912,-18.576046753545256],[-53.377439975738525,-18.575884035361327],[-53.37726831436157,-18.57586369557741],[-53.37705373764038,-18.575904375142798],[-53.37690353393555,-18.575823016002317],[-53.3765172958374,-18.5757213170221],[-53.376431465148926,-18.57545689938962],[-53.376452922821045,-18.575111121866826],[-53.37634563446045,-18.57490772299643],[-53.376452922821045,-18.574643304102167],[-53.37630271911621,-18.574500924527698],[-53.376195430755615,-18.57415514506617],[-53.37574481964111,-18.573605964480095],[-53.375680446624756,-18.57344324396675],[-53.375208377838135,-18.57313814258569],[-53.37501525878906,-18.57307712224396],[-53.37490797042847,-18.57275168005266],[-53.37458610534668,-18.57206011333382],[-53.37411403656006,-18.571368543810337],[-53.3746075630188,-18.57138888413047],[-53.37454319000244,-18.57108377907373],[-53.3746075630188,-18.570860035018526],[-53.374199867248535,-18.570432886461617],[-53.37432861328125,-18.56921245611825],[-53.374199867248535,-18.56904973141262],[-53.374457359313965,-18.568825984688885],[-53.3750581741333,-18.56848019372032],[-53.37559461593628,-18.568398831037598],[-53.37583065032959,-18.568154742756562],[-53.376216888427734,-18.568175083459977],[-53.37630271911621,-18.56801235776463],[-53.37664604187012,-18.56793099485874],[-53.377203941345215,-18.567686905908204],[-53.37750434875488,-18.567605542847076],[-53.37801933288574,-18.567361453430806],[-53.37838411331177,-18.567442816608363],[-53.37874889373779,-18.56730043102216],[-53.37874889373779,-18.566974977807362],[-53.37902784347534,-18.56677156923277],[-53.37939262390137,-18.566588501308274],[-53.379714488983154,-18.566324069514906],[-53.380165100097656,-18.566344410436642],[-53.38048696517944,-18.566242705803703],[-53.380722999572754,-18.565998614437262],[-53.380959033966064,-18.565937591541086],[-53.381216526031494,-18.565713840734986],[-53.38128089904785,-18.56544940758576],[-53.381688594818115,-18.565388384493104],[-53.382225036621094,-18.56518497402665],[-53.38261127471924,-18.564879857872185],[-53.382933139801025,-18.565083268702452],[-53.383169174194336,-18.56506292763035],[-53.38314771652222,-18.564920540057628],[-53.38334083557129,-18.56445269433914],[-53.383169174194336,-18.5641068945052],[-53.382933139801025,-18.563842458865125],[-53.383212089538574,-18.563333927636094],[-53.383426666259766,-18.563272903786753],[-53.383705615997314,-18.56311017341514],[-53.38376998901367,-18.5629474428883],[-53.383920192718506,-18.56260164000345],[-53.38428497314453,-18.562764370860094],[-53.38430643081665,-18.56258129863545],[-53.38452100753784,-18.562418567604183],[-53.38529348373413,-18.562418567604183],[-53.3851432800293,-18.56217447076628],[-53.385164737701416,-18.561564227143748],[-53.38535785675049,-18.561238762985994],[-53.38555097579956,-18.561279446039677],[-53.38628053665161,-18.56050646636129],[-53.38675260543823,-18.560404758248197],[-53.38784694671631,-18.56032339171408],[-53.38829755783081,-18.56014031687046],[-53.388683795928955,-18.560038608539116],[-53.38928461074829,-18.56007929187892],[-53.38984251022339,-18.55989621677341],[-53.39005708694458,-18.5596521163272],[-53.39027166366577,-18.55953006597315],[-53.3906364440918,-18.55979450829659],[-53.39123725891113,-18.55910288904657],[-53.39134454727173,-18.559184256162652],[-53.39155912399292,-18.55910288904657],[-53.39252471923828,-18.55894015469805],[-53.39286804199219,-18.558980838299718],[-53.39334011077881,-18.558797762015786],[-53.39361906051636,-18.558838445651404],[-53.393962383270264,-18.558736736544162],[-53.394176959991455,-18.558696052884272],[-53.39460611343384,-18.558797762015786],[-53.395206928253174,-18.559001180096928],[-53.395678997039795,-18.558818103834824],[-53.39585065841675,-18.558574001846466],[-53.39651584625244,-18.558329899508962],[-53.39681625366211,-18.558329899508962],[-53.39737415313721,-18.55822819009863],[-53.3975887298584,-18.558085796822326],[-53.39823246002197,-18.557862035719538],[-53.398425579071045,-18.55798408726652],[-53.39898347854614,-18.557923061503928],[-53.399498462677,-18.557780667973034],[-53.39999198913574,-18.557780667973034],[-53.40048551559448,-18.557617932363712],[-53.40085029602051,-18.557801009913305],[-53.40123653411865,-18.557862035719538],[-53.40132236480713,-18.557719642137727],[-53.40183734893799,-18.557577248437113],[-53.40205192565918,-18.557373828658726],[-53.40170860290527,-18.55719075065089],[-53.40205192565918,-18.556844936100248],[-53.40205192565918,-18.556682199598683],[-53.40226650238037,-18.556661857525086],[-53.402695655822754,-18.55672288373863],[-53.402674198150635,-18.55651946294195],[-53.402910232543945,-18.556295699785593],[-53.402953147888184,-18.556051594189526],[-53.403382301330566,-18.556031252040782],[-53.40351104736328,-18.555848172592817],[-53.403425216674805,-18.555746461703535],[-53.403167724609375,-18.555644750753643],[-53.403382301330566,-18.555563381950094],[-53.403661251068115,-18.555644750753643],[-53.40383291244507,-18.55558372415463],[-53.40402603149414,-18.555136195095102],[-53.40432643890381,-18.55509551057696],[-53.40421915054321,-18.554668322551038],[-53.404390811920166,-18.554668322551038],[-53.404669761657715,-18.554322502889875],[-53.40471267700195,-18.554078394471958],[-53.40512037277222,-18.55375291603839],[-53.40552806854248,-18.553895312929427],[-53.40559244155884,-18.55371223119056],[-53.405914306640625,-18.55367154633302],[-53.405935764312744,-18.553468121899954],[-53.4061074256897,-18.55334606712374],[-53.40621471405029,-18.55316298479579],[-53.40623617172241,-18.553081614809244],[-53.40580701828003,-18.55265442174354],[-53.40533494949341,-18.55167797643638],[-53.40462684631348,-18.550742211109906],[-53.40385437011719,-18.550091240901352],[-53.40312480926514,-18.549847126433278],[-53.40278148651123,-18.54954198285739],[-53.40260982513428,-18.54931821055517],[-53.402137756347656,-18.54854517670927],[-53.40121507644653,-18.548117972293042],[-53.40033531188965,-18.548056943003473],[-53.399949073791504,-18.548077286102412],[-53.399434089660645,-18.547772139363772],[-53.39909076690674,-18.54769076680803],[-53.39883327484131,-18.54769076680803],[-53.3984899520874,-18.54762973736581],[-53.39829683303833,-18.54769076680803],[-53.397953510284424,-18.54762973736581],[-53.39705228805542,-18.54793488435891],[-53.39660167694092,-18.54791454124299],[-53.396408557891846,-18.547853511880717],[-53.398597240448,-18.540204325819772],[-53.402395248413086,-18.537681646799257],[-53.43056917190552,-18.54309315442832],[-53.43153476715088,-18.54343899683235],[-53.43119144439697,-18.552328940595018],[-53.4309983253479,-18.553142642302802],[-53.431105613708496,-18.55371223119056],[-53.43067646026611,-18.5629474428883],[-53.430376052856445,-18.568825984688885],[-53.43578338623047,-18.57058604942035],[-53.43578338623047,-18.57057526943281],[-53.4375,-18.57114480012875],[-53.43921661376953,-18.571693988641343],[-53.43921661376953,-18.571701861544817],[-53.45179080963135,-18.575782336417504],[-53.45179080963135,-18.576799323125755],[-53.456876277923584,-18.575111121866826],[-53.46796989440918,-18.571734669201547],[-53.47820520401001,-18.56911075319543],[-53.478097915649414,-18.56937518066863],[-53.47790479660034,-18.569598926671873],[-53.47826957702637,-18.570188801091604]]]}}]}
