{"type":"FeatureCollection","features":[{"type":"Feature","properties":{"projectId":"VCS562","name":"The Kasigau Corridor REDD Project – Phase I Rukinga Sanctuary","sourceRegistry":"Verra VCS","externalId":"VCS562","projectType":"avoided_deforestation","country":"Kenya","vintageYears":[2005,2006,2007,2008,2009,2010,2011,2012,2013,2014,2015,2016,2017,2018,2019,2020,2021,2022],"sourceUrl":"https://zenodo.org/records/11459391","license":"CC BY 4.0 (Karnik et al. dataset); CarbonPlan Terms of Use also apply to the PMTiles derivative","retrievedAt":"2026-10-05","illustrative":false},"geometry":{"type":"Polygon","coordinates":[[[38.67811918258667,-3.7216595813885363],[38.71241969010976,-3.7748464220467355],[38.71240854263306,-3.7748464220467355],[38.71352434158325,-3.776559309876859],[38.71461868286133,-3.778272194326817],[38.71462898559359,-3.778272194326817],[38.759765625,-3.8482620254751367],[38.76898143157616,-3.86254190291406],[38.76897096633911,-3.86254190291406],[38.77008676528931,-3.864254615721393],[38.77118110656738,-3.8659673250705424],[38.771191989411875,-3.8659673250705424],[38.7781548500061,-3.8767573143523606],[38.78439549899614,-3.8659673250705424],[38.78439903259277,-3.8659673250705424],[38.785386085510254,-3.864254615721393],[38.83609056472778,-3.776559309876859],[38.84593963623047,-3.759511089962005],[38.84593963623047,-3.7595159257088966],[38.84765625,-3.7565397226565835],[38.86293411254883,-3.7301174471034244],[38.84765625,-3.7188973747309433],[38.83235692977905,-3.7076343340208098],[38.835790157318115,-3.702495256346367],[38.82123021448608,-3.6905681987022234],[38.82124185562134,-3.6905681987022234],[38.81913900375366,-3.6888551431470376],[38.817057609558105,-3.6871420842897606],[38.81704924801863,-3.6871420842897606],[38.78068685531616,-3.657334333150942],[38.81434684569888,-3.60285554282153],[38.814353942871094,-3.60285554282153],[38.81540536880493,-3.601142320158729],[38.81561994552612,-3.60079967523923],[38.797616958618164,-3.591505382651974],[38.79246711730957,-3.601142320158729],[38.782896995544434,-3.61910958214969],[38.759765625,-3.6136487713641117],[38.74549627304077,-3.6103080238518146],[38.7188458442688,-3.681981474540237],[38.7117862701416,-3.6888551431470376],[38.71002674102783,-3.6905681987022234],[38.71002816683441,-3.6905681987022234],[38.67811918258667,-3.7216595813885363]]]}}]}
