{"type":"FeatureCollection","features":[{"type":"Feature","properties":{"projectId":"VCS647","name":"Boden Creek Ecological Preserve Forest Carbon Project","sourceRegistry":"Verra VCS","externalId":"VCS647","projectType":"avoided_deforestation","country":"Belize","vintageYears":[2005,2006,2007,2008,2009,2010,2011,2012,2013,2014,2015],"sourceUrl":"https://zenodo.org/records/11459391","license":"CC BY 4.0 (Karnik et al. dataset); CarbonPlan Terms of Use also apply to the PMTiles derivative","retrievedAt":"2026-10-05","illustrative":false},"geometry":{"type":"Polygon","coordinates":[[[-88.8622498512268,16.299565896080352],[-88.8620138168335,16.299051014581835],[-88.86132717132568,16.297403384695045],[-88.86131410872323,16.297403384695045],[-88.85913848876953,16.29228036781781],[-88.85913848876953,16.29227504801959],[-88.857421875,16.28823819064526],[-88.84853839874268,16.267311108584636],[-88.83459091186523,16.273016843381086],[-88.81600856781006,16.22952960801561],[-88.79701852798462,16.278660620042956],[-88.7964391708374,16.278784204577093],[-88.77729892730713,16.287167173718004],[-88.76953125,16.29044199553448],[-88.75412464141846,16.296970879554294],[-88.75431776046753,16.29719742998516],[-88.7544557027759,16.297403384695045],[-88.75444650650024,16.297403384695045],[-88.75470399856567,16.297774102627415],[-88.75478982925415,16.298186010618608],[-88.75459671020508,16.298680299065154],[-88.75408172607422,16.299051014581835],[-88.75384569168091,16.29923637207716],[-88.75356674194336,16.299359943643296],[-88.75202178955078,16.30049267936822],[-88.75182867050171,16.300801606156668],[-88.75182867050171,16.301254697898614],[-88.75221490859985,16.301254697898614],[-88.75253677368164,16.301295888005015],[-88.75309467315674,16.301481243376642],[-88.75300884246826,16.30197552351035],[-88.75300884246826,16.302387422669156],[-88.75313758850098,16.302655156657963],[-88.75337362289429,16.302964080036546],[-88.75356674194336,16.303293597770065],[-88.7536096572876,16.303478951251577],[-88.7536096572876,16.303932036801413],[-88.753502368927,16.304343931846404],[-88.75345945358276,16.304735231336892],[-88.75345945358276,16.3051059353963],[-88.75369548797607,16.305559017182787],[-88.75393152236938,16.30586793598175],[-88.75421047210693,16.30609447612467],[-88.75453233718872,16.306691717063615],[-88.75481128692627,16.30700063407602],[-88.75524044036865,16.307103606305205],[-88.7555193901062,16.307103606305205],[-88.75594854354858,16.306465177611514],[-88.7560772895813,16.306053287027268],[-88.7561845779419,16.305929719683093],[-88.75650644302368,16.305970908806472],[-88.7569785118103,16.30611507067013],[-88.75762224197388,16.30623863789738],[-88.75869512557983,16.30623863789738],[-88.75903844833374,16.30619744883029],[-88.76006841659546,16.305826746836715],[-88.76026153564453,16.30566199016991],[-88.76062631607056,16.30487939411003],[-88.76161336898804,16.3037466837486],[-88.76184940338135,16.30356133052041],[-88.76199960708618,16.30354073570645],[-88.76245021820068,16.303705494157498],[-88.76264333724976,16.303705494157498],[-88.762686252594,16.303437761604187],[-88.76287937164307,16.303314192610003],[-88.76311540603638,16.303314192610003],[-88.76335144042969,16.30325240808368],[-88.76343727111816,16.303170028684946],[-88.76371622085571,16.30271694137265],[-88.76378059387207,16.30244920746827],[-88.76378059387207,16.30222266310956],[-88.76386642456055,16.302037308439367],[-88.76386642456055,16.301893143574674],[-88.76354455947876,16.301687193583902],[-88.76315832138062,16.30158421850733],[-88.76298666000366,16.301501838407106],[-88.7629222869873,16.301131127527455],[-88.76322269434961,16.300698630614633],[-88.76322269439697,16.300698630614633],[-88.76354455947876,16.300327918215217],[-88.76382350921631,16.300101371403613],[-88.7643814086914,16.29973065787415],[-88.76489639282227,16.29977184830095],[-88.76508951187134,16.29995720511438],[-88.76521825790405,16.300224942424222],[-88.76536846160889,16.30036910851645],[-88.76579761505127,16.300678035499743],[-88.76588344573975,16.300698630614633],[-88.76589059830687,16.300698630614633],[-88.76607656478882,16.300739820837933],[-88.76667737960815,16.300945771824587],[-88.76732110977173,16.30141945827225],[-88.7675142288208,16.301625408544453],[-88.76766443252563,16.301913738561822],[-88.76770734786987,16.302140283277794],[-88.76766443252563,16.302366827731788],[-88.76742839813232,16.302593371923805],[-88.76704216003418,16.30271694137265],[-88.76648426055908,16.30302586465379],[-88.7663984298706,16.303170028684946],[-88.76633405685425,16.303355382283385],[-88.7663984298706,16.30362311494929],[-88.7663984298706,16.304302742380884],[-88.76624822616577,16.304570473751966],[-88.76601219177246,16.304899988783248],[-88.76620531082153,16.305064746091006],[-88.76644134521484,16.305208908621623],[-88.76676321029663,16.305291287162902],[-88.76704216003418,16.305291287162902],[-88.7678690425956,16.305388070652388],[-88.76843690872192,16.305538422578863],[-88.76835107803345,16.305806152260942],[-88.76811504364014,16.30619744883029],[-88.76826524734497,16.30630042148175],[-88.76843690872192,16.306259232427664],[-88.7691879272461,16.306465177611514],[-88.76933813095093,16.30660933911136],[-88.76953125,16.307227172908767],[-88.76961708068848,16.307515494680544],[-88.76970291137695,16.308380457449005],[-88.7700891494751,16.309636706094594],[-88.77026081085205,16.309863241877906],[-88.77105474472046,16.310419283143972],[-88.77191305160522,16.310831164545263],[-88.77219200134277,16.31099591686319],[-88.77251386642456,16.31114007502765],[-88.77386569976807,16.31140779705146],[-88.77414464950562,16.31140779705146],[-88.77465963363647,16.311551954912673],[-88.77504587173462,16.31159314285351],[-88.77545356750488,16.311716706624054],[-88.77545356750488,16.31186086425781],[-88.77532482147217,16.312231554828642],[-88.77508878707886,16.312581650834403],[-88.77493858337402,16.313075902953187],[-88.77489566802979,16.31344659122341],[-88.7750244140625,16.313673122598573],[-88.77521753311157,16.313755497579095],[-88.77605438232422,16.313755497579095],[-88.77652645111084,16.313858466255994],[-88.77695560455322,16.314208559352352],[-88.77723455429077,16.31468221372141],[-88.77732038497925,16.315073492553154],[-88.77732038497925,16.315526551275937],[-88.77755641937256,16.31630910478168],[-88.77787828445435,16.31661800662006],[-88.77845764160156,16.316762160644473],[-88.7798523902893,16.31684453432503],[-88.78021717071533,16.317029874979525],[-88.780517578125,16.317256402207803],[-88.78148317337036,16.31770945587776],[-88.78176212310791,16.318018355505984],[-88.78195524215698,16.31838903441627],[-88.78214836120605,16.31838903441627],[-88.78251314163208,16.318162508498972],[-88.78289937973022,16.31820369504888],[-88.78322124481201,16.318512593896997],[-88.78330707550049,16.31892445826938],[-88.78345727920532,16.31915098330471],[-88.78373622894287,16.319377508077835],[-88.78416538238525,16.31945988065759],[-88.78472328186035,16.31902742422703],[-88.78485202789307,16.31884208546424],[-88.78532409667969,16.318800899048682],[-88.78547430038452,16.319295135463406],[-88.78588199615479,16.320242418435924],[-88.78607511520386,16.320777837218017],[-88.78626823425293,16.320963174147394],[-88.78639698028564,16.321457405100844],[-88.7863540649414,16.321745705913855],[-88.78620386123657,16.322095784901393],[-88.78596782684326,16.32240467760552],[-88.78540992736816,16.322919497695338],[-88.78536701202393,16.32304305431532],[-88.78508806228638,16.32339313098153],[-88.784658908844,16.32444335722151],[-88.78461599349976,16.32471106104761],[-88.78480911254883,16.325164097457204],[-88.78553867340088,16.326296683890888],[-88.78605365753174,16.327388079158823],[-88.78605365753174,16.327655778954835],[-88.78592491149902,16.328252954102553],[-88.78564596176147,16.328747166638948],[-88.78478765487671,16.32950907518577],[-88.78422975540161,16.330435716715186],[-88.79583835601807,16.335521870907684],[-88.79583835601807,16.334080464126487],[-88.79613876342773,16.33393632286385],[-88.79639625549316,16.33368922330925],[-88.798348903656,16.332494904392775],[-88.8059663772583,16.327923478384477],[-88.8085412979126,16.326337868728544],[-88.8100004196167,16.325370022751102],[-88.81019353866577,16.325308245185695],[-88.81030082702637,16.325184689996348],[-88.81040811538696,16.32512291237242],[-88.81075143814087,16.324834616536094],[-88.81158828735352,16.323804985080926],[-88.81225347518921,16.32312542535196],[-88.81268262863159,16.322610605804],[-88.8131332397461,16.322239934890675],[-88.82047176361084,16.317771235842415],[-88.82077217102051,16.317730049201487],[-88.82117986679077,16.317524115866817],[-88.82169485092163,16.31744174247227],[-88.82308959960938,16.317276995579178],[-88.82349729537964,16.317318182315447],[-88.82360458374023,16.317297588948406],[-88.82396936416626,16.31713284193397],[-88.82787466049194,16.315814860826265],[-88.828604221344,16.315588331929618],[-88.82920503616333,16.315464770602773],[-88.83004188537598,16.315238241300946],[-88.83032083511353,16.314991118127253],[-88.83042812347412,16.314826369171456],[-88.83059978485107,16.31466162007702],[-88.83102893829346,16.314352715151202],[-88.83122205734253,16.314167371961744],[-88.83158683776855,16.313982028596783],[-88.83177995681763,16.31381727879173],[-88.83212327957153,16.31371431009316],[-88.83111476898193,16.31221096092645],[-88.83375406265259,16.31025453034087],[-88.83523464202881,16.31225214872866],[-88.83574962615967,16.311840270316623],[-88.83607149124146,16.31169611266772],[-88.836350440979,16.31169611266772],[-88.83650064468384,16.311634330785694],[-88.83675813674927,16.311572548884172],[-88.83838891983032,16.31066641208872],[-88.84021282196045,16.309513141011408],[-88.84398937225342,16.30743311707478],[-88.84424686431885,16.307227172908767],[-88.8443112373352,16.30708301186371],[-88.84446144104004,16.306959445169184],[-88.84450435638428,16.30683587839671],[-88.8448691368103,16.306362205046668],[-88.84592056274414,16.30578555768301],[-88.84647846221924,16.30543544952677],[-88.8474440574646,16.30500296211683],[-88.84787321090698,16.30487939411003],[-88.84836673736572,16.304817610077393],[-88.84894609451294,16.30463225786255],[-88.8494610786438,16.304508689621883],[-88.84974002838135,16.304488094907526],[-88.85027647018433,16.304323337114724],[-88.85042667388916,16.304240958166346],[-88.85117769241333,16.303952631574234],[-88.8528299331665,16.302881700516537],[-88.85332345962524,16.30269634646993],[-88.85403156280518,16.30232563785053],[-88.85467529296875,16.302099093348914],[-88.8552975654602,16.301934333546825],[-88.85570526123047,16.30177320796583],[-88.85570526123047,16.301790168606345],[-88.85602712631226,16.30164600355978],[-88.857421875,16.301501838407106],[-88.8587737083435,16.301337078102748],[-88.85993242263794,16.30090458164456],[-88.86028894908254,16.300698630614633],[-88.86029720306396,16.300698630614633],[-88.8622498512268,16.299565896080352]]]}}]}
