{"type":"FeatureCollection","features":[{"type":"Feature","properties":{"projectId":"VCS812","name":"Bull Run Overseas Forest Carbon Project","sourceRegistry":"Verra VCS","externalId":"VCS812","projectType":"avoided_deforestation","country":"Belize","vintageYears":[2009,2010],"sourceUrl":"https://zenodo.org/records/11459391","license":"CC BY 4.0 (Karnik et al. dataset); CarbonPlan Terms of Use also apply to the PMTiles derivative","retrievedAt":"2026-10-05","illustrative":false},"geometry":{"type":"Polygon","coordinates":[[[-88.94900321960449,17.046773584731568],[-88.94896030426025,17.04626071038831],[-88.9488959312439,17.045994015173534],[-88.94872426986694,17.045665774386663],[-88.94765138626099,17.044106622775658],[-88.94741535186768,17.043655286986905],[-88.94713640213013,17.04306034269098],[-88.94702911376953,17.042792502666643],[-88.94702911376953,17.042773127525464],[-88.94669314833716,17.041909868448272],[-88.94649267196655,17.041254982890337],[-88.9463210105896,17.040557452842805],[-88.946213722229,17.03979837306896],[-88.9453125,17.039736825925175],[-88.9432954788208,17.039634247307177],[-88.94286632537842,17.039511152891293],[-88.94241571426392,17.03928547958496],[-88.94207239151001,17.0389982586193],[-88.94007682800293,17.036126024693743],[-88.93988370895386,17.035982411839242],[-88.93962621688843,17.035859315019025],[-88.9388108253479,17.035654153471924],[-88.93829584121704,17.035572088790047],[-88.93788814544678,17.035572088790047],[-88.93767356872559,17.03559260496388],[-88.93709421157837,17.035797766578526],[-88.93664360046387,17.035797766578526],[-88.93632173538208,17.035695185799355],[-88.93535614013672,17.035100216170363],[-88.93516302108765,17.035059183712377],[-88.93462657928467,17.03520279727593],[-88.93413305282593,17.035407959318263],[-88.93383264541626,17.035633637304826],[-88.9333176612854,17.036167056917634],[-88.93308162689209,17.036290153535248],[-88.9328670501709,17.036351701813672],[-88.93243789672852,17.036392733988038],[-88.93200874328613,17.03641325007183],[-88.93102169036865,17.036290153535248],[-88.93072128295898,17.036290153535248],[-88.92891883850098,17.036474798309726],[-88.9281678199768,17.036515830457077],[-88.92797470092773,17.036454282232683],[-88.92739534378052,17.036084992460843],[-88.9257001876831,17.035633637304826],[-88.92512083053589,17.035613121135484],[-88.92409086227417,17.035736218117776],[-88.92308235168457,17.035613121135484],[-88.92261028289795,17.035715701959674],[-88.92235279083252,17.035715701959674],[-88.9199709892273,17.03512073239598],[-88.91909122467041,17.034833505032495],[-88.91870498657227,17.034669374912454],[-88.91793251037598,17.034176983687956],[-88.91707420349121,17.033828205786165],[-88.91623735427856,17.03331529592542],[-88.91578674316406,17.032945999954663],[-88.91563653945923,17.0328844505553],[-88.91546487808228,17.032843417611147],[-88.9152717590332,17.0328844505553],[-88.91441345214844,17.03329477950173],[-88.91415596008301,17.033376845183],[-88.91376972198486,17.033417878010113],[-88.91316890716553,17.033376845183],[-88.91306161880493,17.03339736159768],[-88.91297578811646,17.033479427233914],[-88.91295433044434,17.033582009228567],[-88.91306161880493,17.03374614030298],[-88.91338348388672,17.034012852991665],[-88.91383409500122,17.03427956529997],[-88.91394138336182,17.034402663160108],[-88.91400575637817,17.034689891185337],[-88.91396284103394,17.03497711876939],[-88.91095876693726,17.031879140831833],[-88.90587329864502,17.030627625258134],[-88.90593767166138,17.03052504164306],[-88.90610933303833,17.030504524913297],[-88.90625953674316,17.030545558370576],[-88.90666723251343,17.03068917540017],[-88.90681743621826,17.03068917540017],[-88.90713930130005,17.030401941230707],[-88.90844821929932,17.02972488751469],[-88.90870571136475,17.029581269744725],[-88.90896320343018,17.029335067596833],[-88.90919923782349,17.029170932651567],[-88.90971422195435,17.028965763767445],[-88.91010046005249,17.02874007773501],[-88.91027212142944,17.02855542532413],[-88.91048669815063,17.028042501004265],[-88.91117334365845,17.027693711663474],[-88.9112377166748,17.027550092334153],[-88.91115188598633,17.0274269899641],[-88.91059398651123,17.026934579673934],[-88.90930652618408,17.026442168087797],[-88.90909194946289,17.026442168087797],[-88.90896320343018,17.026360099364098],[-88.90889883041382,17.02621647901104],[-88.90889883041382,17.02601130688683],[-88.90896320343018,17.025765100040786],[-88.90909194946289,17.025498375591994],[-88.90926361083984,17.025231650762976],[-88.91010046005249,17.024185265069818],[-88.9103364944458,17.02402112560665],[-88.9108943939209,17.023795433609678],[-88.91162395477295,17.02317990859808],[-88.91177415847778,17.02309783844356],[-88.91188144683838,17.02309783844356],[-88.91258955001831,17.02334404879913],[-88.91282558441162,17.02338508382691],[-88.91319036483765,17.02334404879913],[-88.9134693145752,17.023220943661826],[-88.91361951828003,17.023077320899304],[-88.91441345214844,17.021559016382284],[-88.9142632484436,17.02137435688465],[-88.91400575637817,17.020840895090288],[-88.91372680664062,17.020492092325696],[-88.9134693145752,17.020245878218148],[-88.91284704208374,17.019753449031413],[-88.91265392303467,17.01956878775239],[-88.91252517700195,17.019302054472163],[-88.91231060028076,17.018686514682543],[-88.91209602355957,17.018337707903257],[-88.91170978546143,17.018009418576085],[-88.91140937805176,17.01782475557654],[-88.9112377166748,17.017763201202882],[-88.91102313995361,17.01774268307382],[-88.9103364944458,17.017886309929963],[-88.91014337539673,17.017886309929963],[-88.90986442565918,17.017763201202882],[-88.9092206954956,17.01737335636635],[-88.90827655792236,17.017086101756774],[-88.9078688621521,17.017086101756774],[-88.9074182510376,17.01725024730193],[-88.90722513198853,17.01727076548495],[-88.9067530632019,17.017127138156553],[-88.90623807907104,17.017086101756774],[-88.90507936477661,17.016839883169183],[-88.90402793884277,17.016962992503437],[-88.90342712402344,17.016942474286694],[-88.90289068222046,17.01686040139718],[-88.90205383300781,17.016491072949094],[-88.90160322189331,17.016101225463444],[-88.90143156051636,17.01599863388492],[-88.8999080657959,17.015383083233274],[-88.89909267425537,17.01497271500783],[-88.89870643615723,17.0146444197799],[-88.89810562133789,17.013926271961964],[-88.89784812927246,17.01368004921889],[-88.89748334884644,17.013515900543624],[-88.89690399169922,17.0134543447533],[-88.89666795730591,17.013392788942753],[-88.89589548110962,17.013146565498147],[-88.89563798904419,17.01300293500597],[-88.89548778533936,17.012818267068397],[-88.89499425888062,17.0119154434188],[-88.89499425888062,17.01162818043568],[-88.89514446258545,17.011279360506634],[-88.89518737792969,17.011115209726967],[-88.89512300491333,17.010643275433964],[-88.89514446258545,17.01017133995174],[-88.89512300491333,17.009904593283565],[-88.89492988586426,17.00896071740722],[-88.89462947845459,17.007996317577323],[-88.8943076133728,17.006703603633838],[-88.89417886734009,17.006293216389395],[-88.8939642906189,17.006046983611185],[-88.89323472976685,17.00606750302174],[-88.89235496520996,17.006170100040734],[-88.89059543609619,17.006088022430035],[-88.89029502868652,17.006149580641434],[-88.8900375366211,17.006272697003567],[-88.88958692550659,17.006642045604494],[-88.88900756835938,17.00701139347717],[-88.88887882232666,17.007237105707546],[-88.88883590698242,17.007483336921382],[-88.88898611068726,17.008242547793174],[-88.88898611068726,17.008488777685344],[-88.88890027999878,17.008755526369896],[-88.88868570327759,17.009083831921714],[-88.88806343078613,17.009596808194374],[-88.88752698898315,17.010089264094304],[-88.8873553276062,17.01017133995174],[-88.8869047164917,17.010253415773207],[-88.88669013977051,17.010376529437963],[-88.88566017150879,17.01152558640635],[-88.8845443725586,17.012366855787675],[-88.88409376144409,17.01300293500597],[-88.88394355773926,17.013105528225907],[-88.88375043869019,17.0131670841309],[-88.88278484344482,17.01331071449718],[-88.88261318206787,17.013372270334727],[-88.88244152069092,17.01347486335233],[-88.88190507888794,17.013967309054337],[-88.88166904449463,17.01413145733386],[-88.88027429580688,17.014849604364812],[-88.88012409210205,17.014952196572963],[-88.8800597190857,17.015034270298997],[-88.87990951538086,17.015629303736773],[-88.87969493865967,17.015813968901938],[-88.8795018196106,17.015896042250205],[-88.87915849685669,17.015957597237787],[-88.87825727462769,17.015937078910838],[-88.87797832489014,17.01599863388492],[-88.87778520584106,17.016101225463444],[-88.87761354446411,17.016265371872137],[-88.87709856033325,17.016819364938925],[-88.87690544128418,17.01690143784643],[-88.87660503387451,17.01686040139718],[-88.87559652328491,17.0165321094793],[-88.87529611587524,17.016491072949094],[-88.87274265289307,17.016552627741035],[-88.87134790420532,17.016491072949094],[-88.8708758354187,17.016552627741035],[-88.87016773223877,17.01686040139718],[-88.8698673248291,17.016962992503437],[-88.86971712112427,17.016962992503437],[-88.86922359466553,17.01686040139718],[-88.86800050735474,17.017004028930216],[-88.86780738830566,17.016983510717964],[-88.86761426925659,17.01692195606769],[-88.86735677719116,17.016798846706422],[-88.86712074279785,17.016573146000525],[-88.86643409729004,17.01575241386712],[-88.86621952056885,17.015526711899682],[-88.86589765548706,17.015383083233274],[-88.86439561843872,17.014890641254823],[-88.86422395706177,17.014788049012964],[-88.86394500732422,17.01450079043667],[-88.86340856552124,17.0142956054695],[-88.86272192001343,17.01388523486061],[-88.86242151260376,17.013556937725923],[-88.86132717132568,17.012141149739264],[-88.86109113693237,17.0118949246489],[-88.86083364486694,17.01171025561868],[-88.85984659194946,17.011156247435366],[-88.85956764221191,17.010930539927855],[-88.8593316078186,17.010643275433964],[-88.85901400470941,17.0101671909393],[-88.85851621627808,17.009412136898078],[-88.85845184326642,17.009350579736367],[-88.85836601257324,17.00924798448183],[-88.85819435119629,17.009124870075226],[-88.85800123214722,17.009042793759207],[-88.857421875,17.009022274674592],[-88.85637044906616,17.009022274674592],[-88.85570526123047,17.00896071740722],[-88.85570526123047,17.008964448147537],[-88.85542631149292,17.00894019831361],[-88.85491132736206,17.009083831921714],[-88.85465383529663,17.009083831921714],[-88.85355949401855,17.00867344989203],[-88.85310888290405,17.008570854244127],[-88.8495683670044,17.008222028620892],[-88.84881734848022,17.008016836774345],[-88.84864568710327,17.007873202348023],[-88.84862422943115,17.007709048583067],[-88.84840965270996,17.007975798378055],[-88.84823799133301,17.008386181936274],[-88.8483452796936,17.010766388842455],[-88.84828090667725,17.011074172009558],[-88.84806632995605,17.011874405876753],[-88.8478946685791,17.012284780892458],[-88.84697198867798,17.013721086365223],[-88.84675741195679,17.01398782759715],[-88.84656429290771,17.01413145733386],[-88.8460922241211,17.014398197981194],[-88.84512662887573,17.014849604364812],[-88.84491205215454,17.015034270298997],[-88.84461164474487,17.015383083233274],[-88.8120174407959,17.00727814426564],[-88.80897045135498,17.018624960592234],[-88.82182359695435,17.021825746446098],[-88.82508516311646,17.022646451950365],[-88.8351058959961,17.02512906418903],[-88.83536338806152,17.025641996496276],[-88.8355565071106,17.02586768626601],[-88.83583545684814,17.026052341329674],[-88.83650064468384,17.026339582177556],[-88.83665084838867,17.026442168087797],[-88.83675813674927,17.026565271105824],[-88.8368010520935,17.026708891191163],[-88.83673667907715,17.02685251116624],[-88.8364577293396,17.026996131031083],[-88.83540630340576,17.027057682367982],[-88.83504152297974,17.027201302075312],[-88.8347840309143,17.0274269899641],[-88.83452653884888,17.02781681385801],[-88.83441925048828,17.02789888194269],[-88.83429050445557,17.027878364924902],[-88.83422613143921,17.02781681385801],[-88.8340973854065,17.02746802409645],[-88.83403301239014,17.027406472894555],[-88.83373260498047,17.02730388751307],[-88.83356094360352,17.02732440459387],[-88.83326053619385,17.027529575278095],[-88.83313179016113,17.02759112643949],[-88.83274555206299,17.027652677580633],[-88.8325309753418,17.027796296831212],[-88.8324236869812,17.02796043298258],[-88.83246660232544,17.028124568989952],[-88.83259534835815,17.02826818787827],[-88.83302450180054,17.028473357527446],[-88.83313179016113,17.028616976148015],[-88.83313179016113,17.02878111157932],[-88.83304595947266,17.028863179241],[-88.8328742980957,17.028986280665976],[-88.83212327957153,17.029314550736558],[-88.83199453353882,17.029437651864512],[-88.83190870285034,17.029581269744725],[-88.83188724517822,17.029745404329972],[-88.83190870285034,17.029847988372623],[-88.83210182189941,17.030094189845414],[-88.83214473724365,17.030237807221567],[-88.83212327957153,17.03052504164306],[-88.83199453353882,17.03089434239402],[-88.83203744888306,17.031058475827066],[-88.83223056793213,17.03130467570658],[-88.83225202560425,17.03148932540354],[-88.83214473724365,17.03163294170848],[-88.83195161819458,17.03171500811895],[-88.83177995681763,17.031776557903157],[-88.8310718536377,17.031776557903157],[-88.83079290390015,17.031879140831833],[-88.83066415786743,17.032043273400674],[-88.83066415786743,17.03257670325469],[-88.83064270019531,17.03274083521137],[-88.83053541183472,17.0328844505553],[-88.83034229278564,17.03292548349046],[-88.83014917373657,17.03290496702401],[-88.82954835891724,17.032720318724657],[-88.82914066314697,17.032699802235697],[-88.82871150970459,17.032330505049572],[-88.82856130599976,17.03224843890918],[-88.82841110229492,17.032207405825503],[-88.82808923721313,17.03224843890918],[-88.82768154144287,17.03241257115397],[-88.82729530334473,17.03263825275532],[-88.82701635360718,17.03290496702401],[-88.8268232345581,17.033520460038545],[-88.82671594619751,17.03368459116696],[-88.82654428482056,17.03376665667716],[-88.82635116577148,17.03376665667716],[-88.8261365890503,17.03370510754789],[-88.82598638534546,17.03362304201069],[-88.82570743560791,17.03331529592542],[-88.82534265518188,17.03255618674997],[-88.82510662078857,17.032227922368463],[-88.82495641708374,17.032125339631094],[-88.82478475570679,17.03208430652039],[-88.82461309432983,17.032104823076864],[-88.82444143295288,17.03218688928027],[-88.82399082183838,17.03255618674997],[-88.82381916046143,17.032658769251043],[-88.82321834564209,17.032863934084347],[-88.82302522659302,17.032945999954663],[-88.8228964805603,17.033069098692607],[-88.82287502288818,17.033151164472898],[-88.82287502288818,17.033253746647617],[-88.8230037689209,17.0334383944203],[-88.8245701789856,17.03464885863731],[-88.82976293563843,17.056312790884448],[-88.82978434652408,17.056312608774352],[-88.82978439331055,17.056312790884448],[-88.84182214736938,17.056210221366257],[-88.8419508934021,17.056128165711144],[-88.8419508934021,17.056210221366257],[-88.85100603103638,17.056128165711144],[-88.85100603103638,17.056784609942554],[-88.8510274887085,17.05842571042548],[-88.85207891464233,17.056784609942554],[-88.85308742523193,17.055143495037555],[-88.85308027245458,17.055143495037555],[-88.85313034057617,17.05506143891374],[-88.85336637496948,17.05473321405799],[-88.85351657867432,17.05456910141382],[-88.85418176651001,17.05401522017506],[-88.85478258132935,17.05362545091134],[-88.85514736175537,17.053461337293783],[-88.85570526123047,17.053287681977057],[-88.85570526123047,17.053297223532056],[-88.85590721601062,17.053224820255767],[-88.8560700416565,17.05317413811612],[-88.8561232193737,17.05314738038945],[-88.85622024536133,17.053112595377755],[-88.85634183879115,17.053037376445616],[-88.85647773742676,17.05296899557601],[-88.85655584314284,17.05290499117751],[-88.85658502578735,17.05288693849687],[-88.856627941478,17.052845909578814],[-88.85692834854126,17.052599738436015],[-88.857421875,17.051963793872716],[-88.85913848876953,17.049748228161803],[-88.85913848876953,17.049722637848678],[-88.85941743850708,17.04935844999477],[-88.85986804962158,17.04888661217828],[-88.86012554168701,17.04874300912803],[-88.8604474067688,17.048619920711417],[-88.86171340942383,17.048373743634897],[-88.86184215545654,17.048291684537304],[-88.86197090148926,17.048189110614658],[-88.86209964752197,17.047922418152197],[-88.86237859725952,17.046876159431292],[-88.86265754699707,17.04613762033648],[-88.86366605758667,17.044270744610415],[-88.86398792266846,17.04351167991645],[-88.8640308380127,17.04324498077858],[-88.86415958404541,17.04098828053243],[-88.864266872406,17.040413843392272],[-88.8644814491272,17.039736825925175],[-88.86450290679932,17.03959321584422],[-88.86443853378296,17.039470121401294],[-88.864266872406,17.03928547958496],[-88.86312961578369,17.038362267767837],[-88.86293649673462,17.038136593074682],[-88.86289358139038,17.037746790690335],[-88.86306524276733,17.0366389268451],[-88.86300086975098,17.035941379574837],[-88.86282920837402,17.035264345912267],[-88.8628077507019,17.034402663160108],[-88.86289358139038,17.034115434693717],[-88.86340856552124,17.032945999954663],[-88.86355876922607,17.032330505049572],[-88.86364459991455,17.0314482921533],[-88.86375188827515,17.027980949991388],[-88.86621952056885,17.02793991597153],[-88.86679887771606,17.028083535001613],[-88.86787176132202,17.028493874480006],[-88.86815071105957,17.028678526951623],[-88.86832237243652,17.02880162849813],[-88.86842966079712,17.028965763767445],[-88.86969566345215,17.03114054248958],[-88.86980295181274,17.031284159062338],[-88.87018918991089,17.031530358644787],[-88.87173414230347,17.032104823076864],[-88.87203454971313,17.032289471983887],[-88.87207746505737,17.032433087674434],[-88.87209892272949,17.03261773625735],[-88.87186288833618,17.035018151245396],[-88.87186288833618,17.035346410729204],[-88.87194871902466,17.035613121135484],[-88.87212038040161,17.035900347301435],[-88.87231349945068,17.036084992460843],[-88.87259244918823,17.036228605236573],[-88.87304306030273,17.036331185723114],[-88.87458801269531,17.03643376615338],[-88.87486696243286,17.036474798309726],[-88.87561798095703,17.036844087311678],[-88.87757062911987,17.037951949941302],[-88.87864351272583,17.03832123602571],[-88.87926578521729,17.03846484708376],[-88.88104677200317,17.038259688395627],[-88.88123989105225,17.03819814074528],[-88.88154029846191,17.037972465853997],[-88.88222694396973,17.037131311586748],[-88.8824200630188,17.036987699504365],[-88.88267755508423,17.036864603345975],[-88.88424396514893,17.03655686259542],[-88.88473749160767,17.036515830457077],[-88.88510227203369,17.03657737866122],[-88.88997316360474,17.038075045383806],[-88.89031648635864,17.038136593074682],[-88.89102458953857,17.03817762485734],[-88.89132499694824,17.038239172514437],[-88.89166831970215,17.038362267767837],[-88.89261245727539,17.03881361633691],[-88.89293432235718,17.038936711212102],[-88.8932991027832,17.038977742819142],[-88.89417886734009,17.038977742819142],[-88.89432907104492,17.0389982586193],[-88.89439344406128,17.03910083758626],[-88.89437198638916,17.03926496381635],[-88.89398574829102,17.039654763035287],[-88.89377117156982,17.040126624160223],[-88.89377117156982,17.04037281210043],[-88.89389991760254,17.040618999716415],[-88.89417886734009,17.040783124613597],[-88.89499425888062,17.04100879611194],[-88.89540195465088,17.041172920666895],[-88.89602422714233,17.041562715907347],[-88.89726877212524,17.042485911918618],[-88.8984489440918,17.043798893946985],[-88.89857769012451,17.043880955017514],[-88.90143156051636,17.04519392724545],[-88.90175342559814,17.045234957478925],[-88.90205383300781,17.045214442363303],[-88.90246152877808,17.044988775942883],[-88.90306234359741,17.044598987847564],[-88.9033842086792,17.04449641189788],[-88.90364170074463,17.0444758967012],[-88.9043927192688,17.04464001821168],[-88.90480041503906,17.044660533390356],[-88.90724658966064,17.044537442284522],[-88.90735808378344,17.055143495037555],[-88.90735387802124,17.055143495037555],[-88.90737533569336,17.056784609942554],[-88.90758991241455,17.078651089126325],[-88.94187927246094,17.063800213533042],[-88.9397120475769,17.06156427492806],[-88.93507719039917,17.056784609942554],[-88.93348932266235,17.055143495037555],[-88.9334883929259,17.055143495037555],[-88.92040014266968,17.041624262449943],[-88.92080783843994,17.041583231423814],[-88.92119407653809,17.041603746937994],[-88.92542123794556,17.042055087680794],[-88.92585039138794,17.042137149516947],[-88.92612934112549,17.04223972676145],[-88.92640829086304,17.042403850235573],[-88.92844676971436,17.04373734812046],[-88.92896175384521,17.04394250079676],[-88.930184841156,17.044086107536174],[-88.93048524856567,17.044086107536174],[-88.93106460571289,17.04396301605199],[-88.93203020095825,17.04359374111307],[-88.93293142318726,17.043347557415103],[-88.93340349197388,17.043347557415103],[-88.93389701843262,17.043450133995336],[-88.93456220626831,17.04377837867375],[-88.9357852935791,17.04451692709233],[-88.93730878829956,17.045399078322802],[-88.93793106079102,17.045809379801852],[-88.9417290687561,17.049481537924848],[-88.94248008728027,17.050138005515635],[-88.94269466400146,17.05024057836833],[-88.94297361373901,17.05032263660992],[-88.9453125,17.05073292727728],[-88.94702911376953,17.051040644686466],[-88.94702911376953,17.051031319834575],[-88.9476728439331,17.05114321704356],[-88.94782304763794,17.050343151164697],[-88.94805908203125,17.04941999396995],[-88.94870281219482,17.048230140190483],[-88.94896030426025,17.047573665896167],[-88.94900321960449,17.047204398092035],[-88.94900321960449,17.046773584731568]]]}}]}
