{"type":"FeatureCollection","features":[{"type":"Feature","properties":{"projectId":"VCS852","name":"Rio Bravo Climate Action Project","sourceRegistry":"Verra VCS","externalId":"VCS852","projectType":"avoided_deforestation","country":"Belize","vintageYears":[2010,2015,2016,2017,2018,2019,2020,2021],"sourceUrl":"https://zenodo.org/records/11459391","license":"CC BY 4.0 (Karnik et al. dataset); CarbonPlan Terms of Use also apply to the PMTiles derivative","retrievedAt":"2026-10-05","illustrative":false},"geometry":{"type":"MultiPolygon","coordinates":[[[[-88.8184118270874,17.56439937882479],[-88.81838582431163,17.561883115862912],[-88.81839036941528,17.561883115862912],[-88.81836891174316,17.560246503294906],[-88.81836891174316,17.558609875932902],[-88.81835280337934,17.558609875932902],[-88.81798267364502,17.5210042905926],[-88.79916429519653,17.521188450108554],[-88.79953434897959,17.558609875932902],[-88.79952907562256,17.558609875932902],[-88.79955053329468,17.560246503294906],[-88.79963636398315,17.568981751596468],[-88.8123607635498,17.565054010609643],[-88.8130259513855,17.564910810109026],[-88.81377696990967,17.564685780521984],[-88.81474256515503,17.56429709239454],[-88.81523609161377,17.564174348601938],[-88.81628751754761,17.56390840343245],[-88.81697416305542,17.5638674887563],[-88.8174033164978,17.56399023275698],[-88.81781101226807,17.56421526320871],[-88.81819725036621,17.564358464259627],[-88.8184118270874,17.56439937882479]]],[[[-88.7925124168396,17.800955186929713],[-88.79179915317874,17.72939370116501],[-88.79180431365967,17.72939370116501],[-88.79178285598755,17.727758609852287],[-88.79148244857788,17.69685258021869],[-88.78998041152954,17.697363635892614],[-88.78901481628418,17.699203424274913],[-88.78774881362915,17.69981668287963],[-88.78568887710571,17.70159512098708],[-88.78560304641724,17.701390703709976],[-88.78498077392578,17.70102275202457],[-88.7843370437622,17.70151335410418],[-88.78448724746704,17.69711832935066],[-88.7876844406128,17.693193379105395],[-88.78830671310425,17.693500018932326],[-88.78710508346558,17.697997342908224],[-88.78869295120239,17.694951440342564],[-88.79058122634888,17.693724887806013],[-88.79143953323364,17.692212128141136],[-88.79096746444702,17.644022027872722],[-88.79066705703735,17.611894945829675],[-88.77124786376953,17.612120435719625],[-88.77124786376953,17.612119916648837],[-88.76953125,17.612140368527577],[-88.76227855682373,17.612222176019387],[-88.76227855682373,17.613981028124144],[-88.76240730285645,17.62995307456805],[-88.76262187957764,17.644022027872722],[-88.76264333724976,17.645657881384096],[-88.76264609589951,17.645657881384096],[-88.76281499862671,17.657067546354654],[-88.76290082931519,17.66610479635999],[-88.74103546142578,17.666288808047554],[-88.74099254608154,17.667065744208927],[-88.74097108840942,17.668190251130895],[-88.74109983444214,17.669928111637375],[-88.74120712280273,17.670602805897218],[-88.74180793762207,17.67215663759599],[-88.74223709106445,17.672933548410825],[-88.74249458312988,17.673260667749744],[-88.74210834503174,17.669212524050593],[-88.74571323394775,17.673035773268154],[-88.74951124191284,17.674160242863408],[-88.74567031860352,17.675182481847898],[-88.74657154083252,17.675305150135486],[-88.74704360961914,17.67544826303191],[-88.74736547470093,17.675570931138168],[-88.74753713607788,17.67571404382302],[-88.74760150909424,17.675959379589187],[-88.74773025512695,17.676797607597635],[-88.74775171279907,17.677410942688766],[-88.74783754348755,17.677594942808085],[-88.75208616256714,17.677615387254164],[-88.75255823135376,17.6810909092912],[-88.74803066253662,17.68170422973361],[-88.74815940856934,17.684321040105303],[-88.7504768371582,17.68528189059917],[-88.74976873397827,17.690331382142745],[-88.7485671043396,17.690413154117365],[-88.74854564666748,17.692334784804842],[-88.74863147735596,17.692968509566242],[-88.74873876571655,17.693397805714852],[-88.74899625778198,17.69366355995929],[-88.74933958053589,17.693949756398155],[-88.75219345092773,17.694174624708737],[-88.75172138214111,17.69760894209945],[-88.75221490859985,17.69824264824929],[-88.75410318374634,17.70134982022661],[-88.75429630279541,17.701799538031423],[-88.75489711761475,17.70259676228015],[-88.75511169433594,17.703026035409067],[-88.75536918640137,17.70341442449825],[-88.75760078430176,17.703802812747043],[-88.75978946685791,17.704293407228477],[-88.76195669174194,17.704702234938637],[-88.76251459121704,17.704927089782302],[-88.76335144042969,17.705090620400753],[-88.76408100128174,17.70529503346428],[-88.76461744308472,17.70547900502241],[-88.76545429229736,17.705622093881672],[-88.76684904098511,17.705928712481665],[-88.76744985580444,17.706112683390216],[-88.76781463623047,17.70652968276258],[-88.76781463623047,17.706541948110072],[-88.76830816268921,17.707093858384013],[-88.76858711242676,17.70750267971482],[-88.7689733505249,17.70825899672147],[-88.76920938491821,17.70879046081909],[-88.76923084259033,17.70926060082408],[-88.76935958862305,17.7097102988066],[-88.76953125,17.71003735117688],[-88.76970291137695,17.710343962232614],[-88.76989603042603,17.710875420154636],[-88.77030372619629,17.711713485217658],[-88.77124786376953,17.712633308219395],[-88.77124786376953,17.712627372940307],[-88.77163410186768,17.713001236099572],[-88.77277135848999,17.714002813727944],[-88.77440214157104,17.715474509484935],[-88.77476692199707,17.71600595220744],[-88.77633333206177,17.71757983103285],[-88.77729892730713,17.71866314219905],[-88.77777099609375,17.719112816610206],[-88.77854347229004,17.720359635216013],[-88.77877950668335,17.720829744898722],[-88.7789511680603,17.72127941387666],[-88.77890304038063,17.72612350362283],[-88.77888679504395,17.72612350362283],[-88.77888679504395,17.727758609852287],[-88.77886533737183,17.72939370116501],[-88.77886938475793,17.72939370116501],[-88.77877950668335,17.737834622741914],[-88.77835035324097,17.767405366231856],[-88.77854347229004,17.79932074976746],[-88.77918720245361,17.799239027516393],[-88.77938032150269,17.801261642231054],[-88.78047466278076,17.80336595441841],[-88.78060340881348,17.8057562595137],[-88.78498077392578,17.79733897462998],[-88.7925124168396,17.800955186929713]]]]}}]}
