{"type":"FeatureCollection","features":[{"type":"Feature","properties":{"projectId":"VCS818","name":"Protection of the Bolivian Amazon Forest","sourceRegistry":"Verra VCS","externalId":"VCS818","projectType":"avoided_deforestation","country":"Bolivia","vintageYears":[2012],"sourceUrl":"https://zenodo.org/records/11459391","license":"CC BY 4.0 (Karnik et al. dataset); CarbonPlan Terms of Use also apply to the PMTiles derivative","retrievedAt":"2026-10-05","illustrative":false},"geometry":{"type":"Polygon","coordinates":[[[-66.29703998565674,-12.142067841028052],[-66.29691123962402,-12.144018754770372],[-66.29410028457642,-12.14418657463969],[-66.29414319992065,-12.14475296591769],[-66.29244804382324,-12.145235446426355],[-66.29088163375854,-12.146137472857987],[-66.2909460067749,-12.148759625360356],[-66.29169702529907,-12.14873864824284],[-66.29324197769165,-12.146221382138123],[-66.29272699356079,-12.145508152414052],[-66.29330635070801,-12.145466197664902],[-66.29476547241211,-12.146242359454021],[-66.29412174224854,-12.147563927023086],[-66.29661083221436,-12.14810933394844],[-66.29618167877197,-12.152724270883368],[-66.28781318664551,-12.153500411505547],[-66.28695487976074,-12.15003922640257],[-66.28725528717041,-12.148528876976698],[-66.2894868850708,-12.146137472857987],[-66.2889289855957,-12.14529837860215],[-66.28549575805664,-12.146452132522086],[-66.28521680831909,-12.147878585001024],[-66.28369331359863,-12.148319105545227],[-66.28023862838745,-12.148654739756225],[-66.27903699874878,-12.148885488030743],[-66.2789511680603,-12.150794397901194],[-66.27736330032349,-12.151906174263075],[-66.2764835357666,-12.15192715113092],[-66.27352237701416,-12.154821943030697],[-66.26953125,-12.155199522260645],[-66.26893043518066,-12.155262452080194],[-66.26953125,-12.152430595462931],[-66.27111911773682,-12.144899807904181],[-66.29703998565674,-12.142067841028052]]]}}]}
