{"type":"FeatureCollection","features":[{"type":"Feature","properties":{"projectId":"VCS999","name":"Protection of the Amazon Rain Forest II","sourceRegistry":"Verra VCS","externalId":"VCS999","projectType":"avoided_deforestation","country":"Bolivia","vintageYears":[],"sourceUrl":"https://zenodo.org/records/11459391","license":"CC BY 4.0 (Karnik et al. dataset); CarbonPlan Terms of Use also apply to the PMTiles derivative","retrievedAt":"2026-10-05","illustrative":false},"geometry":{"type":"Polygon","coordinates":[[[-67.09902048110962,-11.030715642402285],[-67.0951795578003,-11.047606268327158],[-67.07494497299194,-11.045542378613703],[-67.060546875,-11.043773318736967],[-67.05883026123047,-11.043562715660542],[-67.05883026123047,-11.043559193654918],[-67.05413103103638,-11.042973026242805],[-66.97265625,-11.033390407240788],[-66.93032026290894,-11.028398897279345],[-66.90154552459717,-11.025197546701975],[-66.88648223876953,-11.023401376637763],[-66.88648223876953,-11.02340730256617],[-66.884765625,-11.023196684892554],[-66.87560319900513,-11.022101470558724],[-66.87403678894043,-11.005904459659448],[-66.87386512756348,-11.004219413864234],[-66.87387452732922,-11.004219413864234],[-66.87199831008911,-10.984735372334939],[-66.88304901123047,-10.981818184586652],[-66.88304901123047,-10.981807388937156],[-66.884765625,-10.981365029208277],[-66.91002130508423,-10.97470848852464],[-66.97265625,-10.993308509192161],[-66.97437286376953,-10.993814042653426],[-66.97437286376953,-10.993817436483768],[-67.0151424407959,-11.005904459659448],[-67.02082872390747,-11.007589495816603],[-67.02081999308643,-11.007589495816603],[-67.03338146209717,-11.011317604055321],[-67.060546875,-11.019447665070075],[-67.06640481948853,-11.021216871389115],[-67.09902048110962,-11.030715642402285]]]}}]}
