{
 "type": "FeatureCollection",
 "features": [
  {
   "type": "Feature",
   "properties": {
    "projectId": "SYN-02-DUPLICATE",
    "vintageYear": 2023,
    "claimedCredits": 30000,
    "projectType": "avoided_deforestation",
    "dataLabel": "synthetic",
    "note": "Duplicate claim: same land, same vintage, different developer is blocked"
   },
   "geometry": {
    "type": "Polygon",
    "coordinates": [
     [
      [
       -65.05,
       -4.05
      ],
      [
       -65.0,
       -4.05
      ],
      [
       -65.0,
       -4.0
      ],
      [
       -65.05,
       -4.0
      ],
      [
       -65.05,
       -4.05
      ]
     ]
    ]
   }
  }
 ]
}